id;title;streetAddress;postalCode;addressLocality;tel;email;url;image;logo;restauranteEnHotel;socioHoreca;sinGluten;fincaCatering;servesCuisine;accesibilidad;comment;tenedores;capacidad;geometry;lastUpdated;description;link;sameAs
"https://www.zaragoza.es/sede/recurso/turismo/restaurante//14";"RESTAURANTE EL CACHIRULO";"Ctra. de Logroño Km. 1,500";"50011";"Zaragoza";"";"congresos@elcachirulo.es";"http://www.elcachirulo.es";"/cont/paginas/turismo/oficina/rsc/img/empresa/062.-RTeCachiruloAP.jpg";"/cont/paginas/turismo/oficina/rsc/img/empresa/059-el-cachirulo.gif";"";"true";"";"";"";"<div><img src=""http://www.zaragoza.es/cont/paginas/sinbarreras/img/icono_acomp1.jpg"" alt=""Accesible con Acompañante""/>Accesible con Acompañante</div><ul><li> Acceso:  Adaptado. Rampa de acceso por un lateral del restaurante a los jardines</li><li>Ascensor en zona interior</li><li>Aseos Adaptados: No</li></ul><p><em>Información facilitada por Disminuidos Físicos de Aragón</em></p>";"Ubicado en un grandioso y elegante edificio de corte aragonés, El Cachirulo tiene varios salones con capacidad de entre 30 y 600 personas. Está rodeado de amplios jardines y ofrece platos como la ensalada de hortalizas asadas sobre salmorejo de tomare, albahaca, láminas de bacalao y aderezadas con aceite de gorbinas.";"2";"1500";"671271.45 4615302.48";2017-04-18T22:00:00Z;"Ctra. de Logroño Km. 1,500 <strong><abbr title=""Tel�fono"">Tel.:</abbr></strong> 976796323";"";"http://www.zaragoza.es/api/recurso/turismo/restaurante/14"
"https://www.zaragoza.es/sede/recurso/turismo/restaurante//16";"HOTEL PALAFOX";"C/ Marqués de Casa Jiménez s/n";"50004";"Zaragoza";"";"hotelpalafox@palafoxhoteles.com";"http://www.palafoxhoteles.com";"/cont/paginas/turismo/oficina/rsc/img/empresa/022.%20I_PalafoxCervantes.jpg";"/cont/paginas/turismo/oficina/rsc/img/empresa/022.%20L_Palafox.jpg";"true";"";"";"";"";"";"Restaurante Aragonia Paradis";"";"";"676187.38 4613359.0";2018-01-09T23:00:00Z;"C/ Marqués de Casa Jiménez s/n <strong><abbr title=""Tel�fono"">Tel.:</abbr></strong> 976 23 77 00";"";"http://www.zaragoza.es/api/recurso/turismo/restaurante/16"
"https://www.zaragoza.es/sede/recurso/turismo/restaurante//17";"HOTEL NH GRAN HOTEL";"C/ Joaquín Costa, 5";"50001";"Zaragoza";"";"nhgranhotel@nh-hotels.com";"http://www.nh-hotels.com";"/cont/paginas/turismo/oficina/rsc/img/empresa/granhotel3.jpg";"/cont/paginas/turismo/oficina/rsc/img/empresa/030-nh-gran-hotel.gif";"true";"true";"";"";"";"";"Con decoración clásica y un ambiente cogedor, el restaurante. La Ontina está ubicado en el clásico Gran Hotel de Zaragoza, en pleno centro. En un ambiente selecto se puede degustar un manú gastronómico por 35 euros o probar cualquiera de las especialidades de su carta, como la borraja salteada con papada glaseada y huevas de arenque o el tataki de atún marinado con asadillo de pimientos de cristal.";"";"";"676522.76 4613183.22";2017-03-12T23:00:00Z;"C/ Joaquín Costa, 5 <strong><abbr title=""Tel�fono"">Tel.:</abbr></strong> 976 22 19 01";"";"http://www.zaragoza.es/api/recurso/turismo/restaurante/17"
"https://www.zaragoza.es/sede/recurso/turismo/restaurante//47";"HOTEL ZENIT DON YO";"C/ Bruil, 4-6";"50001";"Zaragoza";"";"reservasdonyo@zenithoteles.com";"http://donyo.zenithoteles.com/index.php/es";"/cont/paginas/turismo/oficina/rsc/img/empresa/donyo3.jpg";"/cont/paginas/turismo/oficina/rsc/img/empresa/039-hotel-zenit.gif";"true";"";"";"";"";"";"Restaurante Centenario.  Restaurante del Hotel Zenit Don Yo. Cerrado domingos tarde.";"";"";"676343.68 4613128.68";2017-03-12T23:00:00Z;"C/ Bruil, 4-6 <strong><abbr title=""Tel�fono"">Tel.:</abbr></strong> 976 22 67 41";"";"http://www.zaragoza.es/api/recurso/turismo/restaurante/47"
"https://www.zaragoza.es/sede/recurso/turismo/restaurante//49";"HOTEL EUROSTARS BOSTON";"Cmno. de las Torres, 28";"50008";"Zaragoza";"";"comercial@hotelboston.es";"http://www.hotelboston.es";"/cont/paginas/turismo/oficina/rsc/img/empresa/boston.jpg";"/cont/paginas/turismo/oficina/rsc/img/empresa/021.%20L_Boston.png";"true";"";"";"";"";"";"Restaurante ""Amaranto"". Ofrece almuerzos y cenas, excepto domingos por la noche.

email: cbanquetes@hotelboston.es
web: www.restauranteamaranto.com";"";"";"676927.21 4612798.85";2017-03-13T23:00:00Z;"Cmno. de las Torres, 28 <strong><abbr title=""Tel�fono"">Tel.:</abbr></strong> 976 59 91 92";"";"http://www.zaragoza.es/api/recurso/turismo/restaurante/49"
"https://www.zaragoza.es/sede/recurso/turismo/restaurante//61";"GUETARIA";"C/ Madre Vedruna, 10";"50008";"Zaragoza";"";"";"";"";"";"";"";"";"";"";"";"N:56";"2";"56";"676456.11 4612895.14";2017-03-14T23:00:00Z;"C/ Madre Vedruna, 10 <strong><abbr title=""Tel�fono"">Tel.:</abbr></strong> 976 21 53 16";"";"http://www.zaragoza.es/api/recurso/turismo/restaurante/61"
"https://www.zaragoza.es/sede/recurso/turismo/restaurante//72";"HOTEL EL PRÍNCIPE";"C/ Santiago, 12";"50003";"Zaragoza";"";"reservas@hotel-elprincipe.com";"http://www.hotelelprincipezaragoza.es";"";"";"true";"";"";"";"";"Escalón a la entrada.";"";"";"";"676719.04 4613905.13";2017-03-13T23:00:00Z;"C/ Santiago, 12 <strong><abbr title=""Tel�fono"">Tel.:</abbr></strong> 976 29 41 01";"";"http://www.zaragoza.es/api/recurso/turismo/restaurante/72"
"https://www.zaragoza.es/sede/recurso/turismo/restaurante//75";"HOTEL SILKEN REINO DE ARAGÓN";"C/ Coso, 80";"50001";"Zaragoza";"";"ventas.zaragoza@hoteles-silken.com";"http://www.hotelreinodearagon.com";"/cont/paginas/turismo/oficina/rsc/img/empresa/silkenreino2.jpg";"/cont/paginas/turismo/oficina/rsc/img/empresa/035-hoteles-silken.gif";"true";"";"";"";"";"";"Restaurante ""Los Fueros""";"";"";"676742.69 4613448.0";2017-04-11T22:00:00Z;"C/ Coso, 80 <strong><abbr title=""Tel�fono"">Tel.:</abbr></strong> 976 46 82 00";"";"http://www.zaragoza.es/api/recurso/turismo/restaurante/75"
"https://www.zaragoza.es/sede/recurso/turismo/restaurante//78";"HOTEL DON JAIME 54";"C/ Don Jaime I, 54-56";"50001";"Zaragoza";"";"info@hoteldonjaime54.es";"http://http://www.hoteldonjaime54.es";"";"";"true";"";"";"";"";"";"Restaurante Bi Burga.";"";"";"676899.05 4613866.15";2017-03-12T23:00:00Z;"C/ Don Jaime I, 54-56 <strong><abbr title=""Tel�fono"">Tel.:</abbr></strong> 976 29 43 22";"";"http://www.zaragoza.es/api/recurso/turismo/restaurante/78"
"https://www.zaragoza.es/sede/recurso/turismo/restaurante//109";"HOTEL NH SPORT";"C/ Moncayo, 5";"50010";"Zaragoza";"";"nhsport@nh-hotels.com";"http://www.nh-hotels.com";"";"";"true";"";"";"";"";"<div><img src=""/cont/paginas/sinbarreras/img/icono_silla1.jpg"" alt=""Accesible""/> Accesible </div>
<ul>
    <li><strong>Aparcamiento</strong>: Dos plazas reservadas (sin señalizar)   </li>
    <li><strong>Entrada</strong>: Adaptada a cota cero, puertas automáticas.    </li>
    <li><strong>Movilidad en el interior del edificio:</strong>
    <ul>
        <li><strong>Zonas comunes:</strong>
        <ul>
            <li> Recepción con mostrador no adaptado en altura. Servicio personalizado.</li>
            <li>Espacios Amplios:  Sí. Pavimento de moqueta.</li>
            <li>Ascensor Adaptado:  Sí. Con espejo, barra de apoyo, botonera en braille. Dispositivo sonoro.</li>
            <li>Aseos Adaptados: Sí.</li>
            <li>Zonas comunes: Zona de desayunos, salón de encuentros y reuniones.</li>
        </ul>
        </li>
        <li><strong>Habitaciones:</strong>
        <ul>
            <li> Habitaciones Adaptadas: Dispone de 2.</li>
            <li>Puertas: Adaptadas en anchura. con espacios amplios                            </li>
            <li>Espacios Amplios. Sí, no hay dificultad de giro </li>
            <li>Aseos Adaptados: Sí. Ducha a cota cero, asiento abatible y barras de apoyo. Inodoro con espacio para la transferencia lateral y barras de apoyo, fija y móvil. Lavabo sin pedestal y espejo inclinado.</li>
        </ul>
        </li>
    </ul>
    </li>
</ul>
<p><em>Información facilitada por Disminuidos Físicos de Aragón</em></p>";"Restaurante Hotel NH Sport. Lunes a Viernes";"";"";"675376.63 4613229.5";2017-03-13T23:00:00Z;"C/ Moncayo, 5 <strong><abbr title=""Tel�fono"">Tel.:</abbr></strong> 976 31 11 14";"";"http://www.zaragoza.es/api/recurso/turismo/restaurante/109"
"https://www.zaragoza.es/sede/recurso/turismo/restaurante//130";"PARQUE DE ATRACCIONES DE ZARAGOZA";"Pº Duque de Alba,  s/n";"50007";"Zaragoza";"";"info@atraczara.com";"http://www.atraczara.com";"/cont/paginas/turismo/oficina/rsc/img/empresa/125.-Parque-AtraAP.jpg";"/cont/paginas/turismo/oficina/rsc/img/empresa/119-parque-atracciones.gif";"";"";"";"";"";"";"Bocadillos, menús sin gluten y helados";"";"";"675289.06 4609886.0";2017-10-18T22:00:00Z;"Pº Duque de Alba,  s/n <strong><abbr title=""Tel�fono"">Tel.:</abbr></strong> 902 37 80 00";"";"http://www.zaragoza.es/api/recurso/turismo/restaurante/130"
"https://www.zaragoza.es/sede/recurso/turismo/restaurante//134";"GARDEN NEW FUSSION";"C/ San Juan Bosco, 3";"50009";"Zaragoza";"";"restaurante@restaurantegarden.com";"http://www.restaurantegarden.com";"/cont/paginas/turismo/oficina/rsc/img/empresa/garden2.jpg";"/cont/paginas/turismo/oficina/rsc/img/empresa/72-garden.gif";"";"true";"";"";"";"";"Restaurante especializado en banquetes que ahora ofrece también menús del día a precios asequibles. Elabora ensaldas y pescados de gran calidad. Con capacidad de 450 personas, Garden consta de dos plantas y ofrece la posibilidad de dividirse en salones para menos capacidad.";"2";"720";"674990.66 4612671.41";2017-03-14T23:00:00Z;"C/ San Juan Bosco, 3 <strong><abbr title=""Tel�fono"">Tel.:</abbr></strong> 976 55 16 25";"";"http://www.zaragoza.es/api/recurso/turismo/restaurante/134"
"https://www.zaragoza.es/sede/recurso/turismo/restaurante//145";"RESTAURANTE PARRILLA DE ALBARRACÍN";"Pza. del Carmen, 1-2-3";"50004";"Zaragoza";"";"info@parrillaalbarracin.com";"http://www.parrillaalbarracin.com";"/cont/paginas/turismo/oficina/rsc/img/empresa/parrilla2.jpg";"/cont/paginas/turismo/oficina/rsc/img/empresa/87-parrilla-albarracin.gif";"";"true";"";"";"";"";"Bombones de patata de cordero deshuesada con setas, migas siglo XXI, jarrete de ternasco sobre puré de berza en guiso de vino tinto y rebozuelos y un ""postre de leche"" son algunas de las especialidades de este establecimiento situado en pleno centro, muy cerca de un aparcamiento público. Su cocins se basa en la actualización del recetario aragonés y posee una amplia bodega.";"2";"66";"676226.31 4613390.45";2017-04-11T22:00:00Z;"Pza. del Carmen, 1-2-3 <strong><abbr title=""Tel�fono"">Tel.:</abbr></strong> 976 15 81 00";"";"http://www.zaragoza.es/api/recurso/turismo/restaurante/145"
"https://www.zaragoza.es/sede/recurso/turismo/restaurante//149";"LA MATILDE";"C/ Predicadores, 7";"50003";"Zaragoza";"";"luispuyuelo@gmail.com";"http://www.lamatilde.com";"/cont/paginas/turismo/oficina/rsc/img/empresa/la%20matilde_1.jpg";"/cont/paginas/turismo/oficina/rsc/img/empresa/80-la-matilde.gif";"";"true";"";"";"";"";"Veterano restautante con cocina de calidad en la que destacan especialidades como la lasagna de morcilla de Burgos y hortalizas con emulsión de piquillos o el arroz negro gratinado con alioli de reineta. Cuentan con una de las mejores bodegas de España y con una decoración repleta de antigüedades y objetos de coleccionista, como placas de cava o anillas de puros. Hay un menú degustación por 43.50 euros.";"1";"60";"676360.98 4614064.15";2017-03-22T23:00:00Z;"C/ Predicadores, 7 <strong><abbr title=""Tel�fono"">Tel.:</abbr></strong> 976 43 34 43";"";"http://www.zaragoza.es/api/recurso/turismo/restaurante/149"
"https://www.zaragoza.es/sede/recurso/turismo/restaurante//174";"HOTEL ORIENTE";"C/ Coso, 11-13";"50003";"Zaragoza";"";"recepcion.oriente@srhoteles.es";"http://www.hotel-oriente.es";"/cont/paginas/turismo/oficina/rsc/img/empresa/I_Oriente.jpg";"/cont/paginas/turismo/oficina/rsc/img/empresa/L_SrHoteles.jpg";"true";"";"";"";"";"";"Restaurante Umai. Se encuentra en pleno centro histórico de Zaragoza, cerca de la Basílica del Pilar. Donde podrás disfrutar de lo mejor de la cocina Aragonesa con sensaciones de cocina de autor, y todo ellos dentro de un marco con una decoración que te adentrarán en el mundo de las sensaciones.";"";"";"676417.45 4613670.2";2017-10-25T22:00:00Z;"C/ Coso, 11-13 <strong><abbr title=""Tel�fono"">Tel.:</abbr></strong> 976 20 32 82";"";"http://www.zaragoza.es/api/recurso/turismo/restaurante/174"
"https://www.zaragoza.es/sede/recurso/turismo/restaurante//176";"HOTEL GOYA";"C/ Cinco de Marzo,  5";"50004";"Zaragoza";"";"hotelgoya@palafoxhoteles.com";"http://www.palafoxhoteles.com";"/cont/paginas/turismo/oficina/rsc/img/empresa/029.%20I_Goyaweb.jpg";"/cont/paginas/turismo/oficina/rsc/img/empresa/028-hotel-goya.gif";"true";"";"";"";"";"";"Restaurante del Hotel Goya.";"";"";"676425.91 4613472.09";2017-10-22T22:00:00Z;"C/ Cinco de Marzo,  5 <strong><abbr title=""Tel�fono"">Tel.:</abbr></strong> 976 22 93 31";"";"http://www.zaragoza.es/api/recurso/turismo/restaurante/176"
"https://www.zaragoza.es/sede/recurso/turismo/restaurante//177";"EL FORO";"C/ Eduardo Ibarra, 4.";"50009";"Zaragoza";"";"elforo@elforo98.com";"http://www.elforo98.com";"/cont/paginas/turismo/oficina/rsc/img/empresa/espumosos_2.jpg";"/cont/paginas/turismo/oficina/rsc/img/empresa/069-el-foro.gif";"";"true";"";"";"Sin Gluten";"<div><img src=""http://www.zaragoza.es/cont/paginas/sinbarreras/img/icono_acomp1.jpg"" alt=""Icono de Accesible con Acompañante""/>Accesible con Acompañante</div><ul><li> Acceso: Adaptado.  Comunica el restaurante por un acceso con rampa a través de la Residencia de ancianos MAZA</li><li>Aseos Adaptados: No</li></ul><p><em>Información facilitada por Disminuidos Físicos de Aragón</em></p>";"Restaurante El Foro, se encuentra en una ubicación estratégica; frente al Auditorio - Palacio de Congresos y al campo de fútbl La Romareda. Está a 10 minutos de la estación de tren Delicias y a 20 minutos del aueropuerto de Zaragoza. Contamos con un espacio único e ideal para cada ocasión; el restaurante, la terraza - cenador cubierta, el salón de banquetes y 3 comedores privados. Bodas, comuniones, bautizos, comidas y reuniones de empresa. Al lado de un amplio aparcamiento.";"2";"360";"674800.5 4611970.5";2017-03-13T23:00:00Z;"C/ Eduardo Ibarra, 4. <strong><abbr title=""Tel�fono"">Tel.:</abbr></strong> 976 35 11 04";"";"http://www.zaragoza.es/api/recurso/turismo/restaurante/177"
"https://www.zaragoza.es/sede/recurso/turismo/restaurante//179";"ROGELIOS";"C/ Eduardo Ibarra, 10";"50009";"Zaragoza";"";"correo@rogelios.es";"http://www.rogelios.es";"/cont/paginas/turismo/oficina/rsc/img/empresa/restrogelios.jpg";"/cont/paginas/turismo/oficina/rsc/img/empresa/060-rogelios.gif";"";"";"";"";"";"<div><img src=""http://www.zaragoza.es/cont/paginas/sinbarreras/img/icono_silla1.jpg"" alt=""Accesible""/>Accesible </div><ul><li> Acceso:  Adaptado con Rampa</li><li>Aseos Adaptados: Sí</li></ul><p><em>Información facilitada por Disminuidos Físicos de Aragón</em></p>";"Restaurante decorado con antigüedades del seglo XV. Preparan platos como la parrillada de verduras naturales con aceite del Bajo Aragón, solomillo de ternera asturiana al foie y pescados de temporada. Está situado junto a un gran aparcamiento público.";"2";"662";"674708.55 4611839.55";2017-03-21T23:00:00Z;"C/ Eduardo Ibarra, 10 <strong><abbr title=""Tel�fono"">Tel.:</abbr></strong> 976 35 89 50";"";"http://www.zaragoza.es/api/recurso/turismo/restaurante/179"
"https://www.zaragoza.es/sede/recurso/turismo/restaurante//186";"LOS DELFINES";"C/ Santander, 31";"50010";"Zaragoza";"";"";"http://www.restaurantelosdelfines.com";"";"";"";"";"";"";"";"";"";"1";"160";"675173.12 4613157.54";2017-03-28T22:00:00Z;"C/ Santander, 31 <strong><abbr title=""Tel�fono"">Tel.:</abbr></strong> 976 56 43 96";"";"http://www.zaragoza.es/api/recurso/turismo/restaurante/186"
"https://www.zaragoza.es/sede/recurso/turismo/restaurante//192";"NEGURI";"C/ Manuel Lasala, 44 - Local 2";"50006";"Zaragoza";"";"goyesco@restaurantegoyesco.com";"";"";"";"";"true";"";"";"";"";"";"2";"205";"675276.99 4611897.42";2017-10-01T22:00:00Z;"C/ Manuel Lasala, 44 - Local 2 <strong><abbr title=""Tel�fono"">Tel.:</abbr></strong> 976 35 18 52";"";"http://www.zaragoza.es/api/recurso/turismo/restaurante/192"
"https://www.zaragoza.es/sede/recurso/turismo/restaurante//195";"HOTEL AC LOS ENLACES";"C/ Pilar Miró, 1";"50011";"Zaragoza";"";"aclosenlaces@ac-hotels.com";"http://www.ac-hotels.com";"/cont/paginas/turismo/oficina/rsc/img/empresa/aclosenlaces2.jpg";"/cont/paginas/turismo/oficina/rsc/img/empresa/026-hotel-ac-los-enlaces.gif";"true";"";"";"";"";"";"Restaurante Hotel AC Hotel Los Enlaces.
Sólo desayunos y cenas.";"";"";"673278.09 4613120.27";2017-03-28T22:00:00Z;"C/ Pilar Miró, 1 <strong><abbr title=""Tel�fono"">Tel.:</abbr></strong> 976 48 92 22";"";"http://www.zaragoza.es/api/recurso/turismo/restaurante/195"
"https://www.zaragoza.es/sede/recurso/turismo/restaurante//196";"LA BODEGA DE CHEMA";"C/ Latassa, 34";"50006";"Zaragoza";"";"contacto@labodegadechema.com";"http://www.labodegadechema.com";"/cont/paginas/turismo/oficina/rsc/img/empresa/bodegachema2.jpg";"/cont/paginas/turismo/oficina/rsc/img/empresa/76-bodega-chema.gif";"";"true";"";"";"";"";"La especialidad de la casa es el cabrito asado con patatas. Amplia carta de entrantes, carnes y pescados.Menús para grupos y celebraciones. Tienen una buena bodega y esta cercano al aparcamiento público de Pza. San Francisco. Preparan comida para celiacos bajo petición.";"2";"90";"675531.51 4612293.43";2017-03-14T23:00:00Z;"C/ Latassa, 34 <strong><abbr title=""Tel�fono"">Tel.:</abbr></strong> 976 55 50 14";"";"http://www.zaragoza.es/api/recurso/turismo/restaurante/196"
"https://www.zaragoza.es/sede/recurso/turismo/restaurante//222";"RESTAURANTE LA GRANADA";"C/ San Ignacio de Loyola, 14";"50008";"Zaragoza";"";"info@restaurantelagranada.com";"http://www.restaurantelagranada.com";"/cont/paginas/turismo/oficina/rsc/img/empresa/I_Granada.jpg";"/cont/paginas/turismo/oficina/rsc/img/empresa/L_Granada.jpg";"";"true";"";"";"Sin Gluten";"";"Ambiente acogedor e íntimo en este moderno restauramte que destaca por su cocina de autor y sus plator innovadores. Especializado en pescados. Situado en el centro de la ciudad, está muy cerca de un aparcamiento público.";"2";"70";"676467.41 4613050.44";2017-10-22T22:00:00Z;"C/ San Ignacio de Loyola, 14 <strong><abbr title=""Tel�fono"">Tel.:</abbr></strong> 976 22 39 03";"";"http://www.zaragoza.es/api/recurso/turismo/restaurante/222"
"https://www.zaragoza.es/sede/recurso/turismo/restaurante//257";"LA RINCONADA DE LORENZO";"C/ La Salle, 3";"50006";"Zaragoza";"";"oscar@larinconadadelorenzo.com";"";"/cont/paginas/turismo/oficina/rsc/img/empresa/larinconadadelorenzo.jpg";"/cont/paginas/turismo/oficina/rsc/img/empresa/81-la-rinconada.gif";"";"true";"";"";"Sin Gluten";"<div><img src=""http://www.zaragoza.es/cont/paginas/sinbarreras/img/icono_acomp1.jpg"" alt="" Accesible con Acompañante ""/>  Accesible con Acompañante </div><ul><li> Acceso: Pequeño escalón salvable con una cuña auxiliar. </li><li>Aseos Adaptados: No</li></ul><p><em>Información facilitada por Disminuidos Físicos de Aragón</em></p>";"Restaurante de cocina aragonesa con dos salones para 70 y 100 personas respectivamente. Decorado con cerámica de Muel, entre sus platos destacan las migas con jamón y uva, el foie de oca, el ternasco lechal al horno, los pescados frescos y los postres caseros. Zona WiFi de libre acceso, carta en cinco idiomas y en Braille, y carta de puros.";"2";"304";"675531.45 4612208.8";2017-03-14T23:00:00Z;"C/ La Salle, 3 <strong><abbr title=""Tel�fono"">Tel.:</abbr></strong> 976 55 51 08";"";"http://www.zaragoza.es/api/recurso/turismo/restaurante/257"
"https://www.zaragoza.es/sede/recurso/turismo/restaurante//276";"EL CHALET";"C/ Sta. Teresa de Jesús, 25";"50006";"Zaragoza";"";"angel.conde@elchaletrestaurante.es";"http://www.elchaletrestaurante.es";"/cont/paginas/turismo/oficina/rsc/img/empresa/chalet_4.jpg";"/cont/paginas/turismo/oficina/rsc/img/empresa/068-el-chalet.gif";"";"true";"";"";"";"";"Coqueto chalet de ambiente elegante, cálido y acogedor, con jardin-cenador en el interior (primavera-verano).ideal para parejas, aniversarios, negocios, familiares, amigos y pequeños banquetes. Salones privados de 10 a 40 personas. Cocina de mercado y creativa, reflejada en una carta sugerente, con productos de gran calidad. Jornadas de tapas y trufas(febrero),bacalao y la cuaresma (marzo) o del cazador y algunas setas(noviembre) A destacar uno de los mejores steak tartar de la ciudad. Extensa carta de vinos. Servicio atento avalado por una larga profesionalidad. Parking publico muy cercano en plaza san francisco.";"2";"77";"675529.37 4612148.82";2017-03-13T23:00:00Z;"C/ Sta. Teresa de Jesús, 25 <strong><abbr title=""Tel�fono"">Tel.:</abbr></strong> 976 56 91 04";"";"http://www.zaragoza.es/api/recurso/turismo/restaurante/276"
"https://www.zaragoza.es/sede/recurso/turismo/restaurante//278";"RESTAURANTE ARAGONIA PALAFOX";"C/ Marqués de Casa Jiménez,  s/n";"50004";"Zaragoza";"";"rttearagonia@palafoxhoteles.com";"http://www.restaurantearagonia.com";"/cont/paginas/turismo/oficina/rsc/img/empresa/058.%20I_Rte.%20Aragonia.jpg";"/cont/paginas/turismo/oficina/rsc/img/empresa/62-rest-aragonia.gif";"true";"true";"";"";"";"";"Bodega internacional con más de 2000 referencias más tienda para adquierir productos artesanos, aceites, vinagres, conservas... Cocina de mercado con influencia Aragonesa";"";"";"676195.09 4613346.77";2017-10-22T22:00:00Z;"C/ Marqués de Casa Jiménez,  s/n <strong><abbr title=""Tel�fono"">Tel.:</abbr></strong> 976 79 42 43";"";"http://www.zaragoza.es/api/recurso/turismo/restaurante/278"
"https://www.zaragoza.es/sede/recurso/turismo/restaurante//279";"FINCA LA ALQUERIA";"Autovía de Logroño km 10,5";"50180";"Zaragoza";"";"laalqueria@laalqueria.es";"http://www.laalqueria.es";"/cont/paginas/turismo/oficina/rsc/img/empresa/101%20la%20alqueria.JPG";"/cont/paginas/turismo/oficina/rsc/img/empresa/95-la-alqueria.gif";"";"";"";"true";"";"";"";"";"";"668163.13 4619028.12";2017-04-11T22:00:00Z;"Autovía de Logroño km 10,5 <strong><abbr title=""Tel�fono"">Tel.:</abbr></strong> 976 79 26 11";"";"http://www.zaragoza.es/api/recurso/turismo/restaurante/279"
"https://www.zaragoza.es/sede/recurso/turismo/restaurante//279";"FINCA LA ALQUERIA";"Autovía de Logroño km 10,5";"50180";"Zaragoza";"";"laalqueria@laalqueria.es";"http://www.laalqueria.es";"/cont/paginas/turismo/oficina/rsc/img/empresa/101%20la%20alqueria.JPG";"/cont/paginas/turismo/oficina/rsc/img/empresa/95-la-alqueria.gif";"";"";"";"true";"";"";"";"";"";"668163.13 4619028.12";2017-04-11T22:00:00Z;"Autovía de Logroño km 10,5 <strong><abbr title=""Tel�fono"">Tel.:</abbr></strong> 976 79 26 11";"";"http://www.zaragoza.es/api/recurso/turismo/restaurante/279"
"https://www.zaragoza.es/sede/recurso/turismo/restaurante//280";"FINCA TORRE  DEL PINO";"c/ Zurita nº 15, 1º Izda";"50001";"Zaragoza";"";"martabas@torredelpino.com";"http://www.torredelpino.com";"/cont/paginas/turismo/oficina/rsc/img/empresa/103.-Torre-PinoAP.jpg";"/cont/paginas/turismo/oficina/rsc/img/empresa/97-torre-del-pino.gif";"";"";"";"true";"";"";"";"";"";"676629.74 4613296.32";2013-10-15T22:00:00Z;"c/ Zurita nº 15, 1º Izda <strong><abbr title=""Tel�fono"">Tel.:</abbr></strong> 976 239 283 / 976 150 61";"";"http://www.zaragoza.es/api/recurso/turismo/restaurante/280"
"https://www.zaragoza.es/sede/recurso/turismo/restaurante//289";"CATERING LA BASTILLA";"Camino Alcoz Nave 34";"50410";"Cuarte de Huerva - Zaragoza";"";"labastilla@labastilla.com";"http://www.labastilla.com";"/cont/paginas/turismo/oficina/rsc/img/empresa/097%20catering%20la%20bastilla.jpg";"/cont/paginas/turismo/oficina/rsc/img/empresa/91-catering-la-bastilla.gif";"";"true";"";"";"";"";"";"";"";"";2017-10-03T22:00:00Z;"Camino Alcoz Nave 34 <strong><abbr title=""Tel�fono"">Tel.:</abbr></strong> 976 298 449";"";"http://www.zaragoza.es/api/recurso/turismo/restaurante/289"
"https://www.zaragoza.es/sede/recurso/turismo/restaurante//295";"HOTEL VINCCI ZARAGOZA ZENTRO";"C/ Coso, 86";"50001";"Zaragoza";"";"reservas.zentro@vinccihoteles.com";"http://http://www.vinccihoteles.com/";"/cont/paginas/turismo/oficina/rsc/img/empresa/I_Vincci.jpg";"/cont/paginas/turismo/oficina/rsc/img/empresa/L_Vinci.jpg";"true";"";"";"";"";"";"";"";"";"676796.66 4613426.21";2017-09-24T22:00:00Z;"C/ Coso, 86 <strong><abbr title=""Tel�fono"">Tel.:</abbr></strong> 976 703 300";"";"http://www.zaragoza.es/api/recurso/turismo/restaurante/295"
"https://www.zaragoza.es/sede/recurso/turismo/restaurante//296";"RESTAURANTE LA JAMONERÍA EL CORTADOR DE JAMON";"C/ Bruno Solano, 16";"50006";"Zaragoza";"";"felix@lajamoneria.es";"http://www.elcortadordejamon.com";"/cont/paginas/turismo/oficina/rsc/img/empresa/jamoneria2.jpg";"/cont/paginas/turismo/oficina/rsc/img/empresa/79-la-jamoneria.gif";"";"true";"";"";"";"";"En este restaurante todo el jamón se corta a cuchillo. También destacan sus platos de cuchara, las pochas con perdiz escabechada, el rabo de toro, ls alcachofas y las manitas de ministro. Muy cerca de un aparcamiento público. Tiene menús de distintos precios.";"1";"226";"675515.76 4612022.11";2017-10-24T22:00:00Z;"C/ Bruno Solano, 16 <strong><abbr title=""Tel�fono"">Tel.:</abbr></strong> 976 56 62 68";"";"http://www.zaragoza.es/api/recurso/turismo/restaurante/296"
"https://www.zaragoza.es/sede/recurso/turismo/restaurante//301";"FINCA SANSUI - El Jardín del Agua";"Autovía A-23 Pirineos (Crta Huesca) Km 9,6 direcc. Zaragoza";"50830";"Villanueva de Géllego (Zaragoza)";"";"congresos@elcachirulo.es";"http://www.sansui.es";"/cont/paginas/turismo/oficina/rsc/img/empresa/sansui1.jpg";"/cont/paginas/turismo/oficina/rsc/img/empresa/96-sansui.gif";"";"";"";"true";"";"";"";"";"";"679165.57 4623075.64";2017-04-11T22:00:00Z;"Autovía A-23 Pirineos (Crta Huesca) Km 9,6 direcc. Zaragoza <strong><abbr title=""Tel�fono"">Tel.:</abbr></strong> 976796323";"";"http://www.zaragoza.es/api/recurso/turismo/restaurante/301"
"https://www.zaragoza.es/sede/recurso/turismo/restaurante//1060";"PENSIÓN LABORRA";"C/ Duquesa  Villahermosa, 4, 1ºA-B-C, 2ºC, 4º C, 7ºA-B, 8ºC, 11º C";"50010";"Zaragoza";"";"info@pensionlaborra.es";"http://www.pensionlaborra.es/inicio.html";"";"";"";"";"";"";"";"";"Nº de plazas: 9";"";"";"674998.59 4613176.49";2017-03-12T23:00:00Z;"C/ Duquesa  Villahermosa, 4, 1ºA-B-C, 2ºC, 4º C, 7ºA-B, 8ºC, 11º C <strong><abbr title=""Tel�fono"">Tel.:</abbr></strong> 976 34 30 05";"";"http://www.zaragoza.es/api/recurso/turismo/restaurante/1060"
"https://www.zaragoza.es/sede/recurso/turismo/restaurante//1102";"HOTEL CATALONIA EL PILAR";"C/ Manifestación, 16";"50003";"Zaragoza";"";"elpilar@hoteles-catalonia.es";"http://www.hoteles-catalonia.es";"";"";"true";"";"";"";"";"";"Restaurante Hotel Catalonia Plaza Zaragoza. Sólo cenas.";"";"";"676536.11 4613962.16";2017-03-28T22:00:00Z;"C/ Manifestación, 16 <strong><abbr title=""Tel�fono"">Tel.:</abbr></strong> 976 20 58 58";"";"http://www.zaragoza.es/api/recurso/turismo/restaurante/1102"
"https://www.zaragoza.es/sede/recurso/turismo/restaurante//1736";"DON FON";"C/ Berenguer Bardaji, 68";"50017";"ZARAGOZA";"";"donfon@eresmas.com";"";"";"";"";"";"";"";"";"";"Contacto. Sr. D. Shudi Pan";"2";"80";"674283.61 4613119.49";2017-03-13T23:00:00Z;"C/ Berenguer Bardaji, 68 <strong><abbr title=""Tel�fono"">Tel.:</abbr></strong> 976 34 76 71";"";"http://www.zaragoza.es/api/recurso/turismo/restaurante/1736"
"https://www.zaragoza.es/sede/recurso/turismo/restaurante//1740";"ESPEJO";"C/ Santiago, 30-32";"50003";"Zaragoza";"";"";"";"";"";"";"";"";"";"";"";"";"1";"60";"676814.74 4613848.77";2017-03-19T23:00:00Z;"C/ Santiago, 30-32 <strong><abbr title=""Tel�fono"">Tel.:</abbr></strong> 976 29 34 32";"";"http://www.zaragoza.es/api/recurso/turismo/restaurante/1740"
"https://www.zaragoza.es/sede/recurso/turismo/restaurante//1742";"LA FARTALLA";"C/ Reconquista, 8";"50001";"Zaragoza";"";"";"";"";"";"";"";"";"";"";"";"";"1";"44";"676998.59 4613261.85";2017-03-19T23:00:00Z;"C/ Reconquista, 8 <strong><abbr title=""Tel�fono"">Tel.:</abbr></strong> 976 29 47 65";"";"http://www.zaragoza.es/api/recurso/turismo/restaurante/1742"
"https://www.zaragoza.es/sede/recurso/turismo/restaurante//1744";"EL FERIAL";"C/ Sixto Celorrio, 72";"50015";"Zaragoza";"";"";"";"";"";"";"";"";"";"";"";"";"1";"48";"676978.58 4614632.52";2017-03-19T23:00:00Z;"C/ Sixto Celorrio, 72 <strong><abbr title=""Tel�fono"">Tel.:</abbr></strong> 976 51 11 65";"";"http://www.zaragoza.es/api/recurso/turismo/restaurante/1744"
"https://www.zaragoza.es/sede/recurso/turismo/restaurante//1746";"FLANDES Y FABIOLA";"Parque Grande José Antonio Labordeta";"50006";"Zaragoza";"";"";"";"";"";"";"";"";"";"";"";"";"1";"50";"675371.39 4611436.24";2017-03-19T23:00:00Z;"Parque Grande José Antonio Labordeta <strong><abbr title=""Tel�fono"">Tel.:</abbr></strong> 976 38 72 38";"";"http://www.zaragoza.es/api/recurso/turismo/restaurante/1746"
"https://www.zaragoza.es/sede/recurso/turismo/restaurante//1747";"LA FORJA";"C/ Mayor, 43 dpdo.";"50001";"Zaragoza";"";"virueles@hotmail.com";"";"/cont/paginas/turismo/oficina/rsc/img/empresa/laforja.jpg";"";"";"true";"";"";"";"";"Restaurante tipico aragones donde comer auntentica carne a la brasa en el mismo centro de Zaragoza. Cocina Aragonesa. Genuina Brasa de Carbón Vegetal donde cocinamos su carne al momento. Trato amable y familiar. Especialidad en Migas a la Pastora, Caracoles a la Brasa y Pimientos del Piquillo Rellenos de Ternasco. Seleccionada carta de Vinos Aragoneses y Españoles.";"2";"104";"676970.77 4613686.47";2017-03-14T23:00:00Z;"C/ Mayor, 43 dpdo. <strong><abbr title=""Tel�fono"">Tel.:</abbr></strong> 976 29 12 84";"";"http://www.zaragoza.es/api/recurso/turismo/restaurante/1747"
"https://www.zaragoza.es/sede/recurso/turismo/restaurante//1748";"FORO ROMANO - TREVI";"Pza. de la Seo, 2-3";"50001";"Zaragoza";"";"reservas@hoteltibur.com";"http://www.avilhoteles.com";"";"";"true";"";"";"";"";"<div><img src=""/cont/paginas/sinbarreras/img/icono_acomp1.jpg"" alt=""Accesible con acompañante""/> Accesible con Acompañante</div><ul><li><strong>Acceso</strong>:  Acceso por rampa desde el Hotel Tibur</li><li>Aseos adaptados: No</li></ul><p><em>Información facilitada por Disminuidos Físicos de Aragón</em></p>";"Restaurante Foro Romano. Restaurante del Hotel Tibur. Abierto todos los días.";"2";"80";"676929.52 4613869.03";2017-03-28T22:00:00Z;"Pza. de la Seo, 2-3 <strong><abbr title=""Tel�fono"">Tel.:</abbr></strong> 976 20 20 00";"";"http://www.zaragoza.es/api/recurso/turismo/restaurante/1748"
"https://www.zaragoza.es/sede/recurso/turismo/restaurante//1749";"RESTAURANTE EL FUELLE";"C/ Mayor, 59";"50001";"Zaragoza";"";"elfuellezaragoza@hotmail.com";"http://http://www.el-fuelle.com/";"/cont/paginas/turismo/oficina/rsc/img/empresa/foto%20RESTAURANTE%20EL%20FUELLE.jpg";"/cont/paginas/turismo/oficina/rsc/img/empresa/139.%20L_Fuelle.jpg";"";"true";"";"";"";"";"";"";"";"677096.13 4613604.88";2017-10-01T22:00:00Z;"C/ Mayor, 59 <strong><abbr title=""Tel�fono"">Tel.:</abbr></strong> 976 39 80 33";"";"http://www.zaragoza.es/api/recurso/turismo/restaurante/1749"
"https://www.zaragoza.es/sede/recurso/turismo/restaurante//1750";"GERARDO";"C/ Italia, 57";"50010";"Zaragoza";"";"";"";"";"";"";"";"";"";"";"";"Contacto: Gerardo Luis Biurrun Lacuey";"1";"36";"675019.58 4613261.46";2017-03-20T23:00:00Z;"C/ Italia, 57 <strong><abbr title=""Tel�fono"">Tel.:</abbr></strong> 976 35 51 18";"";"http://www.zaragoza.es/api/recurso/turismo/restaurante/1750"
"https://www.zaragoza.es/sede/recurso/turismo/restaurante//1753";"BURGER KING";"C/ Coso, 62";"50001";"Zaragoza";"";"";"";"";"";"";"";"";"";"";"";"";"1";"136";"676662.06 4613478.68";2017-03-16T23:00:00Z;"C/ Coso, 62 <strong><abbr title=""Tel�fono"">Tel.:</abbr></strong> 976 22 71 14";"";"http://www.zaragoza.es/api/recurso/turismo/restaurante/1753"
"https://www.zaragoza.es/sede/recurso/turismo/restaurante//1763";"ITZIAR 2";"C/ Juan José Rivas, 9";"50006";"Zaragoza";"";"";"";"";"";"";"";"";"";"";"";"";"1";"80";"675715.91 4612318.94";2017-03-20T23:00:00Z;"C/ Juan José Rivas, 9 <strong><abbr title=""Tel�fono"">Tel.:</abbr></strong> 976 35 57 77";"";"http://www.zaragoza.es/api/recurso/turismo/restaurante/1763"
"https://www.zaragoza.es/sede/recurso/turismo/restaurante//1764";"JABATO, EL";"Crta. Logroño, km.2-4, Polígono Portazgo, Nave 29";"50011";"Zaragoza";"";"";"";"";"";"";"";"";"";"";"";"";"1";"45";"661822.79 4614958.34";2017-03-20T23:00:00Z;"Crta. Logroño, km.2-4, Polígono Portazgo, Nave 29 <strong><abbr title=""Tel�fono"">Tel.:</abbr></strong> 976 68 10 54";"";"http://www.zaragoza.es/api/recurso/turismo/restaurante/1764"
"https://www.zaragoza.es/sede/recurso/turismo/restaurante//1765";"EL JARDINCILLO";"Crta. Logroño, km.3,700";"50011";"Zaragoza";"";"";"";"";"";"";"";"";"";"";"";"";"1";"295";"664932.52 4616996.94";2017-03-20T23:00:00Z;"Crta. Logroño, km.3,700 <strong><abbr title=""Tel�fono"">Tel.:</abbr></strong> 976 33 57 98";"";"http://www.zaragoza.es/api/recurso/turismo/restaurante/1765"
"https://www.zaragoza.es/sede/recurso/turismo/restaurante//1766";"JAUJA";"C/ Embarcadero, 2";"50009";"Zaragoza";"";"";"";"";"";"";"";"";"";"";"";"Contacto: Oscar Serrano Pujol";"1";"24";"674403.56 4610981.7";2017-03-20T23:00:00Z;"C/ Embarcadero, 2 <strong><abbr title=""Tel�fono"">Tel.:</abbr></strong> 976 52 12 00";"";"http://www.zaragoza.es/api/recurso/turismo/restaurante/1766"
"https://www.zaragoza.es/sede/recurso/turismo/restaurante//1767";"SIDRERIA LA KUPELA";"C/ Santiago, 23";"50003";"Zaragoza";"";"";"";"";"";"";"";"";"";"";"";"Asador de ambiente tranquilo especializado en cocina vasco-aragonesa, con platos como chuletón de buey gallego, tortilla de bacalao, ensalada de pimientos asados con cebolla de Fuentes y bonito, lubina al orio de frutos secos y miel, ternasco a la brasa y chorizo a la sidra. Sala con capacidad para 80 comensales, ideal para banquetes y reuniones.";"2";"50";"676823.83 4613858.61";2017-03-14T23:00:00Z;"C/ Santiago, 23 <strong><abbr title=""Tel�fono"">Tel.:</abbr></strong> 976 39 02 58";"";"http://www.zaragoza.es/api/recurso/turismo/restaurante/1767"
