url,identificador,locale,send,foto,nombre,telefono,fax,correo-electronico,web,horario,descripcion,direccion,localizacion,categorias
"http://www.gijon.es/directorios/show/10548-restaurante-parrilla-los-patios-gijon","10548","es","fecha-actualizacion2016-12-16 11:22:53 +0100","http://www.gijon.es/data/images/f0/f9/90887/960x512_v1_restaurante_lospatios_gijon.JPG","Restaurante Parrilla Los Patios Gijón","<p>985 87 96 35</p>","http://www.restauranteparrillalospatios.com/","<p>Restaurante Parrilla LosPatios es un lugar en el centro Gijón donde se puede disfrutar de la gastronomíaasturiana basada en la parrilla de carbón. Destaca por la fusión que hace delas cocinas de Asturia y del Sur, uniendo la tradición de Gijón con la dietaMediterránea.</p><p>La decoración del restaurante,la cuidada carta en carnes y pescados de primera calidad y la selección devinos, hace de Restaurante Parrilla Los Patios un lugar agradable donde lascomidas y cenas se convierte en una experiencia gastronómica estimulante paratodos los sentidos, ya que desde las estancias puedes disfrutar de la cocciónen las piezas de carne y pescado en al parrilla y ver los cortes en vistosasvitrinas.</p><p><img src="/data/images/f0/f9/90888/350x263_v1_restaurante_lospatios_gijon_comer.JPG" alt="los patios 2" class="nicedit_sin-alinear" height="263" width="350" width="350" height="263"/>             <img src="/data/images/f0/f9/90889/350x263_v1_restaurante_lospatios_gijon_comedor.JPG" alt="los patios 3" class="nicedit_sin-alinear" height="263" width="350" width="350" height="263"/></p><p><img src="/data/images/f0/f9/90890/350x233_v1_restaurante_lospatios_gijon_bodega.JPG" alt="los patios 4" class="nicedit_sin-alinear" height="233" width="350" width="350" height="233"/>              <img src="/data/images/f0/f9/90891/308x232_v1_restaurante_gijon_lospatios_comida_costillas.JPG" alt="los patios 5" class="nicedit_sin-alinear" height="232" width="308" width="308" height="232"/></p><p><img src="/data/images/f0/f9/90892/277x370_v1_restaurante_gijon_lospatios_comida_centollos.JPG" alt="los patios 5" class="nicedit_sin-alinear" height="370" width="277" width="277" height="370"/>  <img src="/data/images/f0/f9/90893/450x338_v1_restaurante_gijon_lospatios_comida_5.JPG" alt="los patios 6" class="nicedit_sin-alinear" width="450" height="338"/><br/></p><br/><p><br/></p>","Calle Instituto, 10, 33201 Gijón, Asturias","43.543745 -5.663337","Restaurantes y sidrerías, Guia gastronómica, Turismo, Turismo"
"http://www.gijon.es/directorios/show/10412-sidreria-parrilla-ramon","10412","es","fecha-actualizacion2016-05-27 13:58:27 +0200","http://www.gijon.es/data/images/f0/f8/82316/339x318_v1_12654410_1030830123640776_7261124614670381851_n.jpg","Sidrería Parrilla Ramón","985 369 542","De 11:00 a 02:30 horas.","Ubicada en el barrio del Coto.<br/>Sidra bien tratada, parrillas, carnes selectas, pescados y mariscos. Amplia carta de platos y menús variados.<br/>Jornadas gastronómicas con productos de temporada, degustaciones gratuitas de pizzas cada lunes y los jueves degustaciones de diferentes productos gastronómicos. <br/><br/>• Comida para llevar<br/>• Wifi","C/ Manuel Junquera, 15 33204 Gijón","43.530456 -5.652361","Restaurantes y sidrerías, Ruta de la Sidra, Gijón con Calidad, Turismo"
"http://www.gijon.es/directorios/show/10405-aloha24","10405","es","fecha-actualizacion2017-06-26 14:28:17 +0200","http://www.gijon.es/data/images/f0/f8/81570/600x600_v1_aloha24.png","Aloha24","+34 984 04 14 32","info@aloha24.com","http://www.aloha24.com/","<p>Serviciode comida a domicilio con una selección de losmejores restaurantes de la ciudad. Dirigido tanto a empresas como a particulares,ofrecemos comidas, cenas, desayunos especiales o entregas de tiendasespecializadas. Nuestro propósito es servir comida a domicilio con el mismonivel de calidad que el cliente encontraría si acudiera al restaurante.</p>","<p>Marqués de San Esteban, 23 – 1º</p>","Restaurantes y sidrerías, Guia gastronómica, Turismo"
"http://www.gijon.es/directorios/show/10404-sidreria-la-tonada-montevil","10404","es","fecha-actualizacion2016-12-20 09:46:39 +0100","http://www.gijon.es/data/images/f0/f8/81568/5616x3744_v1_SidrerialaTonadademontevil.jpg","Sidrería La Tonada - Montevil","+34 984 39 30 70","sidrerialatonada@gmail.com","http://www.sidrerialatonada.com/","<p>Platos exquisitos, elaborados enel momento con productos frescos y de alta calidad. Carta asturiana autentica,con carnes y pescados a la parrilla y los mejores productos de la huerta,acompañados de los mejores vinos de las mejores o de buena sidra. Picoteo decalidad, plato a la carta o uno de nuestros menús con todo el sabor de la mejortradición gastronómica asturiana.</p>","<p>Ramón Areces, 30<br/></p>","Restaurantes y sidrerías, Guia gastronómica, Turismo"
"http://www.gijon.es/directorios/show/10343-sidreria-la-pampana","10343","es","fecha-actualizacion2016-12-20 09:44:30 +0100","http://www.gijon.es/data/images/f0/f8/81559/3264x2448_v1_20150306_112246.jpg","Sidrería La Pámpana","984 29 63 64","De 11.00 a cierre / Cerrado: martes","Variada selección de sidra. Destacan las carnes asturianas y mariscos y pescados del Cantábrico.","C/ Velázquez, 9","43.521739 -5.67608","Restaurantes y sidrerías, Guia gastronómica, Turismo"
"http://www.gijon.es/directorios/show/10342-sidreria-el-requexu","10342","es","fecha-actualizacion2016-01-18 10:22:45 +0100","http://www.gijon.es/data/images/f0/f8/81556/734x740_v1_elrequexu.jpg","Sidrería "El Requexu"","984 39 55 20","info@sidreriaelrequexu.es","http://www.sidreriaelrequexu.es","De 11.30 a 01.00h / Cerrado: martes","La Sidrería Restaurante El Requexu es un establecimiento hostelero de Gijón amplio y luminoso. Lo conforman diferentes ambientes: una barra principal, una zona de sidrería con siete mesas y dos estancias-comedor en un espacio reservado creando un cálido rincón donde poder disfrutar de la variada carta de tapas, arroces, pescados, carnes y mariscos.<br/><br/>Las especialidades son el secreto ibérico de cerdo, las navajas, las almejas y los calamares, aunque los propietarios prefieren decir que su especialidad son sus clientes.<br/><br/>El nombre del establecimiento está ligado a la antigua ubicación del negocio, en la calle Rosario, en el barrio de Cimadevilla. Requexu es una palabra asturiana que significa rincón, sitio recogido. A pesar de que las dimensiones del nuevo local son mucho mayores que las del anterior su esencia es la misma: un local donde disfrutar.","Avenida de la Costa, 30","43.536907 -5.662725","Restaurantes y sidrerías, Gijón con Calidad, Guia gastronómica, Turismo"
"http://www.gijon.es/directorios/show/10340-savannah","10340","es","fecha-actualizacion2016-01-18 10:21:40 +0100","http://www.gijon.es/data/images/f0/f8/81555/381x252_v1_SAVANNAH4.jpg","Savannah","985 32 47 09","info@rsavannah.com","http://www.rsavannah.com/","De 10.00h a cierre / Martes cerrado","El Restaurante Savannah ofrece a sus clientes un amplio servicio para la celebración de bodas, banquetes, comuniones y comidas de empresa. Los tres salones de los que disponemos están perfectamente adaptados para satisfacer las necesidades de nuestros clientes, con capacidad para acoger desde 30 hasta 350 comensales. Todos ellos disponen de aire acondicionado, aseos y guardarropa. Además, nuestras instalaciones cuentan con discoteca para uso exclusivo de nuestros clientes, terraza al aire libre, cafetería y aparcamiento privado.","c/ La Estrella, s/n - 33212 Gijón","43.541129 -5.688869","Restaurantes y sidrerías, Gijón con Calidad, Guia gastronómica, Turismo, Gijón accesible"
"http://www.gijon.es/directorios/show/10227-el-tomate-bistro","10227","es","fecha-actualizacion2015-04-10 15:02:22 +0200","http://www.gijon.es/data/images/f0/f7/73699/5184x3456_v1_IMG_8626.jpg","El Tomate Bistrò","+34 984 297 182","nexpoo@hotmail.com","http://www.eltomatebistro.es/","martes, miercoles y domingo 12:30 a 16:00; jueves a domingo 12.30 a 16.00h y 20.00 a 00.00 horas","Pequeño restaurante informal con comida tradicional con toques contemporáneos. Ambiente fresco y acogedor.<br/>Precio medio 25€<br/><br/>Lunes cerrado","C/ Marqués de San Esteban, 46 bajo","43.54163 -5.669083","Restaurantes y sidrerías, Guia gastronómica, Turismo"
"http://www.gijon.es/directorios/show/10199-hat-trick-molinon","10199","es","fecha-actualizacion2018-01-11 11:12:03 +0100","http://www.gijon.es/data/images/f0/f9/97170/190x110_v1_fotohattrick.png","Hat Trick Molinón","+34 984 060 958 - Reservas: +34 984 240 647","hattrickmolinon@gmail.com","<b>Domingo a jueves:</b> de 13:00 a 16:00 horas y de 20:00 a 23:00 horas<br/><b>                                                      Viernes y sábado:</b> de 13:00 a 16:00 horas y de 20:00 a 24:00 horas","Situado en los bajos del emblemático estadio de El Molinón, el restaurante Hat Trick ofrece <b>cocina elaborado con los productos más frescos del Cantábrico</b>.<br/><br/><h3>Especialidades</h3>Arroz meloso con cigalitas y zamburiñas.<br/>Cazuela de chipirones con almejas.<br/>Carrilleras de ibérico a la sidra.<br/> <br/> <br/> ","Estadio de El Molinón, Grada Sur","43.535724 -5.637225","Restaurantes y sidrerías, Guia gastronómica, Bares y cafés, Turismo"
"http://www.gijon.es/directorios/show/10185-carling-goal","10185","es","fecha-actualizacion2017-07-24 11:20:33 +0200","http://www.gijon.es/data/images/f0/f9/97169/190x110_v1_carlinggoal.jpg","Carling Goal","+34 654 521 519","carlinggoal@gmail.com","Carling Goal se ha convertido en uno de los locales de referencia en Gijón, por su excelente ubicación, en la <b>Puerta 14 del estadio El Molinón</b>, por los eventos que realiza a lo largo del año (Quedadas Moteras, Jornadas Gastronómicas Mexicanas, Japonesas, Veladas de Boxeo), por ser punto de encuentro de la afición del <b>Sporting de Gijón</b> y por la calidad de sus productos.<br/><br/>Cuenta con un amplio aparcamiento frente a sus instalaciones, está muy cerca del <b>Recinto Ferial Luis Adaro</b>, el Parque de &quot;Isabel La Católica&quot;, a 100 metros de la <b>playa de San Lorenzo </b>y muy cercano a una amplia <b>oferta hotelera</b>.<br/><br/>Contacto: Jana Suárez","Estadio El Molinón, Puerta 14","43.536174 -5.637425","Restaurantes y sidrerías, Congresos, Guia gastronómica, Bares y cafés, Club de Empresas de Turismo de Negocios, Turismo"
"http://www.gijon.es/directorios/show/10079-sidreria-la-tonada","10079","es","fecha-actualizacion2016-01-18 10:34:39 +0100","http://www.gijon.es/data/images/f0/f7/70405/1384x1402_v1_latonada.JPG","Sidrería La Tonada","+34 984 29 32 99","sidrerialatonada@gmail.com","http://www.sidrerialatonada.com/","08:00 - 23:30 h.","Sidrería La Tonada ofrece lo mejor de la gastronomía asturiana acompañada de la mejor sidra en un especio rústico con una decoración muy cuidada.<br/><br/>Situado en la zona de la Guía, en el entorno del Recinto Ferial y el Palacio de Congresos, el Palacio de Deportes, el hípico y el Estado de Fútbol &quot;El Molinón&quot;. A 1.5 Km de Laboral Ciudad de La Cultura y del Centro de Gijón.<br/><br/>Dispone de un servicio ininterrumpido de cocina de 12 de la mañana a 12 de la noche. Todos los meses cuenta con jornadas especiales, además de menú diario, menú para los fines de semana y menú ejecutivo. Y todos los platos de la carta se preparan para llevar.<br/><br/>La sidrería consta de tres plantas, la baja destinada a la zona de sidrería, la segunda como comedor con más de una decena de mesas, y la tercera se convierte en un espacio ideal para celebración de espichas o comidas de empresa.","Paseo Dr. Fleming, 1193 - 33203 Gijón","43.533926 -5.634372","Restaurantes y sidrerías, Guia gastronómica, Turismo, Gijón con Calidad"
"http://www.gijon.es/directorios/show/9972-sidreria-el-cuetu","9972","es","fecha-actualizacion2016-07-04 13:32:28 +0200","http://www.gijon.es/data/images/f0/f6/65603/960x540_v1_cuetu1.jpg","Sidrería El Cuetu","984 29 87 42","sidreriaelcuetu@hotmail.com","De lunes a viernes de 11:00 a 24:00 h.<br/>Sábados, domingos y festivos de 12:00 a 24:00 h.<br/>Cerrado: domingo tarde y lunes todo el día.","Selección de las mejores carnes, pescados y mariscos del Cantábrico, donde tampoco faltarán típicos platos regionales, incluidos sus postres, todo elaborado de forma casera. Selección de las mejores sidras del momento con su trato de temperatura y preventa óptimas. Todo esto con el mejor ambiente sidrero y el servicio mas cuidado para que paséis un buen momento con nosotros. <br/>Dispone de comedor, terraza y menús para grupos.","Avenida Gaspar Garcia Laviana, 81, Gijón","43.525567 -5.663409","Restaurantes y sidrerías, Turismo, 2014, Guia gastronómica, Turismo"
"http://www.gijon.es/directorios/show/9965-paparazzi-playa","9965","es","fecha-actualizacion2014-07-24 08:59:28 +0200","http://www.gijon.es/data/images/f0/f6/65589/267x255_v1_paparazziplaya.JPG","Paparazzi Playa","<p>984084445 – 691762054</p>","info@paparazziplaya.com","www.paparazziplaya.com","En Gijón, entre el puerto deportivo y la Playa de Poniente, una alternativa diferente de ocio asturiano.<br/>Fusión entre Gastronomía, de la mano de Alejandro Urrutia, coctelería y música, disfrutando de su terrada de 400 m con las mejores vistas de Gijón.<br/>Salones privados para grupos reducidos y salones para eventos.<br/><br/>Precio desde 14 €<br/>Cocina cerrada Domingos noche.","Edificio Talasoponiente – Planta 3<br/>Playa de Poniente – Dique Este – 33206 Gijón","43.544243 -5.669031","Empresas de Ocio, Restaurantes y sidrerías, Bares y cafés, Turismo, 2014, Guia gastronómica, Cultura y Ocio, Turismo"
"http://www.gijon.es/directorios/show/9876-restaurante-sidreria-parrilla-muno-poniente","9876","es","fecha-actualizacion2017-06-27 16:47:20 +0200","http://www.gijon.es/data/images/f0/f8/81553/4752x3168_v1_IMG_9442.JPG","Restaurante Sidrería Parrilla Muñó - Poniente","985  31 72 16","descanso el martes","Nuestra experiencia de 25 años en carnes a la parrilla de leña, nos convierte en un referente en nuestra región.<br/><br/>Somos una gran familia al servicio de nuestros clientes. Disponemos de menú diario y una amplia carta, con la mejor relación calidad-precio. Nos gusta que cada cliente se sienta como en casa y para ello Parrilla Muñó cuenta con dos sidrerías que ofrecen dos ambientes distintos con la misma disposición e ilusión por satisfacerles.<br/><br/>Prueba la sidra elaborada en nuestros propios llagares con manzana seleccionada realmente asturiana. ¡Tómate un<em>&quot;culín&quot;</em>!<br/><br/>¡Ven a conocernos!","Avda. Juan Carlos I, 42. 33212 Gión","43.538925 -5.680071","Restaurantes y sidrerías, Ruta de la Sidra, Ruta de la Sidra, Gijón con Calidad, Guia gastronómica, Turismo, Gijón accesible"
"http://www.gijon.es/directorios/show/9875-sidreria-parkgijon","9875","es","fecha-actualizacion2014-07-24 13:46:02 +0200","Sidrería ParkGijón","692  03 23 88","sidreriaparkgijon@gmail.com","C/ Donato Argüelles, 18. 33206 Gijón","43.539494 -5.664616","Restaurantes y sidrerías, Ruta de la Sidra, Ruta de la Sidra, Turismo, Guia gastronómica, Turismo"
"http://www.gijon.es/directorios/show/9874-sidreria-el-marinan-de-begona","9874","es","fecha-actualizacion2014-07-24 13:43:22 +0200","Sidrería El Mariñán de Begoña","984 84 64 80","C/ San Bernardo, 79. 33201 Gijón","43.538573 -5.660094","Restaurantes y sidrerías, Ruta de la Sidra, Ruta de la Sidra, Turismo, Guia gastronómica, Turismo"
"http://www.gijon.es/directorios/show/9873-sidreria-el-marinan","9873","es","fecha-actualizacion2014-07-24 13:41:33 +0200","Sidrería El Mariñán","985 35 00 53","C/ Casimiro Velasco, 11. 33201 Gijón","43.539967 -5.65915","Restaurantes y sidrerías, Ruta de la Sidra, Ruta de la Sidra, Turismo, 2014, Turismo, Guia gastronómica"
"http://www.gijon.es/directorios/show/9872-sidreria-canigu","9872","es","fecha-actualizacion2014-07-24 13:41:47 +0200","Sidrería Canigú","985 37 15 22","C/ Río de Oro, 6. 33209 Gijón.","43.531995 -5.662529","Restaurantes y sidrerías, Ruta de la Sidra, Guia gastronómica, Ruta de la Sidra, Turismo, Turismo"
"http://www.gijon.es/directorios/show/9758-la-galana","9758","es","fecha-actualizacion2016-01-20 16:43:16 +0100","http://www.gijon.es/data/images/f0/f3/37209/192x128_v1_LaGalana.jpg","La Galana","985 17 24 29","zapatarranca@hotmail.com","http://www.restauranteasturianolagalana.com/galana/","Plaza Mayor, 10","43.545188 -5.662505","Restaurantes y sidrerías, Guia gastronómica, Gijón con Calidad, Turismo"
"http://www.gijon.es/directorios/show/9757-el-cruce","9757","es","fecha-actualizacion2016-01-18 10:03:59 +0100","http://www.gijon.es/data/images/f0/f8/81551/3264x2448_v1_ElCruceComedor.jpg","El Cruce","985 37 11 30","http://restaurantelcruce.com/","Ctra. de Deva, 8. 33394 La Pontica - Cabueñes","43.516166 -5.604454","Merenderos, Restaurantes y sidrerías, Guia gastronómica, Gijón con Calidad, Turismo"
"http://www.gijon.es/directorios/show/9735-gala-silken-ciudad-gijon","9735","es","fecha-actualizacion2014-05-29 12:50:39 +0200","http://www.gijon.es/data/images/f0/f5/57681/230x230_v1_list-hoteles-ciudadgijon-restaurante-restaurante-panoramica-1.jpg","Gala (Silken Ciudad Gijón)","+34 985 176 112","hotel.ciudadgijon@hoteles-silken.com","http://www.hoteles-silken.com/hoteles/ciudad-gijon/restaurantes","En un espacio diáfano y luminoso, se encuentra el restaurante Gala. El restaurante, decorado con un estilo moderno y con un cómodo mobiliario que permite alargar la sobremesa, tiene capacidad para 55 comensales y ofrece un menú diario y una apetitosa carta que combina recetas de la rica gastronomía local con platos de corte más actual.<br/><br/><h4 style="font-weight: bold;">Descuento del 10% cno la tarjeta turística Gijón Card<br/></h4>","Bohemia, 1, 33207. Gijón","43.537101 -5.674996","Restaurantes y sidrerías, Gijón card. Tarjeta turística, Gijón Card, Turismo"
"http://www.gijon.es/directorios/show/9733-restaurante-parrilla-la-costa","9733","es","fecha-actualizacion2015-07-22 13:20:33 +0200","http://www.gijon.es/data/images/f0/f5/57673/300x224_v1_DSCF0193-Custom-300x224.jpg","Restaurante - Parrilla La Costa","+34 985 16 14 99","<strong></strong><strong style="text-decoration: underline;"><br/></strong>","http://sidrerialacosta.com/","Nuestro <strong>restaurante en Gijón, Sidrería La Costa,</strong> dispone de la fórmula perfecta para que pase un rato muy agradable y disfrute comiendo nuestros elaborados platos culinarios.<p>La <strong>combinación entre la gastronomía argentina y la cocina tradicional asturiana</strong> que ofrecemos a todos nuestros comensales le sorprenderá desde el primer momento en el que entre a nuestro local.</p><p><strong style="text-decoration: underline;"></strong>Somos un lugar distinguido por nuestra <strong>calidad</strong>, por la creatividad en la presentación de los platos y por nuestro buen hacer.</p><h4><span style="font-weight: bold;">Descuento del 10% con la tarjeta turística Gijón Card</span><br/></h4>","Av de la Costa, 32, 33205 Gijón","43.536609 -5.66198","Restaurantes y sidrerías, Gijón card. Tarjeta turística, Gijón Card, Gijón con Calidad, Guia gastronómica, Turismo"
"http://www.gijon.es/directorios/show/9732-la-taberna-del-piano","9732","es","fecha-actualizacion2015-07-22 13:02:32 +0200","http://www.gijon.es/data/images/f0/f5/57672/400x255_v1_tabernapiano.jpg","La Taberna del Piano","+34 985 345 08","http://www.latabernadelpiano.es/","La <strong>Taberna del Piano</strong> es realmente un restaurante-horno-asador, que de “<em>taberna</em>” sólo toma el nombre. La cocina, regida por <strong>María Teresa Sanz</strong>, esposa del propietario, tiene todos los platos típicos de Asturias, menú del día y destacan dos especialidades, que se sirven por encargo: Lechazo de Castilla y Cochinillo.<br/><br/><h4 style="font-weight: bold;">Descuento del 10% en carta y café gratuito en menú del día con la tarjeta turística Gijón Card</h4>","C/ Cabrales, nº12, bajo - 33201 Gijón","43.543976 -5.661784","Restaurantes y sidrerías, Gijón card. Tarjeta turística, Gijón Card, Gijón con Calidad, Turismo, Guia gastronómica"
"http://www.gijon.es/directorios/show/9642-mexicano-tex","9642","es","fecha-actualizacion2014-01-22 12:06:29 +0100","http://www.gijon.es/data/images/f0/f5/53049/256x180_v1_tex.jpg","Mexicano Tex","985 172 174","http://restaurantemexicanotex.es/","De 13 a 15.30h y de 20 a 24h. Miércoles por la mañana cerrado.","C/ los Evaristos, 7","43.534969 -5.668591","Guia gastronómica, Restaurantes y sidrerías, Turismo"
"http://www.gijon.es/directorios/show/9560-sidreria-restaurante-casa-arturo","9560","es","fecha-actualizacion2016-01-18 10:35:26 +0100","http://www.gijon.es/data/images/f0/f4/47870/951x634_v1_54-Arturo.jpg","Sidrería Restaurante Casa Arturo","985 36 13 60","985 33 47 78","casaarturo@telecable.es","http://www.casaarturogijon.com/","<p>De 11:00 a 24:00 h. Jueves cerrado.</p>","<p align="justify">Este establecimiento se encuentra próximo al estadio de fútbol de El Molinón, al <em>“Muséu del Pueblu d´ Asturies”</em> y al Jardín Botánico Atlántico.</p><p align="justify">Un recogido bar da paso a un amplio comedor, al fondo del cual se sitúa un espléndido merendero al aire libre protegido por plataneros. La carta está salpicada de agradables sugerencias: repollo con gambas, merluza con arroz marinado, perdiz al salmís o la cazuela de “<em>llámpares”</em>. Caldereta y parrillada de pescados y mariscos adornan una variada oferta culinaria.</p>","<p>Profesor Pérez Pimentel, 73. La Guía</p>","43.533761 -5.633604","Restaurantes y sidrerías, Guia gastronómica, Turismo"
"http://www.gijon.es/directorios/show/9537-sidreria-trebole","9537","es","fecha-actualizacion2014-01-22 12:06:26 +0100","http://www.gijon.es/data/images/f0/f4/44004/557x374_v1_trebole.jpg","Sidrería Trébole","984 397 906","http://","Plaza del Periodista Arturo Arias (Cimadevilla)","43.546492 -5.663999","Restaurantes y sidrerías, Guia gastronómica, Turismo, Gijón Card"
"http://www.gijon.es/directorios/show/9482-llagar-bernueces","9482","es","fecha-actualizacion2017-06-27 17:08:05 +0200","http://www.gijon.es/data/images/f0/f5/58023/500x333_v1_bernueces.jpg","Llagar Bernueces","985 131 188","info@llagarbernueces.com","http://www.llagarbernueces.com","<p>Llagar Bernueces es uno de los llagares más antiguos de Asturias. Con unos orígenes que datan de 1881, se trata de uno de esos enclaves únicos donde la tradición cultural y gastronómica se encuentra impregnada en cada detalle, en cada rincón.</p><h4><span style="font-weight: bold;">Descuento del 10% en visita guiada con la tarjeta turística Gijón Card</span><br/></h4>","Camino de la Nisal, 1104","43.508609 -5.620601","Merenderos, Llagares, Gijón card. Tarjeta turística, Ruta de la Sidra, Restaurantes y sidrerías, Gijón con Calidad, Turismo, Gijón accesible"
"http://www.gijon.es/directorios/show/9475-restaurante-parrilla-la-carbayera","9475","es","fecha-actualizacion2015-07-22 13:14:20 +0200","http://www.gijon.es/data/images/f0/f4/43949/640x480_v1_1259836048.jpg","Restaurante Parrilla La Carbayera","985 13 70 25","restaurante@lacarbayera.com","http://www.lacarbayera.com","<p>En Gijón, este restaurante parrilla se encuentra enmarcado en un magnífico entorno natural a cincominutos del centro de la ciudad. Su extensa y variada carta dispone de carnes,pescados, mariscos,... con base en la cocina tradicional.</p><p>Parking propio, amplia zona de recreo infantil,terrazas exteriores, sidrería, servicio de parrilla. Salones para celebracionesde bodas y banquetes.</p>","<p>Camín de La Carbayera, 306</p>","43.50081 -5.661796","Merenderos, Ruta de la Sidra, Turismo-Menú merendero, Gijón con Calidad, Restaurantes y sidrerías, Guia gastronómica, Turismo"
"http://www.gijon.es/directorios/show/9447-sidreria-noriega","9447","es","fecha-actualizacion2014-01-22 12:06:23 +0100","http://www.gijon.es/data/images/f0/f4/43946/402x600_v1_noriega.jpg","Sidrería Noriega","985 14 85 92","Calle Juan Alvargonzalez - C/ Juan Alvargonzález, 35","43.530452 -5.670478","Restaurantes y sidrerías, Ruta de la Sidra, Turismo-Menú sidrería, Turismo"
"http://www.gijon.es/directorios/show/9440-marisqueria-poniente","9440","es","fecha-actualizacion2014-09-01 13:17:46 +0200","http://www.gijon.es/data/images/f0/f4/43945/500x375_v1_marisqueria.jpg","Marisquería Poniente","985 322 349","985 308 706","marisqueriaponientegijon@hotmail.es","http://","Avda. Juan Carlos I, 13","43.541407 -5.672507","Restaurantes y sidrerías, Ruta de la Sidra, Turismo-Menú sidrería, Ruta de la Sidra, Turismo, Gijón con Calidad"
"http://www.gijon.es/directorios/show/9411-sidreria-el-restallu","9411","es","fecha-actualizacion2014-09-01 15:41:36 +0200","http://www.gijon.es/data/images/f0/f4/43941/500x500_v1_restalluuu.jpeg","Sidrería El Restallu","985 35 00 48","985 17 01 02","http://","C/ Decano Prendes Pando, 6","43.54 -5.67","Restaurantes y sidrerías, Ruta de la Sidra, Turismo-Menú sidrería, Turismo, Gijón con Calidad"
"http://www.gijon.es/directorios/show/9410-sidreria-el-alleranu-casa-javi","9410","es","fecha-actualizacion2014-01-22 12:06:22 +0100","http://www.gijon.es/data/images/f0/f4/43939/620x682_v1_alleranu.jpg","Sidrería El Alleranu - Casa Javi","984 492 197","El Alleranu - Casa Javi - C/Cienfuegos - Cienfuegos, 32","43.535627 -5.658095","Restaurantes y sidrerías, Ruta de la Sidra, Turismo-Menú sidrería, Turismo"
"http://www.gijon.es/directorios/show/9409-sidreria-casa-trabanco","9409","es","fecha-actualizacion2014-01-22 12:06:22 +0100","http://www.gijon.es/data/images/f0/f4/43937/679x405_v1_trabanco.jpg","Sidrería Casa Trabanco","985 136 462","sidreria@casatrabanco.com","http://","Camin De Tueya A La Bovia (Lavandera)","43.461596 -5.641725","Restaurantes y sidrerías, Ruta de la Sidra, Turismo-Menú sidrería, Turismo"
"http://www.gijon.es/directorios/show/9396-sidreria-bobes","9396","es","fecha-actualizacion2014-01-22 12:06:21 +0100","http://www.gijon.es/data/images/f0/f4/43936/200x142_v1_bobes.jpg","Sidrería Bobes","985 372 009","Sidrería Boal - Calle Reconquista - C/ Reconquista, 9","43.535506 -5.655324","Restaurantes y sidrerías, Ruta de la Sidra, Turismo-Menú sidrería, Turismo"
"http://www.gijon.es/directorios/show/9395-sidreria-boal-de-roncal","9395","es","fecha-actualizacion2015-10-08 09:34:07 +0200","http://www.gijon.es/data/images/f0/f4/43943/477x347_v1_sidre.jpg","Sidrería Boal de Roncal","984 49 14 31","Roncal, 8 - Gijón","43.528753 -5.668238","Restaurantes y sidrerías, Turismo-Menú sidrería, Turismo"
"http://www.gijon.es/directorios/show/9376-parrilla-carcedo-playa","9376","es","fecha-actualizacion2014-01-22 12:06:20 +0100","http://www.gijon.es/data/images/f0/f4/43317/297x193_v1_carcedo.JPG","Parrilla Carcedo Playa","984 19 48 58","http://www.parrillacarcedo.com/","Avda. Rufo Rendueles, 10 - 33203 Gijón","43.540305 -5.650602","Restaurantes y sidrerías, Guia gastronómica, Turismo"
"http://www.gijon.es/directorios/show/9358-taberna-la-bellota","9358","es","fecha-actualizacion2014-01-22 12:06:20 +0100","http://www.gijon.es/data/images/f0/f4/41782/342x312_v1_labellota.JPG","Taberna La Bellota","984 19 03 99","Prendes Pando, 8 - 33207","43.537113 -5.666261","Restaurantes y sidrerías, Vinos y Tapas, Guia gastronómica, Turismo"
"http://www.gijon.es/directorios/show/9357-pub-restaurante-geographic","9357","es","fecha-actualizacion2014-01-22 12:06:20 +0100","http://www.gijon.es/data/images/f0/f4/41780/169x159_v1_geographic.JPG","Pub Restaurante Geographic","http://www.pubgeographic.com/","L - J: 17:00 - 02:00 h.<br/>V y S: 17:00 - 05:00 h.<br/>D: 17:00 - 02:00 h.","Plaza Villamanín (Somió) - 33203 Gijón","43.53434 -5.621098","Restaurantes y sidrerías, Bares y cafés, Pubs, Guia gastronómica, Turismo"
"http://www.gijon.es/directorios/show/9353-cafeteria-restaurante-ebano","9353","es","fecha-actualizacion2014-01-22 12:06:19 +0100","http://www.gijon.es/data/images/f0/f4/41778/270x203_v1_ebano.jpg","Cafetería Restaurante Ébano","984 39 98 92","info@cafeteriarestauranteebano.es","http://cafeteriarestauranteebano.pyme10.com/cafe-ebano_59967.html","Desde las 07:00 h.","Matemático Pedrayes, 3 - 33207 Gijón","Restaurantes y sidrerías, Bares y cafés, Guia gastronómica, Turismo"
"http://www.gijon.es/directorios/show/9350-bodega-jayla","9350","es","fecha-actualizacion2014-01-22 12:06:19 +0100","http://www.gijon.es/data/images/f0/f4/41539/800x526_v1_bodega-jayla.jpg","Bodega Jayla","985 34 33 75","Decano Prendes Pando, 10 - 33207 Gijón","43.537 -5.666266","Restaurantes y sidrerías, Bares y cafés, Guia gastronómica, Turismo"
"http://www.gijon.es/directorios/show/9339-cafe-restaurante-el-tostadero","9339","es","fecha-actualizacion2014-01-22 12:06:19 +0100","http://www.gijon.es/data/images/f0/f4/40988/177x160_v1_tostadero.jpeg","Café-Restaurante El Tostadero","985 33 32 78","info@tostaderoplaya.com","http://www.tostaderoplaya.com/","<p>Avda. José García Bernardo, 66 - 33203 Gijón<br/></p>","43.541748 -5.644572","Restaurantes y sidrerías, Bares y cafés, Guia gastronómica, Turismo"
"http://www.gijon.es/directorios/show/9317-taberna-vinateria-la-sarten","9317","es","fecha-actualizacion2014-01-22 12:06:18 +0100","http://www.gijon.es/data/images/f0/f4/40080/180x141_v1_lasarten.jpg","Taberna - Vinatería La Sartén","984 49 30 90","lasartendegion@gmail.com","http://es-es.facebook.com/pages/Taberna-Vinateria-La-Sarten/279599185446840?sk=info","Comida Española - Especialidad en tablas y sartenes variadas. <br/> <br/> Amplia carta de ensaladas, raciones, tablas frías y cachondas (puedes elegir hasta cuatro ingredientes, uno de ellos fríos), sartenes con huevos de pita d'aldea + ¡el ingrediente que tú elijas!<br/> <br/>Y nuestros postres caseros...","Santa Doradía, 24 - 33202 Gijón","43.537795 -5.657192","Restaurantes y sidrerías, Vinos y Tapas, Guia gastronómica, Turismo"
"http://www.gijon.es/directorios/show/9312-restaurante-la-darsena","9312","es","fecha-actualizacion2014-01-22 12:06:18 +0100","http://www.gijon.es/data/images/f0/f4/40074/220x183_v1_ladarsena.jpg","Restaurante La Dársena","985 35 30 24 / 985 35 08 66","Claudio Alvargonzález, 10 - 33201 Gijón","43.546162 -5.664882","Restaurantes y sidrerías, Bares y cafés, Guia gastronómica, Turismo"
"http://www.gijon.es/directorios/show/9305-restaurante-santo-remedio","9305","es","fecha-actualizacion2014-06-23 13:36:51 +0200","Restaurante Santo Remedio","985 35 91 49","Remedios, 1 - 33201, Gijón","43.545945 -5.66338","Restaurantes y sidrerías, Guia gastronómica, Turismo"
"http://www.gijon.es/directorios/show/9304-restaurante-sidreria-los-espumeros","9304","es","fecha-actualizacion2014-01-22 12:06:18 +0100","http://www.gijon.es/data/images/f0/f3/39824/343x334_v1_espumeros.JPG","Restaurante - Sidrería Los Espumeros","Rosario, 56 - 33201","43.546706 -5.66485","Restaurantes y sidrerías, Guia gastronómica, Turismo"
"http://www.gijon.es/directorios/show/9303-restaurante-sidreria-la-tabacalera","9303","es","fecha-actualizacion2014-01-22 12:06:18 +0100","http://www.gijon.es/data/images/f0/f3/39822/337x371_v1_latabacalera.JPG","Restaurante - Sidrería La Tabacalera","984 19 09 67","http://www.restaurante-tabacalera-gijon.es/","Vicaría, 20","43.546536 -5.663557","Restaurantes y sidrerías, Guia gastronómica, Turismo"
"http://www.gijon.es/directorios/show/9302-la-bota-del-campesino","9302","es","fecha-actualizacion2014-01-22 12:06:18 +0100","La Bota del Campesino","984 29 89 93","Plaza de la Colegiata, 10","43.545669 -5.663954","Restaurantes y sidrerías, Guia gastronómica, Turismo"
"http://www.gijon.es/directorios/show/9301-restaurante-casa-oscar","9301","es","fecha-actualizacion2014-01-22 12:06:18 +0100","Restaurante Casa Óscar","630 81 25 75","Lunes cerrado","C/ Escultor Sebastián Miranda - Gijón","43.546525 -5.662049","Restaurantes y sidrerías, Guia gastronómica, Turismo"
"http://www.gijon.es/directorios/show/9298-sidreria-hermanos-rodriguez","9298","es","fecha-actualizacion2014-01-22 12:06:18 +0100","Sidrería Hermanos Rodríguez","985 36 57 18","Emilio Tuya, 39 - 33202","Restaurantes y sidrerías, Guia gastronómica, Turismo"
"http://www.gijon.es/directorios/show/9296-restaurante-fernando","9296","es","fecha-actualizacion2015-01-21 12:12:20 +0100","http://www.gijon.es/data/images/f0/f3/39724/428x422_v1_rtefernando.JPG","Restaurante Fernando","984 39 95 41","Aguado, 34 - 33202","Restaurantes y sidrerías, Guia gastronómica, Turismo"
"http://www.gijon.es/directorios/show/9295-pulperia-o-pazo-do-paradela","9295","es","fecha-actualizacion2014-01-22 12:06:18 +0100","http://www.gijon.es/data/images/f0/f3/39723/167x203_v1_opazodoparadela.jpg","Pulpería O Pazo do Paradela","985 13 39 16","Especialidades gallegas: pulpo, lacón, cachelos, pimientos del padrón, tapas.<br/><br/>Cachopos: gallego, montañés, asturiano, leonés.","Emilio Tuya, 30","43.539139 -5.649668","Restaurantes y sidrerías, Bares y cafés, Guia gastronómica, Turismo"
"http://www.gijon.es/directorios/show/9294-restaurante-la-gitana","9294","es","fecha-actualizacion2014-01-22 12:06:18 +0100","Restaurante La Gitana","984 84 68 20","Aguado, 27 - 33203","43.539131 -5.649089","Restaurantes y sidrerías, Guia gastronómica, Turismo"
"http://www.gijon.es/directorios/show/9293-sidreria-riosan","9293","es","fecha-actualizacion2014-01-22 12:06:18 +0100","Sidrería Riosan","Marqués de Urquijo, 27","43.539166 -5.646536","Restaurantes y sidrerías, Guia gastronómica, Turismo"
"http://www.gijon.es/directorios/show/9292-restaurante-el-tayu-l-arena","9292","es","fecha-actualizacion2014-01-22 12:06:18 +0100","Restaurante El Tayu L'Arena","Ezcurdia, 63","43.537875 -5.648939","Restaurantes y sidrerías, Guia gastronómica, Turismo"
"http://www.gijon.es/directorios/show/9290-taberna-berciana","9290","es","fecha-actualizacion2014-01-22 12:06:18 +0100","http://www.gijon.es/data/images/f0/f3/39720/131x142_v1_TabernaBerciana.jpg","Taberna Berciana","985 37 20 80","http://www.tabernaberciana.com/","Martes cerrado.","Ezcurdia, 25 - 33202","Restaurantes y sidrerías, Vinos y Tapas, Guia gastronómica, Turismo"
"http://www.gijon.es/directorios/show/9288-sidreria-riber","9288","es","fecha-actualizacion2014-01-22 12:06:18 +0100","http://www.gijon.es/data/images/f0/f3/39715/570x335_v1_sidreriariber.JPG","Sidrería Riber","985 33 00 65","Menéndez y Pelayo, 9","43.538746 -5.6522","Restaurantes y sidrerías, Guia gastronómica, Turismo"
"http://www.gijon.es/directorios/show/9286-cafe-restaurante-de-mouzo","9286","es","fecha-actualizacion2014-01-22 12:06:18 +0100","http://www.gijon.es/data/images/f0/f3/39711/600x450_v1_demouzo.jpg","Café-Restaurante De Mouzo","984 04 24 24","restaurantedemouzo@hotmail.es","De 10:00 a 00:00 h.","Vinos, tapas, cocina creativa a la carta, menú del día, desayunos con bizcochos caseros y rosquillas.<br/><br/>Martes cerrado.","Menéndez y Pelayo, 10","43.538528 -5.652672","Restaurantes y sidrerías, Bares y cafés, Guia gastronómica, Turismo"
"http://www.gijon.es/directorios/show/9282-sidreria-aguado","9282","es","fecha-actualizacion2014-06-23 13:44:10 +0200","http://www.gijon.es/data/images/f0/f3/39705/450x341_v1_sidreriaaguado.jpg","Sidrería Aguado","985 13 14 62","http://www.asturiascalidad.com/index.php?c=24","Especialidad en: chipirones &quot;afogaos&quot;, parrillada de marisco, carnes de buey a la piedra.","Aguado, 19 - 33202, Gijón","43.538482 -5.649304","Restaurantes y sidrerías, Guia gastronómica, Turismo"
"http://www.gijon.es/directorios/show/9281-restaurante-topolino","9281","es","fecha-actualizacion2014-01-22 12:06:18 +0100","http://www.gijon.es/data/images/f0/f3/39703/152x106_v1_topolino.jpg","Restaurante Topolino","984 39 78 57","<div style="text-align: justify;">El Restaurante Topolino ofrece una cocina joven e innovadora sin renunciar a la raíz propia de un establecimiento fundado en 1965. Se encuentra frente a la playa de San Lorenzo, en una zona céntrica y a la vez próxima al recinto ferial de Gijón y al estadio El Molinón.<br/><br/>Entre su oferta gastronómica destacan los pescados del Cantábrico y las carnes asturianas, así como sus ensaladas de marisco, los arroces, el pulpo y sus postres innovadores.<br/><br/>Desde el exterior, su gran cristalera invita a conocer un local con una decoración moderna, en la que se ha cuidado con mimo hasta el último detalle.<br/><br/>En su cocina también prestan atención a la delicada elaboración de pinchos, ideales para degustar con una copa de vino en su concurrida barra.<br/><br/>Durante la semana ofrecen menú del día y los fines de semana un menú especial a precios asequibles.<br/><br/>Domingo noche y lunes cerrado.<br/></div> ","Avda. Rufo garcía Rendueles, 19","43.54013 -5.647802","Restaurantes y sidrerías, Guia gastronómica, Turismo"
"http://www.gijon.es/directorios/show/9280-sidreria-asturias","9280","es","fecha-actualizacion2014-01-22 12:06:17 +0100","http://www.gijon.es/data/images/f0/f3/39725/277x200_v1_sidreriaasturias.jpg","Sidrería Asturias","985 37 45 16","http://www.sidreriaasturias.com/asturias/inicio.html","Menú fin de semana<br/><br/>Menú diario<br/><br/>Raciones y tapas<br/><br/>Sugerencias: pescados y mariscos del Cantábrico, oricios de temporada, ventresca de bonito (en temporada), callos.<br/><br/>Lunes cerrado.","Doctor Aquilino Hurlé, 36 -","Restaurantes y sidrerías, Guia gastronómica, Turismo"
"http://www.gijon.es/directorios/show/9268-uria-restaurante","9268","es","fecha-actualizacion2014-01-22 12:06:17 +0100","http://www.gijon.es/data/images/f0/f3/39376/445x334_v1_uria.jpg","Uría Restaurante","985 16 60 29","Antonio Gaudí Cornet, 4 (Pol. Ind. Roces) - 33211","43.508675 -5.689708","Restaurantes y sidrerías, Guia gastronómica, Turismo"
"http://www.gijon.es/directorios/show/9260-sidreria-la-esquina","9260","es","fecha-actualizacion2014-07-24 13:43:48 +0200","http://www.gijon.es/data/images/f0/f3/39361/362x337_v1_laesquina.JPG","Sidrería La Esquina","984 49 10 85","descanso el miércoles","Cocina casera en esta sidrería con años de historia en el barrio de la sidra.<br/><br/>Destacan los platos de mar como las calderetas, la merluza a la sidra, el bacalao al pilpil, las navajas y almejas. En carnes: el picadillo con cabrales, el cachopo de ternera, y sus parrilladas.<br/>Dispone de menú del día.","Juan Alvargonzález, 30","43.530128 -5.668508","Restaurantes y sidrerías, Ruta de la Sidra, Ruta de la Sidra, Turismo, Guia gastronómica, Turismo"
"http://www.gijon.es/directorios/show/9259-sidreria-boal","9259","es","fecha-actualizacion2014-08-29 13:54:52 +0200","http://www.gijon.es/data/images/f0/f3/39359/500x424_v1_sidreriaboal.jpg","Sidrería Boal","985 846 852","http://www.asturiascalidad.com/portal/index.php?cliente=8&amp;opcion=1","La sidrería restaurante Boal<span style="font-weight: bold;"> </span><strong><span style="font-weight: bold;"></span></strong>está ambientada en motivos asturianos. Cuenta con comedores adecuados para grupos, comidas de empresa y reuniones de amigos. El sabor de la típica sidrería asturiana se entremezcla con su buena cocina.<br/><br/><strong>ESPECIALIDADES (Por encargo)</strong><br/> Todo tipo de guisos y cocidos por encargo.<br/> Paella de Marisco<br/> Parrillada de pescado<br/> Parrillada marisco<br/> Cazuela de pescado<br/> Cazuela Amariscada<br/> Fabada Asturiana<br/> Fabada con almejas<br/> Fabada con centollo<br/> Pulpo con patatinas<br/><br/><strong>RACIONES (Según temporada)</strong><br/>Navajas a la plancha.<br/>Llamparas<br/>Bigaros<br/>Mejillones <br/>Centollos<br/>Buey de mar<br/>Necoras<br/>Almejas<br/>Pulpo a la vinagreta<br/>Pulpo a la Gallega<br/><br/>","Enrique Martínez, 4 - 33205 Gijón","43.537346 -5.655591","Guia gastronómica, Ruta de la Sidra, Ruta de la Sidra, Restaurantes y sidrerías, Turismo"
"http://www.gijon.es/directorios/show/9258-cafe-musical-xareu","9258","es","fecha-actualizacion2016-12-20 09:43:01 +0100","http://www.gijon.es/data/images/f0/f8/81566/960x643_v1_XAREU1.jpg","Café Musical Xaréu","985 33 31 17","info@cafexareu.com","http://es-la.facebook.com/people/El-Xareu/100001935240216","De lunes a jueves de 08:00 a 23:00 h.<br/>Viernes de 08:00 a 05:00 h.<br/>Sábados de 10:00 a 05:00 h.<br/>Domingos de 10:00 a 23:00 h. Festivos a partir de las 10:00 h.","Cafetería situada enfrente de la plaza de toros de El Bibio- Gijón. Terraza durante todo el año. Retransmisiones deportivas en pantallas gigantes de 4x3 y 3x2 metros.<br/><br/>Amplia carta de vinos, cervezas, gin-tonics, platos combinados y tapas.<br/>Especialidad en café 100% arábica y latte art.<br/><br/>Karaoke con más de 5.000 canciones. Salón privado para eventos, fiestas, karaokes, cumpleaños, grupos, etc.<br/>Wi-Fi Gratuito.","Avenida Pablo Iglesias, 96","43.535137 -5.6469","Bares y cafés, Guia gastronómica, Restaurantes y sidrerías, Gijón accesible, Turismo"
"http://www.gijon.es/directorios/show/9248-cafe-los-juzgados","9248","es","fecha-actualizacion2015-07-22 15:43:01 +0200","http://www.gijon.es/data/images/f0/f3/39028/500x373_v1_cafe-los-juzgados.jpg","Café Los Juzgados","+34 985 19 54 56","Situada en la playa de Poniente, muy cerquita del Acuario. Especialistas en repostería casera y chocolate con churros para desayunar y merendar.<br/>Sorprendente variedad de pinchos, sándwiches y hamburguesas.<br/>Menú diario y platos combinados.<br/>Amplio comedor con cocina abierta todo el día.<br/><br/><h4 style="font-weight: bold;">Descuento del 15% con la tarjeta turística Gijón Card<br/></h4>","Juan Carlos I, 6 - 33212 Gijón","43.541091 -5.673808","Bares y cafés, Guia gastronómica, Gijón, Gijón card. Tarjeta turística, Gijón Card, Gijón con Calidad, Restaurantes y sidrerías, Turismo"
"http://www.gijon.es/directorios/show/9247-sidreria-urbies","9247","es","fecha-actualizacion2014-06-23 13:52:17 +0200","http://www.gijon.es/data/images/f0/f3/39018/183x275_v1_urbies.jpg","Sidrería Urbiés","(+34) 985 14 35 28","Menú del día: 8 €","Carretera del Obispo, 69 - 33210 Gijón","43.521069 -5.664603","Restaurantes y sidrerías, Guia gastronómica, Gijón, Turismo"
"http://www.gijon.es/directorios/show/9246-pulperia-o-rison","9246","es","fecha-actualizacion2014-01-22 12:06:16 +0100","http://www.gijon.es/data/images/f0/f3/39016/600x450_v1_orison.jpg","Pulpería O'Risón","(+34) 985 33 99 52","http://www.pulperiaorison.es/","De 12:00 a 16:00 h. y de 20:00 a 00:30 h.","<p>La <strong style="font-weight: normal;">Pulpería O Risón</strong>,  regentada por Astrid y Javier, es un punto de encuentro  y un lugar de esparcimiento donde podrá disfrutar del  auténtico sabor de la cocina gallega.</p> <p>Situado en el barrio de la arena, en Gijón, y a pocos metros de la playa de San Lorenzo, son referentes en el sector, se vuelcan por atender a sus clientes, ofreciendo un servicio familiar y confortable.</p> <p>Disponen de<strong style="font-weight: normal;"> Aparcamiento Gratuito para sus clientes.<br/></strong></p>","Emilio Tuya, 15 bajo - 33202 Gijón","43.53957 -5.650763","Restaurantes y sidrerías, Guia gastronómica, Gijón, Turismo"
"http://www.gijon.es/directorios/show/9245-restaurante-casa-tino","9245","es","fecha-actualizacion2014-01-22 12:06:16 +0100","http://www.gijon.es/data/images/f0/f3/39014/448x289_v1_casatino.jpg","Restaurante Casa Tino","(+34) 985 13 84 97 - 985 34 81 49","mail@restaurantecasatino.com","http://www.restaurantecasatino.com","Bar con amplia barra y ocho mesas sonde alternar y degustar cocina tradicional, tapas, sidra y los vinos de su bodega.<strong></strong>","Alfredo truán, 9 - 33205 Gijón","43.537486 -5.661878","Restaurantes y sidrerías, Guia gastronómica, Gijón, Turismo"
"http://www.gijon.es/directorios/show/8710-entrevinos","8710","es","fecha-actualizacion2014-01-22 12:06:05 +0100","http://www.gijon.es/data/images/f0/f3/38496/219x230_v1_entrevinios.jpeg","Entrevinos","+ 34 984 39 32 94","<ul><li>No admite animales.<br/></li></ul>","Salustio Regueral, 4. 33206. Gijón.","43.54287 -5.66478","Restaurantes y sidrerías, Guia gastronómica, 2011, Turismo-Sidra dop brut, Turismo"
"http://www.gijon.es/directorios/show/8709-lunchy-alcampo","8709","es","fecha-actualizacion2014-01-22 12:06:05 +0100","http://www.gijon.es/data/images/f0/f3/37683/130x98_v1_lunchy.jpg","Lunchy Alcampo","985 16 87 69","Galeria comercial Alcampo","Restaurantes y sidrerías, 2011, Turismo-Sidra dop brut, Turismo"
"http://www.gijon.es/directorios/show/8708-johy-los-manzanos","8708","es","fecha-actualizacion2015-01-21 14:50:40 +0100","http://www.gijon.es/data/images/f0/f3/37682/256x192_v1_JohyLosManzanos.jpg","Johy-Los Manzanos","985 37 21 90","Doctor Aquilino Hurle, 31","43.539547 -5.647608","Restaurantes y sidrerías, Turismo-Sidra dop brut, Bares y cafés, Turismo"
"http://www.gijon.es/directorios/show/8406-la-boqueria","8406","es","fecha-actualizacion2014-09-01 14:54:06 +0200","http://www.gijon.es/data/images/f0/f3/37389/818x763_v1_boqueria.JPG","La Boquería","+ 34 985 372 610","<div style="text-align: justify;">Local de diseño con dos ambientes, emsas altas para tomar más de quince vinos por copas y en la parte posterior, mesas bajas para tapeo variado.<br/><br/><ul><li>Permite la entrada de animales en el establecimiento.<br/></li></ul></div>","San Luis, 5. 33205. Gijón.","43.536486 -5.656137","Restaurantes y sidrerías, Guia gastronómica, Turismo, Gijón con Calidad"
"http://www.gijon.es/directorios/show/8405-el-vino-del-inca","8405","es","fecha-actualizacion2014-06-20 13:55:56 +0200","http://www.gijon.es/data/images/f0/f3/37388/1600x1195_v1_elvinodelinca.jpg","El Vino del Inca","<div style="text-align: justify;">Uno de los locales de más exito últimamente, tanto por el ambiente como por la ubicación en la zona de moda. Tiene terraza incluso en invierno.</div>","Salustio Regueral, 4. 33206. Gijón.","43.543093 -5.664592","Restaurantes y sidrerías, Guia gastronómica, Turismo"
"http://www.gijon.es/directorios/show/8403-pizzeria-la-nonna","8403","es","fecha-actualizacion2014-01-22 12:06:00 +0100","http://www.gijon.es/data/images/f0/f3/37386/505x376_v1_Lanonna.jpg","Pizzería La Nonna","985 361 379","<div style="text-align: justify;">Restaurante italiano regentado por Doménico Salvatore, toda una institución en la ciudad. Prueben la dolce vita (pasta rellena de trufa) y los fiochetti.<br/><br/><ul><li>No permite la entrada de animales en el establecimiento.<br/></li></ul></div>","La Nonna - Avda. Castilla,33","43.539251 -5.645441","Restaurantes y sidrerías, Guia gastronómica, Turismo"
"http://www.gijon.es/directorios/show/8401-el-cencerro","8401","es","fecha-actualizacion2014-09-01 14:37:27 +0200","http://www.gijon.es/data/images/f0/f3/37384/530x270_v1_elcencero.jpg","El Cencerro","+ 34 984 391 567","info@tabernaelcencerro.es","http://www.tabernaelcencerro.es/","<span style="font-weight: bold;">Descansa</span>: Domingo y Lunes mediodía<br/><br/><span style="font-weight: bold;">Precio</span>: 35 - 40€<br/><br/><div style="text-align: justify;">Es uno de los locales culinariamente más atractivos de la actualidad. Excelentes materias primas tratadas con imaginación. Damián lidera la sala con cercanía y buen rollo. Soberbias carnes y magnificos postres.<br/><br/>Todo buen anfitrión que se precie debe otorgar a sus invitados los mejores cuidados, con el fin de que estos disfruten de una velada inolvidable que deseen repetir.<br/><br/> Con esta filosofía abrimos el 5 de Noviembre de 2008, El Cencerro, nuestra casa, de la cual os abrimos las puertas cada día ofreciendo lo mejor de nosotros y de los productos que consideramos los más exquisitos del mundo: deliciosas ensaladas y entrantes, tierna carne de los más selectos animales, sabrosos lomos de bacalao, pescados de nuestro preciado mar Cantábrico… todo ello culminado con los más dulces caprichos y maridado con los mejores vinos, recomendados desde la amistad, basándonos en la más rigurosa profesionalidad.<br/><br/> Todo buen anfitrión que se precie se sentirá como en su propia casa en El Cencerro, ya que quien sabe cuidar de los demás, reconoce cuando está bien cuidado.<br/><br/><ul><li>No admite animales.<br/></li></ul></div>","Decano Prendes Pando, 24. 33208. Gijón.","43.53521 -5.665829","Restaurantes y sidrerías, Guia gastronómica, Turismo, Gijón con Calidad"
"http://www.gijon.es/directorios/show/8394-egb-gastrochenta-by-urrutia","8394","es","fecha-actualizacion2017-06-26 14:35:33 +0200","http://www.gijon.es/data/images/f0/f3/37383/640x480_v1_urrutia.jpeg","EGB Gastrochenta by Urrutia","+ 34 984 155 050","restaurante@alejandrogarciaurrutia.com","http://www.alejandrogarciaurrutia.com/","<div style="text-align: justify;">Es una de las últimas novedades de la ciudad. Cocina creativa con personalidad, la que irradia su propietario. Campeón de España de Cocineros, con algunos platos del extinguido Gallery.<br/></div><br/><span style="font-weight: bold;">Descansa</span>: noches de domingo a miércoles.<br/><br/><span style="font-weight: bold;">Precio</span>: 45 - 50 €","La Merced, 31","43.540425 -5.661389","Restaurantes y sidrerías, Guia gastronómica, Turismo"
"http://www.gijon.es/directorios/show/8298-vinarteria-canaa","8298","es","fecha-actualizacion2017-06-27 17:07:35 +0200","http://www.gijon.es/data/images/f0/f3/37247/960x640_v1_canaa.jpg","Vinartería Canaa","Un bonito local y dos terrazas donde poder tomar desde un buen vino, acompañado de buenas tapas, hasta un cava o gin tonic, disfrutando al mismo tiempo de las interesantes exposiciones de arte que cuelgan habitualmente de sus paredes. Todo ello en El Carmen, la zona de moda para tomar vinos en Gijón.","C/ Salustio Regueral, 10. 33206. Gijón.","43.542903 -5.66471","Vinos y Tapas, Guia gastronómica, Gijón de Pinchos, Gijón con Calidad, Restaurantes y sidrerías, Bares y cafés, Turismo"
"http://www.gijon.es/directorios/show/8229-restaurante-merendero-la-huerta","8229","es","fecha-actualizacion2014-09-29 14:14:24 +0200","http://www.gijon.es/data/images/f0/f3/38369/1600x1200_v1_Merenderolahuerta.JPG","Restaurante Merendero La Huerta","984 09 95 95 - 606 52 64 61","merenderolahuerta@gmail.com","<div style="text-align: justify;">En la zona rural de Gijón situado en la parroquia de Cabueñes, esta situado el Restaurante merendero La Huerta donde podeis degustar cocina casera a diario, con productos de la huerta asturiana.<br/></div><br/><div style="text-align: justify;">Dirigido por José Menéndez, quien lleva cara al público más de 30 años. (Antes en el mítico Escocia de Cimavilla).<br/>Emprende nueva aventura empresarial acompañado de Yolanda Serrano, con amplia experiencia ante los fogones.<br/>Recomendamos: croquetas con jamón ibérico caseras, calamares frescos fritos, carnes a la parrilla y todos nuestros postres son caseros.<br/></div>","Camino de La Frontera, 337. 33394. Gijón.","43.526993 -5.604865","Merenderos, Restaurantes y sidrerías, Llagares, Guia gastronómica, 2011, Gijón de Pinchos, Turismo"
"http://www.gijon.es/directorios/show/8212-pizzeria-la-competencia","8212","es","fecha-actualizacion2014-01-22 12:05:54 +0100","http://www.gijon.es/data/images/f0/f3/37203/176x128_v1_competencia.jpg","Pizzería La Competencia","+ 34 985 349 516","http://www.pizzerialacompetencia.com/","<ul><li>Admite animales sólo en zona de terraza.<br/></li></ul>","Calle Felipe Menéndez, 11. 33206. Gijón. ","43.542712 -5.666148","Restaurantes y sidrerías, Guia gastronómica, 2011, Gijón de Pinchos, Turismo"
"http://www.gijon.es/directorios/show/8192-meson-el-museo","8192","es","fecha-actualizacion2014-01-22 12:05:53 +0100","http://www.gijon.es/data/images/f0/f3/37193/570x428_v1_elmuseo.jpg","Mesón el Museo","+ 34 985 151 614","mesonelmuseo@hotmail.com","http://www.meson-restaurante-gijon.es/","<div style="text-align: justify;"><div style="text-align: justify;">En nuestro restaurante podrá degustar productos de primera calidad. Entre nuestras especialidades encontrará carne a la piedra o pescado a la espalda.Disfrute de nuestras instalaciones en un ambiente exquisito.<br/></div><br/></div><ul><li>No admite animales.<br/></li></ul>","Avenida del Llano, 22. 33209. Gijón.","43.534235 -5.660569","Restaurantes y sidrerías, Guia gastronómica, 2011, Gijón de Pinchos, Turismo"
"http://www.gijon.es/directorios/show/8148-la-iglesiona-restaurante","8148","es","fecha-actualizacion2015-01-21 12:51:48 +0100","http://www.gijon.es/data/images/f0/f3/37174/467x350_v1_iglesiona.jpg","La Iglesiona Restaurante","+ 34 985 171 417","laiglesiona@laiglesiona.com","http://www.laiglesiona.com/","<div style="text-align: justify;"><strong style="font-weight: normal;">El Restaurante La Iglesiona</strong>, templo del buen comer y beber en pleno centro de Gijón, se levanta al lado de la basílica del Sagrado Corazón, de la que toma prestado el nombre con el que por todos es conocida. Acérquese a nuestro establecimiento y déjese seducir por los sabores y aromas de los productos que salen de la cocina de este paraíso terrenal: <strong style="font-weight: normal;">jamón y embutidos ibéricos de primera calidad</strong>, procedentes de Guijuelo (Salamanca), <strong style="font-weight: normal;">carnes rojas</strong> tiernas y sabrosas, <strong style="font-weight: normal;">pescados frescos</strong>...<br/></div><br/><p style="text-align: justify;">Sorprende a tu paladar con las recetas únicas de nuestra <strong style="font-weight: normal;">carta</strong><span style="font-weight: bold;">,</span> auténticos placeres de la comida típica asturiana salpicados con un toque muy personal. Todos nuestros platos están elaborados con la intención de disfrutar del rico patrimonio gastronómico de la comunidad y, si lo desea, podrá llevárselos a su propio domicilio.</p><div style="text-align: justify;">En <strong style="font-weight: normal;">Restaurante La Iglesiona</strong> también le ofrecemos un <strong style="font-weight: normal;">variado menú del día</strong>, de tradición eminentemente casera. Seis primeros y seis segundos más postre, entre los que nunca faltan la fabada y el arroz con leche.<br/><br/><ul><li>Admite animales.<br/></li></ul><span style="font-weight: bold;">Descansa:</span> Domingo noche<br/></div>","Calle Begoña, 34. 33201. Gijón.","43.542001 -5.662908","Restaurantes y sidrerías, Guia gastronómica, 2011, Gijón de Pinchos, Turismo"
"http://www.gijon.es/directorios/show/8134-la-canada-real","8134","es","fecha-actualizacion2014-01-22 12:05:50 +0100","http://www.gijon.es/data/images/f0/f3/37171/90x56_v1_tosta.jpg","La Cañada Real","+ 34 984 195 764","info@lacanadarealgijon.es","http://www.lacanadarealgijon.es/","<div style="text-align: justify;">Una decoración marcada por tonos tierra y la cuidada iluminación, hacen de nuestro local un lugar íntimo y acogedor, que hará que te sientas como en casa. Puedes disfrutar de una de las diversas tapas, siempre escoltadas con una buena copa de vino, o pasar a nuestro comedor, y observar y sentir como nuestro equipo de cocina da forma a cada plato.<br/><br/></div><p style="text-align: justify;">La gran experiencia que nos avala, hace que sepamos combinar a la perfección la alta cocina más innovadora combinada con lo tradicional, sin olvidar nuestro interés por evolucionar, haciendo especial hincapié en la calidad de nuestras materias primas.</p><p style="text-align: justify;">Nuestra carta es capaz de satisfacer cualquier paladar. Déjate seducir por nuestros innovadores entrantes, tostas, tapas, pescados, carnes y un sinfín de posibilidades.</p><p style="text-align: justify;">Para los que les gusta refrescarse, disfruta de la mejor cerveza, extraída de originales barriles incluidos en el interiorismo. También puedes acomodarte en la amplia terraza. Sea cual sea tu gusto, te invitamos a que nos conozcas. No te arrepentirás.</p><ul><li>Admite animales en la zona de terraza.<br/></li></ul><p style="text-align: justify;"><br/></p>","Calle Aurelio del Llano, 19. 33208. Gijón.","43.53301 -5.662318","Restaurantes y sidrerías, Vinos y Tapas, Guia gastronómica, 2011, Gijón de Pinchos, Turismo"
"http://www.gijon.es/directorios/show/8120-gota-a-gota","8120","es","fecha-actualizacion2015-07-23 10:45:42 +0200","http://www.gijon.es/data/images/f0/f3/37164/800x600_v1_gota.jpg","Gota a Gota","+ 34 985 162 156","<p style="text-align: justify;">Gota a gota, hemos hecho un sueño realidad. Con el mejor ambiente, la más completa selección de vinos y la clientela más selecta.</p><div style="text-align: justify;"></div><p style="text-align: justify;">Desde primera hora de la mañana podrás disfrutar de los desayunos más completos, avanzando el día nos vamos transformando en uno de los locales más especializados en vinos de esta maravillosa ciudad, para poner el punto final a un día inolvidable con nuestra mejor coctelería.</p><p style="text-align: justify;">En temporada, nuestra terraza y la reconocida caracterización de nuestro local para las más originales fiestas temáticas dejarán un grato recuerdo.</p><p>Ven y compruébalo.</p><ul><li>Admite animales.<br/></li></ul>","Avenida del Llano, 21. 33209. Gijón.","43.53026 -5.661427","Bares y cafés, Vinos y Tapas, Guia gastronómica, Gijón de Pinchos, Gijón con Calidad, Restaurantes y sidrerías, Turismo"
"http://www.gijon.es/directorios/show/8113-geli-zarracina-vinacoteca","8113","es","fecha-actualizacion2014-01-22 12:05:49 +0100","http://www.gijon.es/data/images/f0/f3/37161/500x375_v1_geli.jpg","Geli Zarracina Vinacoteca","+ 34 985 170 187","vinacotecagelizarracina@gmail.com","http://gelizarracina.com/","La vinacoteca Geli Zarracina en Gijón, es un local pensado para atender a sus clientes tanto en horario de trabajo como de ocio.			<br/><br/><div style="text-align: justify;">			Hecho para disfrutar en un ambiente distendido e informal, disponen de una gran variedad de tapas y raciones, embutidos, conservas, y tostas.  Además de, como no, nuestra carta de vinos, de todo tipo, añada y precio, siempre el adecuado para cada momento.<br/><br/><ul><li>No admite animales.<br/></li></ul></div>","Calle Instituto, 22. 33201. Gijón.","43.542654 -5.662725","Restaurantes y sidrerías, Vinos y Tapas, Guia gastronómica, 2011, Gijón de Pinchos, Turismo"
"http://www.gijon.es/directorios/show/8051-del-blanco-al-tinto","8051","es","fecha-actualizacion2015-03-20 08:33:55 +0100","http://www.gijon.es/data/images/f0/f3/37136/703x420_v1_home.jpg","Del Blanco al Tinto","+ 34 984 839 638","dbt@delblancoaltinto.es","http://www.delblancoaltinto.es/","En  Del Blanco al Tinto podrás degustar la cocina de siempre con el cariño que se merece.  Te aconsejamos acompañarla de una buena variedad de vinos, elegidos uno a uno, donde la calidad es indiscutible.<br/><br/><ul><li>No permite la entrada de mascotas en el establecimiento.<br/></li></ul>","C/ San Agustín, 8, bajo","43.541448 -5.660054","Restaurantes y sidrerías, Vinos y Tapas, Guia gastronómica, Gijón de Pinchos, Turismo"
"http://www.gijon.es/directorios/show/8016-casa-valdorta","8016","es","fecha-actualizacion2014-01-22 12:05:45 +0100","http://www.gijon.es/data/images/f0/f3/37124/537x468_v1_valdorta.jpg","Casa Valdorta","+ 34 984 396 303","http://es-es.facebook.com/pages/Sidrer%C3%ADa-Casa-Valdorta/190617791006355","Moderna sidrería de Gijón que ofrece a todos sus clientes, buena sidra, buena comida y sobretodo una buena atención.<br/> <br/><ul><li>No permite la entrada de animales al establecimiento.<br/></li></ul>","Calle del Desfiladero de la Hermida, 8. 33212. Gijón.","43.537611 -5.682144","Restaurantes y sidrerías, Guia gastronómica, 2011, Gijón de Pinchos, Turismo"
"http://www.gijon.es/directorios/show/8011-casa-marcelo","8011","es","fecha-actualizacion2014-01-22 12:05:45 +0100","http://www.gijon.es/data/images/f0/f3/37122/480x723_v1_mercelo.jpeg","Casa Marcelo","+ 34 985 344 947","casamarcelo@gmail.com","http://es-es.facebook.com/pages/Restaurante-Casa-Marcelo-Gijon/105081476237164?sk=info","<div style="text-align: justify;">Acepta reservas aunque no son necesarias. <br/><br/>Está dirigido a niños y sus especialidades son los almuerzos y las cenas.<br/></div>","Calle Melquiades Álvarez, 5. 33201. Gijón.","43.544435 -5.663037","Restaurantes y sidrerías, Guia gastronómica, 2011, Gijón de Pinchos, Turismo"
"http://www.gijon.es/directorios/show/8004-casa-fernando","8004","es","fecha-actualizacion2014-01-22 12:05:45 +0100","http://www.gijon.es/data/images/f0/f3/37120/420x630_v1_casa-fernando-gijon.jpg","Casa Fernando","+ 34 984 490 286","<div style="text-align: justify;">Sidrería restaurante situada en el emblemático barrio de Cimadevilla. Comida y platos tradicionales.<br/></div>","Plaza del Marqués, 5. 33201. Gijón.","43.545236 -5.663127","Restaurantes y sidrerías, Guia gastronómica, 2011, Gijón de Pinchos, Turismo"
"http://www.gijon.es/directorios/show/7996-casa-cesar","7996","es","fecha-actualizacion2014-07-07 13:40:52 +0200","http://www.gijon.es/data/images/f0/f3/37119/320x240_v1_cesar.jpg","Casa César","+ 34 985 389 983","<div style="text-align: justify;">Casa César une dos paisajes tan próximoscomo familiares, el gallego y el asturiano. Podremos saborear caldos gallegos tonificantes de berza y unto, empanada de grosor y sabor antañón, pulpos en plenitud de textura y pimentón, oreyasmelosas de crujiente cartílago, cachelos de trozo grande e insuperable terneza, pimientos de Padrón o lacón cocido.<br/></div><br/><div style="text-align: justify;">Para beber, además de la identificativa sidra, hay ribeiros de etiqueta y ribeiros de jarra igualmente identificativos, y unos cuantos clásicos de rioja adecuadamente custodiados.<br/><br/><ul><li>No permite la entrada de mascotas en el establecimiento.<br/></li></ul></div><span style="font-weight: bold;">Descansa:</span> miércoles","Juan Alvargonzález, 24. 33208. Gijón","43.530011 -5.668894","Restaurantes y sidrerías, Guia gastronómica, 2011, Gijón de Pinchos, Turismo, Ruta de la Sidra, Ruta de la Sidra"
"http://www.gijon.es/directorios/show/7982-cafeteria-la-criolla","7982","es","fecha-actualizacion2015-07-23 10:41:31 +0200","http://www.gijon.es/data/images/f0/f3/37117/595x454_v1_criolla.jpg","Cafetería La Criolla","+ 34 985 360 075","http://www.cafeterialacriolla.com/","<span style="font-weight: bold;"></span>","Calle Uría, 6 bajo. 33202. Gijón.","43.538995 -5.656975","Bares y cafés, Guia gastronómica, Gijón de Pinchos, Gijón con Calidad, Restaurantes y sidrerías, Turismo"
"http://www.gijon.es/directorios/show/7975-cafeteria-banus","7975","es","fecha-actualizacion2016-04-01 13:40:48 +0200","http://www.gijon.es/data/images/f0/f3/37114/640x478_v1_banus.jpg","Cafetería Banús","+ 34 985 356 767","cafeteriabanus@wanadoo.es","Cafetería situada frente a la playa de Poniente con una amplia terraza en el paseo del muelle.<br/><br/><ul><li>No permite la entrada de animales al establecimiento.<br/></li></ul>","Calle Rodríguez Sampedro, 5. 33206. Gijón.","43.543089 -5.666427","Restaurantes y sidrerías, Bares y cafés, Guia gastronómica, 2011, Gijón de Pinchos, Turismo"
"http://www.gijon.es/directorios/show/7933-cafe-mayerling","7933","es","fecha-actualizacion2016-04-14 10:29:14 +0200","http://www.gijon.es/data/images/f0/f3/37093/298x298_v1_mayerling.jpg","Café Mayerling","+ 34 985 358 763","info@cafemayerling.es","http://www.cafemayerling.es/","<div style="text-align: justify;">Café Bar Restaurante musical. Ofrecen desayunos, menú del día y platos combinados.<br/></div><br/><ul><li>Admite la entrada de animales al establecimiento mientras vayan atados y no causen molestias.<br/></li></ul>","Calle Corrida 14. 33206. Gijón.","43.540994 -5.663906","Restaurantes y sidrerías, Bares y cafés, Guia gastronómica, 2011, Turismo"
"http://www.gijon.es/directorios/show/7912-cafe-central","7912","es","fecha-actualizacion2016-01-20 15:43:51 +0100","http://www.gijon.es/data/images/f0/f3/37074/115x71_v1_central.jpg","Café Central","+34 985 358 717 / +34 985 346 119","cafecentralgijon@gmail.com","Lunes a jueves: 08:00 - 00:00; Viernes y sábado: 08:00 - 02:30","<div style="text-align: justify;">Café clásico con situación privilegiada, en pleno eje comercial. Sobresale su exquisita decoración. Gran variedad en desayunos y menús.<br/><br/></div><ul><li>No permite la entrada de animales al establecimiento.</li></ul><p><span style="font-weight: bold;">Día de descanso:</span> Domingos<br/></p>","Calle Pelayo 6. 33205. Gijón.","43.53874 -5.662994","Restaurantes y sidrerías, Guia gastronómica, 2011, Gijón de Pinchos, Bares y cafés, Gijón con Calidad, Turismo"
"http://www.gijon.es/directorios/show/7897-al-boccalino","7897","es","fecha-actualizacion2016-01-18 12:31:42 +0100","http://www.gijon.es/data/images/f0/f3/37061/758x438_v1_boccalino2.jpg","Al Boccalino","+ 34 984 394 166","http://www.alboccalino.es/","<div style="text-align: justify;">En Gijón, en fomento cerca del puerto deportivo, a orillas del mar Cantábrico se encuentra el Restaurante Pizzería Al Boccalino, este nombre hace referencia a una taza de cerámica que se emplea en el sur de Suiza y el norte de Italia para beber vinos típicos de la zona, ya que permite mantener el caldo en las mejores condiciones de conservación, garantizadno así un sabor óptimo.<br/></div><br/><div style="text-align: justify;">La carta combina la cocina de temporada entre la que destacan las ensaladas de mozzarella fresca, las pastas de todas sus versiones, entrecotte y el carpaccio de solomillo. Además cuentan con una gran variedad de postres con sabor y colorido que harán de sus comidas una experiencia difícil de olvidar.<br/><br/><ul><li>Permite la entrada de animales en el establecimiento mientras no molesten y sean pequeños.<br/></li></ul></div>","Calle Rodriguez San Pedro 25. 33206. Gijón.","43.542292 -5.668197","Restaurantes y sidrerías, Guia gastronómica, 2011, Gijón de Pinchos, Gijón con Calidad, Turismo"
"http://www.gijon.es/directorios/show/7872-restaurante-casa-victor","7872","es","fecha-actualizacion2014-05-15 12:51:25 +0200","http://www.gijon.es/data/images/f0/f3/36821/269x198_v1_instalaciones_foto_grvictor.jpg","Restaurante Casa Víctor","+ 34 985 350 093","<div style="text-align: justify;">Hoy podríamos considerar a «Casa Víctor»  como un privilegio de la cocina marinera asturiana, los  mejores pescados y mariscos del cantábrico en su cocina ofreciendo a sus clientes productos del mar de primera calidad.<br/></div><br/><ul><li>No admite animales.<br/></li></ul><br/><h4><span style="font-weight: bold;"><a href="http://www.gijon.info/page/5115-gijon-gourmet" title="Ir a http://www.gijon.info/page/5115-gijon-gourmet" rel="external">Gijón Gourmet</a></span></h4><h4><b>Descuento del 10% con la tarjeta turística Gijón Card</b></h4>","Calle El Carmen, 11 bajo 33206. Gijón.","43.541573 -5.666041","Restaurantes y sidrerías, Guia gastronómica, Gijón Gourmet, Gijón card. Tarjeta turística, Gijón Card, Turismo"
"http://www.gijon.es/directorios/show/7865-cafeteria-snack-bar-bergantin","7865","es","fecha-actualizacion2017-06-26 14:28:53 +0200","http://www.gijon.es/data/images/f0/f8/81565/600x400_v1_Cafeteriatryp.jpg","Cafetería Snack-bar Bergantín","+ 34 985 199 800","tryp.rey.pelayo.@solmelia.com","http://es.solmelia.com/hoteles/espana/gijon/tryp-gijon-rey-pelayo-hotel/home.htm","<div style="text-align: justify;">Situado en la zona de El Bibio, en este acogedor restaurante podrá degustar de los platos preparados por el Chef Benjamín Caballero. Con capacidad para 45 personas, está decorado con motivos marineros, de entre los que destaca cuatro maquetas de barcos y los tonos azules de todo el local. Este acogedor restaurante evoca la mar.<br/></div><br/><ul><li>No admite animales.<br/></li></ul>","Avenida de Torcuato Fernández Miranda, 26. 33203. Gijón","43.535857 -5.642544","Restaurantes y sidrerías, Guia gastronómica, 2011, Gijón con Calidad, Bares y cafés, Turismo"
"http://www.gijon.es/directorios/show/7858-as-de-picas","7858","es","fecha-actualizacion2017-07-24 11:12:39 +0200","http://www.gijon.es/data/images/f0/f9/97167/190x110_v1_asdepicas.jpg","As de Picas","+ 34 985 343 434","hosteleria@casino-asturias.com","http://www.asdepicasrestaurante.com","<div style="text-align: justify;">Inaugurado el 22 de febrero de 2006, el Restaurante As de Picas se encuentra situado en el centro de Gijón y ubicado en las instalaciones del Casino de Asturias, con entrada independiente al mismo.<br/></div><br/><div style="text-align: justify;">Su exquisita decoración y su atmósfera tranquila lo convierten en el lugar ideal para celebraciones, comidas de trabajo o reuniones familiares.<br/></div> <br/><div style="text-align: justify;"><div style="text-align: justify;">La cocina del Restaurante se caracteriza por el esmero en la creación de nuevas recetas, siempre conservando el gusto por lo tradicional.<br/><br/>Contacto: Mariluz Mariño<br/></div><br/><h4><span style="font-weight: bold;">Descuento del 10% con la tarejta turística Gijón Card</span></h4></div>","Calle Fernandez Vallín (Esquina Padilla) 33205. Gijón","43.539636 -5.662543","Restaurantes y sidrerías, Gijón card. Tarjeta turística, Guia gastronómica, 2011, Gijón Card, Congresos, Gijón con Calidad, Bares y cafés, Casino, Club de Empresas de Turismo de Negocios, Turismo"
"http://www.gijon.es/directorios/show/7851-amalur","7851","es","fecha-actualizacion2014-01-22 12:05:39 +0100","http://www.gijon.es/data/images/f0/f3/36809/190x133_v1_AMALUR_icono.png","Amalur","+ 34 985 000 000","playagijon@abbahoteles.com","http://www.abbagijonhotel.com/","<div style="text-align: justify;">La gastronomía es un arte y en el restaurante Amalur <strong>apostamos por una gastronomía selecta</strong>, equilibrio perfecto en los menús y en la selección de vinos.<br/></div><br/><div style="text-align: justify;">En nuestro restaurante Amalur descubrirá una oferta gastronómica que es toda una tentación. Variedad en las denominaciones y estilos pero con una premisa básica: la calidad.<br/></div><br/><ul><li>No admite animales.<br/></li></ul><br/><h4><span style="font-weight: bold;">Descuento del 10% con la tarjeta turística Gijón Card</span></h4><h4> </h4>","Restaurante Amalur - Paseo del Doctor Fleming, 37. 33203. Gijón.","43.541169 -5.643392","Restaurantes y sidrerías, Gijón card. Tarjeta turística, Guia gastronómica, 2011, Gijón Card, Turismo"
"http://www.gijon.es/directorios/show/7844-a-feira-do-pulpo","7844","es","fecha-actualizacion2016-01-20 15:41:59 +0100","http://www.gijon.es/data/images/f0/f3/36805/180x171_v1_afeiradopulpo.jpg","A Feira do Pulpo","+34 985 293 657","http://www.afeiradopulpo.es","<p style="text-align: justify;">				A Feira do pulpo es un restaurante que, manteniendo el gusto por la cocina 				tradicional, se ha especializado desde el 2000, su año de apertura, 				en sabrosa cocina gallega. Desde el 2007 disfruta del reconocimiento que otorga la Certificación en 				<em>&quot;Turismo de Calidad de Gijón&quot;</em>.				</p>				Cuenta con local climatizado y 				<a href="http://www.afeiradopulpo.com/ubicacion.php" title="Ubicación">parking gratuito</a> para sus clientes.<br/><br/><h4><span style="font-weight: bold;">Descuento del 10% con la tarjeta turística Gijón Card</span></h4><h4> 				</h4>","Calle Doctor Aquilino Hurlé, 20 33203 Gijón","43.53818 -5.648354","Restaurantes y sidrerías, Aire acondicionado / climatizador, Parking gratuito, Gijón card. Tarjeta turística, Guia gastronómica, Gijón Card, Gijón con Calidad, Turismo"
"http://www.gijon.es/directorios/show/7837-bar-restaurante-entreplazas","7837","es","fecha-actualizacion2014-01-22 12:05:38 +0100","http://www.gijon.es/data/images/f0/f3/36789/180x180_v1_entreplazas.jpg","Bar restaurante Entreplazas","+ 34 985 17 25 37","restaurante@entreplazas.es","http://www.entreplazas.es/sp/indexsp.html","<div style="text-align: justify;">Entre la Plaza mayor y la Plaza del marqués el Bar Restaurante Entreplazas destaca por su cocina de temporada, en la que nunca faltan los pescados del Cantábrico, las buenas carnes de alta montaña y los platos tradicionales de nuestra tierra.<br/><br/>Mención especial merecen los arroces marineros, las parrilladas y las calderetas asturianas de marisco, así como los exquisitos postres caseros.<br/><br/>El restaurante Entreplazas dispone de doce mesas en el comedor principal, con vistas a la Playa de San Lorenzo y al Ayuntamiento; además de un comedor privado con capacidad para diez personas y vistas al Puerto deportivo de Gijón.<br/><br/><ul><li>Admite animales en la zona de bar.<br/></li></ul></div>","Plaza Mayor, 6 / Plaza del Marqués, 7. 33201. Gijón","43.545096 -5.662994","Restaurantes y sidrerías, Guia gastronómica, 2011, Turismo"
"http://www.gijon.es/directorios/show/7830-complejo-bellavista","7830","es","fecha-actualizacion2017-07-24 11:43:01 +0200","http://www.gijon.es/data/images/f0/f9/97177/190x110_v1_Bellavistarestaurante.png","Complejo Bellavista","+ 34 985 36 29 36","eventos@bellavista-gijon.com","http://www.bellavista-gijon.com/","En la mejor ubicación de Gijón, frente a la playa de San Lorenzo, podrá disfrutar de una carta en nuestro Restaurante-Brasería donde le ofrecemos los mejores productos de nuestra tierra presentados de la forma más natural.<br/><br/>Terrazas y salón-llagar para espichas.<br/><br/><h3>Especialidades</h3><ul><li>Arroces.</li><li>Pescados del día.</li><li>Carnes a la brasa.</li></ul><p>Contacto: Arturo Seijo<br/></p><br/><br/><h4><span style="font-weight: bold;">Descuento del 10% con la tarjeta turística Gijón Card</span></h4><h4><span style="font-weight: bold;"><a href="http://www.gijon.info/page/5115-gijon-gourmet" title="Ir a http://www.gijon.info/private/178-web/page/5115-gijon-gourmet" rel="external">Gijón Gourmet</a></span></h4><p><br/></p>","Avenida José García Bernardo, 256. 33203 Gijón","43.541499 -5.644368","Restaurantes y sidrerías, Guia gastronómica, Banquetes, Gijón Card, Gijón card. Tarjeta turística, Gijón con Calidad, Club de Empresas de Turismo de Negocios, Turismo"
"http://www.gijon.es/directorios/show/7300-restaurante-la-marmita","7300","es","fecha-actualizacion2014-01-22 12:05:19 +0100","http://www.gijon.es/data/images/f0/f3/36230/640x480_v1_marmita.jpeg","Restaurante La Marmita","985 354 941","info@lamarmitagijon.es","http://www.lamarmitagijon.es/","<div style="text-align: justify;"><p>La Marmita, ofrece a sus clientes una variada muestra de platos tradicionales de la gastronomía asturiana, en un marco con sabor antiguo, pero sumamente funcional y totalmente adaptado a las necesidades de la hostelería moderna.</p>Al llegar a La Marmita, el visitante se encuentra con un vetusto edificio, construido en piedra. La planta baja está ambientada en forma de pequeño bar, siempre concurrido. No en vano, el local está ubicado en el corazón de la denominada “Ruta de los Vinos” de Gijón.<br/><br/>  <p> En la Marmita es posible entretener el paladar con las múltiples “tapas” y raciones que ofrece el establecimiento, animadas por alguno de los vinos de la extensa carta, donde no faltan excelentes Riojas, Riberas del Duero y Albariños.</p></div>","Calle Begoña 20, esquina con Calle Enrique III","43.54258 -5.663015","Restaurantes y sidrerías, Guia gastronómica, 2011, Jornadas, Turismo-Callos, Turismo, Gijón de Pinchos"
"http://www.gijon.es/directorios/show/7299-restaurante-sidreria-dakar","7299","es","fecha-actualizacion2014-01-22 12:05:19 +0100","http://www.gijon.es/data/images/f0/f3/36228/240x180_v1_dakar.jpg","Restaurante Sidrería Dakar","+ 34 985 357 670","<div style="text-align: justify;">Especialidades: pescados del Cantábrico a la espalda o amariscados. Chuletón de carne roja Bacalao Dakar. Cazuela de chipirones con gula y gambas. Tabla especial Dakar. Menú diario.<br/><br/><ul><li>No admite animales.<br/></li></ul></div>","Calle Juan Alonso 11. 33202. Gijón","43.540739 -5.655998","Restaurantes y sidrerías, Guia gastronómica, 2011, Turismo-Callos, Jornadas, Turismo"
"http://www.gijon.es/directorios/show/7292-restaurante-la-bolera","7292","es","fecha-actualizacion2014-01-22 12:05:18 +0100","http://www.gijon.es/data/images/f0/f3/36166/200x150_v1_bolera.jpg","Restaurante La Bolera","+ 34 984 193 422","http://www.asadorlabolera.com/","<div style="text-align: justify;">El<span style="font-weight: bold;"> r</span><strong style="font-weight: bold;">estaurante asador La Bolera</strong> está especializado en carnes. Éstas son seleccionadas personalmente por el responsable del restaurante, para ofrecer siempre la máxima calidad. Además se certifica la <strong>trazabilidad</strong> de cada pieza. <br/><br/>Dispone de 2 comedores con ambientes diferenciados. En el más próximo a la entrada se puede comer <strong>a la carta</strong> o bien elegir el <strong>menú del día</strong>. En la parte trasera se encuentra el otro comedor más coqueto, donde se ubica el <strong>asador de carnes</strong> y una <strong>terraza</strong>, que se habilita cuando llega el buen tiempo<strong></strong>. <br/><br/>En la carta, además de sus <strong>carnes asadas</strong> siempre al punto deseado por el cliente, ofrecen una variedad de <strong>pescados del cantábrico</strong> por encargo, en diversas preparaciones, y una selección de <strong>postres caseros</strong>. <br/><br/>Su <strong>bodega</strong> cuenta con una gran selección de <strong>vinos</strong> de diferentes denominaciones de origen, buena <strong>sidra</strong> asturiana D. O., y como curiosa especialidad, preparan unas deliciosas y auténticas <strong>caipiriñas</strong> brasileñas.<br/><br/><ul><li>No admite animales.<br/></li></ul></div>","Avenida del Jardín Botánico, 355. 33203. Gijón.","43.531618 -5.632298","Restaurantes y sidrerías, Guia gastronómica, 2011, Jornadas, Turismo-Callos, Turismo"
"http://www.gijon.es/directorios/show/7285-restaurante-la-bodega-de-miguel","7285","es","fecha-actualizacion2016-01-18 10:13:13 +0100","http://www.gijon.es/data/images/f0/f3/36162/298x298_v1_bodegamiguel.jpg","Restaurante La Bodega de Miguel","+ 34 985 333 757","contacta@labodegademiguel.com","http://www.labodegademiguel.com/","<div style="text-align: justify;"><strong style="font-weight: normal;">La Bodega de Miguel</strong> es una empresa de hostelería situada en el centro de Gijón y que cuenta con más de veinte años de experiencia en el sector. <strong style="font-weight: normal;">D</strong>estaca por ofrecer un trato familiar que combina con una cocina casera de calidad.<br/></div><br/><div style="text-align: justify;">Su inicio, en 1987, fue como local de vinos y tapas. El matrimonio compuesto por Miguel Ángel García y Clara Suárez se encargó de su dirección. Ellos se encargaron de anexionar el actual comedor hace 15 años y ampliar así su capacidad. De esta forma, <strong style="font-weight: normal;">La Bodega de Miguel </strong>comenzó a destacar por sus menús diarios, sus embutidos, su amplia gama de ensaladas y sus sabrosas carnes y frescos pescados.<br/></div><br/><ul><li>No admite animales.<br/></li></ul>","Calle Dindurra 39, 332020. Gijón","43.538369 -5.656192","Restaurantes y sidrerías, Guia gastronómica, 2011, Jornadas, Turismo-Callos, Turismo"
"http://www.gijon.es/directorios/show/7013-restaurante-parrilla-marisqueria-torremar","7013","es","fecha-actualizacion2014-01-22 12:05:08 +0100","http://www.gijon.es/data/images/f0/f3/35846/600x450_v1_torremar.jpg","Restaurante Parrilla Marisquería Torremar","+ 34 985 330 173","info@restaurantetorremar.com","http://www.restaurantetorremar.com/","<div style="text-align: justify;">El <strong>RESTAURANTE TORREMAR</strong> está situado en el <strong>barrio de La Arena (Gijón)</strong>, muy cerca de la playa. Desde 1985, se ha convertido en un referente del buen comer; en el lugar ideal para degustar los buenos mariscos del Cantábrico, las carnes a la parrilla o los típicos platos asturianos.<br/><br/>Para el día a día o para ocasiones especiales, en <strong>TORREMAR</strong> te espera una cuidada carta de platos elaborada con <strong>productos frescos y de la tierra</strong> a partir de las recetas más tradicionales. Porque los sabores de siempre no pasan de moda.<br/><br/><span style="font-weight: bold;">Descansa</span><br/>Martes (excepto vísperas y festivos)<br/><br/><ul><li>No permite la entrada de animales en el establecimiento.<br/></li></ul><br/></div>","Restaurante Torremar - Calle Ezcurdia 120  33202 Gijón","43.538178 -5.650226","Restaurantes y sidrerías, Guia gastronómica, 2011, Turismo"
"http://www.gijon.es/directorios/show/7004-sidreria-canteli","7004","es","fecha-actualizacion2014-01-22 12:05:08 +0100","http://www.gijon.es/data/images/f0/f3/37335/500x333_v1_canteli.jpg","Sidrería Canteli","+ 34 984 19 09 66","http://es-es.facebook.com/canteli.sidreriagijon","<ul><li>Admite mascotas siempre y cuando estén atadas.<br/></li></ul>","Almacenes, 4. 33206. Gijón","43.541985 -5.666722","Restaurantes y sidrerías, Guia gastronómica, Turismo"
"http://www.gijon.es/directorios/show/6999-sidreria-casa-andres","6999","es","fecha-actualizacion2014-01-22 12:05:08 +0100","http://www.gijon.es/data/images/f0/f3/35333/640x512_v1_casaandres.JPG","Sidrería Casa Andrés","+ 34 985 32 57 51","http://es-es.facebook.com/pages/Sidrer%C3%ADa-Casa-Andr%C3%A9s/257314760967999","<ul><li>No admite la entrada con mascotas.<br/></li></ul>","Avda. La Argentina, 99. 33213 Gijón","43.538023 -5.705136","Guia gastronómica, Restaurantes y sidrerías, Turismo"
"http://www.gijon.es/directorios/show/6991-sidreria-el-paneru","6991","es","fecha-actualizacion2014-01-22 12:05:08 +0100","http://www.gijon.es/data/images/f0/f3/35324/640x512_v1_paneru.JPG","Sidrería El Paneru","+ 34 985 320 505","www.sidreriaelpaneru.com","Abierto de Martes a Domingo desde 10:00 A.M<br/><br/><ul><li>Lunes cerrado por descanso</li></ul><ul><li>No admite la entrada de animales al establecimiento.<br/></li></ul>","Alejandro Farnesio, 3. 33213. Gijón","43.538583 -5.705158","Restaurantes y sidrerías, Guia gastronómica, Turismo"
"http://www.gijon.es/directorios/show/6987-sidreria-la-cuenca","6987","es","fecha-actualizacion2014-01-22 12:05:08 +0100","http://www.gijon.es/data/images/f0/f3/35323/640x512_v1_cuenca.JPG","Sidrería La Cuenca","985 310 311","Descanso Martes<br/><br/><ul><li>No permite la entrada de animales en el establecimiento.<br/></li></ul>","Felipe II, 8, bajo 33213 Gijón","43.538901 -5.70328","Restaurantes y sidrerías, Guia gastronómica, Turismo"
"http://www.gijon.es/directorios/show/6983-restaurante-himalaya","6983","es","fecha-actualizacion2014-01-22 12:05:07 +0100","http://www.gijon.es/data/images/f0/f3/35322/716x489_v1_himalaya.jpg","Restaurante Himalaya","+ 34 984 19 00 90","http://restaurante-himalaya.jimdo.com/","<div style="text-align: justify;">Con los mejores mariscos asturianos y los productos de nuestras hermosas huertas del famoso Paraíso Natural de Asturias, en Restaurante Sidrería Himalaya elaboramos por ejemplo esta espectacular paella, un plato puramente levantino, pero con el carácter y el sabor de Asturias.<br/><br/>En el Restaurante Himalaya ofrecemos una carta clásica de las sidrerías asturianas de siempre, pero con el toque único de cocina autóctona de la mano de nuestra cocinera &quot;Nati&quot;, profesional muy conocida en la zona oeste de gijón por su saber hacer ante los fogones. Un manejo de los tiempos de cocción y temperatura que únicamente se han podido transmitir por la herencia de las guisanderas asturianas del siglo XX, de las cuales &quot;Nati&quot; ha logrado captar lo mejor de su sabiduría popular.<br/><br/></div><span style="font-weight: bold;">Abierto:</span><br/><ul><li>De lunes a Sábado desde las 8:00 A.M</li><li>Domingos cerrado por descanso, excepto partidos fuera de casa del Molinón</li></ul><ul><li>Admite animales sólo en la zona de la terraza.<br/></li></ul>","Espinosa, 2. 33213. Gijón","43.538093 -5.70791","Restaurantes y sidrerías, Guia gastronómica, Turismo"
"http://www.gijon.es/directorios/show/6979-meson-sidreria-pascual","6979","es","fecha-actualizacion2014-01-22 12:05:07 +0100","http://www.gijon.es/data/images/f0/f3/35332/640x512_v1_pascual.JPG","Mesón Sidrería Pascual","+ 34 985 323 442","De 10:00 a cierre","Especialidad en:<br/><ul><li>Pulpo a la gallega</li><li>Lacón con cachelos</li></ul><span style="font-weight: bold;">Menú Diario y Nocturno <br/>Menú Especial los Domingos<br/><br/></span><ul><li><span style="font-weight: bold;"><span style="font-weight: bold;">Abierto de 10:00 A.M a cierre</span></span></li></ul><ul><li><span style="font-weight: bold;"><span style="font-weight: bold;">Fines de semana de 11:00 A.M a cierre</span></span></li></ul><ul><li><span style="font-weight: bold;">Admite animales atados.</span><br/></li></ul>","Nuñez de Balboa 18, BAJO 33213 Gijón","43.539169 -5.702913","Restaurantes y sidrerías, Guia gastronómica, Turismo"
"http://www.gijon.es/directorios/show/6968-sidreria-la-nueva-caleya","6968","es","fecha-actualizacion2014-06-23 13:49:45 +0200","http://www.gijon.es/data/images/f0/f3/37222/437x482_v1_logonueva2.jpg","Sidrería La Nueva Caleya","+ 34 984 49 12 56","reserva@sidrerialacaleya.com","http://www.sidrerialacaleya.com","<ul><li>No admite la entrada de animales al establecimiento.<br/></li></ul>","Calle Pola de Siero, 3.  33207. Gijón","43.53964 -5.669667","Restaurantes y sidrerías, Guia gastronómica, 2011, Gijón de Pinchos, Turismo"
"http://www.gijon.es/directorios/show/6964-restaurante-sidreria-uria","6964","es","fecha-actualizacion2014-01-22 12:05:07 +0100","http://www.gijon.es/data/images/f0/f3/37536/200x150_v1_uria.jpg","Restaurante-Sidrería Uría","+ 34 985 383 334","<ul><li>No admite animales.<br/></li></ul>","Sidrería Uria "La Casa Redonda" - Alfonso Camín, 32. - Poeta Alfonso Camín, 32 - 33209 Gijón","43.528067 -5.661341","Restaurantes y sidrerías, Guia gastronómica, Turismo"
"http://www.gijon.es/directorios/show/6956-parrilla-sidreria-antonio","6956","es","fecha-actualizacion2014-07-07 14:43:25 +0200","http://www.gijon.es/data/images/f0/f3/37194/300x311_v1_parrilla.gif","Parrilla Sidrería Antonio","+ 34 985 154 973","descanso lunes","<ul><li>No admite animales.<br/></li></ul>","Calle Roncal, 1. 33208. Gijón","43.529892 -5.66865","Restaurantes y sidrerías, Guia gastronómica, 2011, Gijón de Pinchos, Turismo, Ruta de la Sidra, Ruta de la Sidra"
"http://www.gijon.es/directorios/show/6944-sidreria-el-pozu-la-arena","6944","es","fecha-actualizacion2014-01-22 12:05:06 +0100","http://www.gijon.es/data/images/f0/f3/37511/235x160_v1_Elpozu.JPG","Sidrería El Pozu La Arena","984 39 69 76","El Pozu L'Arena - Doctor Aquilino Hurlé,30 gijón","43.539244 -5.647211","Restaurantes y sidrerías, Guia gastronómica, Turismo"
"http://www.gijon.es/directorios/show/6936-sidreria-bobes","6936","es","fecha-actualizacion2014-06-23 13:39:31 +0200","http://www.gijon.es/data/images/f0/f3/37218/180x127_v1_bobes.jpg","Sidrería Bobes","985 37 20 09","Reconquista,9, Gijón","43.534892 -5.655355","Restaurantes y sidrerías, Guia gastronómica, 2011, Gijón de Pinchos, Turismo"
"http://www.gijon.es/directorios/show/6932-sidreria-balmes","6932","es","fecha-actualizacion2014-01-22 12:05:06 +0100","http://www.gijon.es/data/images/f0/f3/37212/150x100_v1_balmes.jpg","Sidrería Balmes","+ 34 985 37 30 47 /   661 92 70 92","marcos@sidreriabalmes.com","http://www.sidreriabalmes.com","<div style="text-align: justify;">La<strong> Sidrería Balmes</strong>, ubicada en el barrio gijonés de<strong>El Coto</strong>, viene siendo regentada desde hace 6 años por<strong>Marcos</strong>, joven pero con una dilatada experiencia en el mundo de la hostelería. Desde sus inicios, allá por el año 1992, tenía la idea de dedicarse por completo a este mundo. <br/></div><br/><div style="text-align: justify;">Después de pasar por diferentes sidrerías conociendo los entresijos de las mismas, vio la oportunidad de regentar este local y no lo dudó un momento. Aún veinteañero, inició su andadura en esta empresa con la idea de disfrutar de una sidrería cercana, amena, de calidad y un poco fuera de los cánones establecidos.<br/><br/><ul><li>No admite mascotas.<br/></li></ul></div>","Balmes,5 - Balmes, 5 Bajo. 33204. Gijón","43.534834 -5.652029","Restaurantes y sidrerías, Guia gastronómica, 2011, Gijón de Pinchos, Turismo"
"http://www.gijon.es/directorios/show/6885-llagar-la-morena","6885","es","fecha-actualizacion2014-01-22 12:05:05 +0100","http://www.gijon.es/data/images/f0/f3/38416/195x190_v1_llagarlamorena.jpeg","Llagar La Morena","+ 34 985 26 39 44","<ul><li>No admite animales.<br/></li></ul>","Calle del Alto Viella,  SIERO","43.397179 -5.781676","Restaurantes y sidrerías, Guia gastronómica, Turismo"
"http://www.gijon.es/directorios/show/6880-restaurante-sidreria-el-lavaderu","6880","es","fecha-actualizacion2016-01-20 16:20:49 +0100","http://www.gijon.es/data/images/f0/f3/37478/276x183_v1_ellaavaderu.jpeg","Restaurante Sidrería El Lavaderu","+ 34 984 84 04 49","Periodista Arturo Arias, 1. 33201. Gijón","43.546391 -5.663134","Restaurantes y sidrerías, Guia gastronómica, 2011, Gastronómico, Turismo"
"http://www.gijon.es/directorios/show/6858-sidreria-el-traviesu","6858","es","fecha-actualizacion2014-01-22 12:05:04 +0100","http://www.gijon.es/data/images/f0/f3/37516/300x179_v1_eltraviesu.jpg","Sidrería El Traviesu","+ 34 985 394 295","<ul><li>No admite animales.<br/></li></ul>","Sahara. 18. 33208. Gijón","43.530925 -5.663932","Restaurantes y sidrerías, Guia gastronómica, Turismo"
"http://www.gijon.es/directorios/show/6851-sidreria-candasu","6851","es","fecha-actualizacion2014-01-22 12:05:03 +0100","http://www.gijon.es/data/images/f0/f3/37507/980x735_v1_candasu.jpg","Sidrería Candasu","+ 34 984 393 037","http://www.sidreriacandasu.es/","<div style="text-align: justify;">Candasu Sidrería Restaurante &amp; Llagar abre sus puertas un 26 de Diciembre de 2006 apostando con su completa propuesta a un sector de la ciudad en pleno crecimiento como es el barrio de Nuevo Gijón.<br/><br/>Pero nuestra popularidad no es casual. La excelente predisposición del personal, la completa carta, la calidad de los productos, la sorprendente variedad de pinchos y todo lo que Candasu tiene para ofrecerte, es el resultado de más de 20 años de trayectoria y experiencia de Cecilio e Isabel en el sector hostelero.<br/><br/>Si ya nos conoces, agradecemos una vez más tu preferencia.<br/><br/>Si tovadía no has estado en Candasu, te queda un sitio maravilloso por descubrir.<br/><br/><ul><li>No permite la entrada de mascotas en el establecimiento.<br/></li></ul><br/></div>","Sierra del Sueve, 14. 33211 Gijón","43.529552 -5.682059","Restaurantes y sidrerías, Guia gastronómica, 2011, Turismo"
"http://www.gijon.es/directorios/show/6816-sidreria-el-mandilon","6816","es","fecha-actualizacion2014-01-22 12:05:03 +0100","http://www.gijon.es/data/images/f0/f3/35321/640x512_v1_elmandilon.JPG","Sidrería El Mandilón","+ 34 984 190 231","<ul><li>No admite la entrada de animales al establecimiento.<br/></li></ul>","El Mandilón - Avda. La Argentina, 101. 33213 Gijón","43.538044 -5.705434","Restaurantes y sidrerías, Guia gastronómica, 2011, Turismo"
"http://www.gijon.es/directorios/show/6802-sidreria-pasaje","6802","es","fecha-actualizacion2014-01-22 12:05:02 +0100","http://www.gijon.es/data/images/f0/f3/38420/295x177_v1_sidreriapasaje.jpg","Sidrería Pasaje","+ 34 985 39 46 93","<ul><li>No admite animales.<br/></li></ul>","Eleuterio Quintanilla, 68 33208 Gijón","43.530871 -5.663315","Restaurantes y sidrerías, Guia gastronómica, 2011, Jornadas, Costera, Turismo"
"http://www.gijon.es/directorios/show/6716-meson-iberico","6716","es","fecha-actualizacion2014-01-22 12:05:01 +0100","http://www.gijon.es/data/images/f0/f3/38585/282x178_v1_mesoniberico.jpeg","Mesón Ibérico","+ 34 985 331 192","+ 34 985 112 498","Marqués de Urquijo, 24-33203","43.539879 -5.645919","Restaurantes y sidrerías, Guia gastronómica, 2011, Turismo-Sidra dop brut, Turismo"
"http://www.gijon.es/directorios/show/6687-sidreria-la-roza","6687","es","fecha-actualizacion2014-01-22 12:04:59 +0100","http://www.gijon.es/data/images/f0/f3/38587/274x184_v1_sidrerialaroza.jpeg","Sidrería La Roza","+ 34 984 299 478","<ul><li>Permite la entrada de animales en el establecimiento siempre que sea pequeño y no cause molestias.<br/></li></ul>","Avda. Hermanos Felgueroso, 68. 33209","43.532415 -5.656245","Restaurantes y sidrerías, Guia gastronómica, 2011, Turismo-Sidra dop nueva expresion, Turismo"
"http://www.gijon.es/directorios/show/6673-sidreria-el-centenario","6673","es","fecha-actualizacion2014-01-22 12:04:59 +0100","http://www.gijon.es/data/images/f0/f3/37509/320x240_v1_elcentenario.jpeg","Sidrería El Centenario","+ 34 985 343 561","http://www.sidreriaelcentenario.com/","<div style="text-align: justify;">Si tras una jornada de visita por el barrio de Cimadevilla, las Termas del Campo Valdés, la Campa Torres, la Casa Natal de Jovellanos o el Cerro de Santa Catalina donde se encuentra la escultura, emblema de Gijón 'el elogio del horizonte', todo cercano a la Plaza Mayor, necesita un descanso.<br/><br/>Venga a visitarnos, será atendido como se merece, además se encontrará usted en uno de los lugares con más historia de Gijón.<br/><br/><ul><li>Admite animales en la zona de terraza.<br/></li></ul></div>","Plaza Mayor, 7. 33201. Gijón.","43.545176 -5.663173","Restaurantes y sidrerías, Guia gastronómica, 2011, Turismo-Sidra dop nueva expresion, Turismo"
"http://www.gijon.es/directorios/show/6639-sidreria-restaurante-la-habana","6639","es","fecha-actualizacion2014-09-01 15:42:44 +0200","http://www.gijon.es/data/images/f0/f3/37522/800x600_v1_lahabana.jpg","Sidrería Restaurante La Habana","985 317 216","<p><strong>Menú de la Ruta de la Sidra Gijón 25€</strong></p><p>Descanso: Martes</p><ul><li>No permite la entrada de mascotas en el establecimiento.<br/></li></ul>","Plaza de la Habana, 11","43.536149 -5.683783","Restaurantes y sidrerías, Guia gastronómica, Ruta de la Sidra, 2011, Turismo-Menú sidrería, Turismo"
"http://www.gijon.es/directorios/show/6575-sidreria-cabranes","6575","es","fecha-actualizacion2017-06-27 17:06:50 +0200","http://www.gijon.es/data/images/f0/f3/37506/600x450_v1_cabranes.jpeg","Sidrería Cabranes","985 13 14 87","sidreriacabranes@gmail.com","http://www.sidreriacabranes.com/","<span style="font-weight: bold;">Menú Ruta de la Sidra Gijón 25€</span><br/><br/>Descanso: Martes","C/ Francisco de Paula Jovellanos, 16, 33205","43.537278 -5.659517","Guia gastronómica, 2011, Ruta de la Sidra, Turismo-Menú sidrería, Restaurantes y sidrerías, Ruta de la Sidra, Turismo"
"http://www.gijon.es/directorios/show/6562-restaurante-sidreria-tierra-astur","6562","es","fecha-actualizacion2014-09-01 13:18:20 +0200","http://www.gijon.es/data/images/f0/f3/37481/500x375_v1_TerraAstur.jpg","Restaurante Sidrería Tierra Astur","985 32 74 48","tierrasturponiente@crivencar.com","http://","<ul><li>No permite la entrada de mascotas en el establecimiento.<br/></li></ul>","C/ Mariano Pola, 10-12-14 33212","43.541309 -5.674967","Restaurantes y sidrerías, Guia gastronómica, Ruta de la Sidra, 2011, Turismo-Sidra dop brut, Turismo-Menú sidrería, Ruta de la Sidra, Turismo, Gijón con Calidad"
"http://www.gijon.es/directorios/show/6547-restaurante-sidreria-el-sauco","6547","es","fecha-actualizacion2016-01-18 10:15:56 +0100","http://www.gijon.es/data/images/f0/f8/81552/450x338_v1_6.jpg","Restaurante Sidrería El Saúco","985 39 83 30","info@elsauco.com","http://www.elsauco.com/","<p style="text-align: justify;">			Sin perder de vista la <strong style="font-weight: normal;">tradición </strong>de la buena mesa, <strong style="font-weight: normal;">El Saúco</strong> se ha convertido en un punto de referencia en la gastronomía contemporánea en Asturias. 			</p><div style="text-align: justify;">			</div><p style="text-align: justify;">			El buen hacer de sus cocinas y el esfuerzo de sus propietarios, convierten a El Saúco en un establecimiento de <strong style="font-weight: normal;">calidad</strong>. Su mejor referencia es la asiduidad de sus clientes, que día a día, celebración a celebración, abarrotan sus mesas en busca de los secretos de la gastronomía y los buenos <strong style="font-weight: normal;">sabores</strong>. 			</p><h3> </h3><h3>Descansa</h3><p>Miércoles</p><ul><li>No admite mascotas.<br/></li></ul>","C/ Valencia, 20. 33210. Gijón.","43.527503 -5.668165","Restaurantes y sidrerías, Guia gastronómica, Ruta de la Sidra, 2011, Turismo-Menú sidrería, Gijón de Pinchos, Ruta de la Sidra, Gijón con Calidad, Turismo"
"http://www.gijon.es/directorios/show/6508-restaurante-sidreria-el-llavianu","6508","es","fecha-actualizacion2014-09-01 13:17:07 +0200","http://www.gijon.es/data/images/f0/f3/37210/190x133_v1_EL-LLAVIANU_icono.png","Restaurante Sidrería El Llavianu","984 49 21 13","http://www.sidreriaelllavianu.com","<p sizcache="9820" sizset="0"><span style="FONT-WEIGHT: bold">Menú de la Ruta de la Sidra Gijón 25€</span></p><h3>Descansa</h3><p>Miércoles (excepto Agosto).</p><ul><li>Admite mascotas en zona exterior.<br/></li></ul>","Donoso Cortés, 6. 33204. Gijón.","43.533486 -5.646509","Restaurantes y sidrerías, Guia gastronómica, Jornadas, Mar, 2011, Ruta de la Sidra, Turismo-Menú sidrería, Gijón de Pinchos, Ruta de la Sidra, Turismo, Gijón con Calidad"
"http://www.gijon.es/directorios/show/6431-la-terraza-de-viesques","6431","es","fecha-actualizacion2014-09-01 15:00:42 +0200","http://www.gijon.es/data/images/f0/f3/37186/600x400_v1_viesques.jpg","La Terraza de Viesques","+ 34 985 33 98 75","http://www.laterrazadeviesques.com","<ul><li>Admite animales en la zona terraza.<br/></li></ul>","Compositor Facundo de la Viña, 16. 33204. Gijón.","43.529008 -5.645978","Restaurantes y sidrerías, Guia gastronómica, Jornadas, 2011, Turismo-Menestra, Gijón de Pinchos, Turismo, Gijón con Calidad"
"http://www.gijon.es/directorios/show/6417-restaurante-el-paseo","6417","es","fecha-actualizacion2014-01-22 12:04:53 +0100","http://www.gijon.es/data/images/f0/f3/37207/540x406_v1_paseo.jpg","Restaurante El Paseo","+ 34 985 35 99 66","pghpaulino@hotmail.com","http://www.restauranteelpaseo.com/","<div style="text-align: justify;">Ofrecen una amplia carta de temporada, dando la máxima importancia a las materias primas y a su elaboración.<br/><br/>Podrá degustar la rotundidad de los sabores astures representativos de la Cocina Regional compartiendo protagonismo con platos de propia elaboración, basados en productos de nuestra tierra. <br/><br/>Originales ensaladas, verduras y setas de Temporada, gran variedad de pescados de nuestras costas, carnes, postres caseros.<br/><br/>Ponen a su disposición una extensa selección de vinos de las denominaciones de origen más representativas de nuestro país...<strong></strong></div>","Paseo de Begoña, 8. 33201. Gijón.","43.538217 -5.661706","Restaurantes y sidrerías, Guia gastronómica, Jornadas, 2011, Turismo-Menestra, Gijón de Pinchos, Turismo"
"http://www.gijon.es/directorios/show/6410-restaurante-sidreria-parrilla-muno-feijoo","6410","es","fecha-actualizacion2015-07-22 13:39:14 +0200","http://www.gijon.es/data/images/f0/f3/37533/600x436_v1_muno.jpg","Restaurante Sidrería Parrilla Muñó - Feijoo","985 33 60 80","parrillamuno@hotmail.es","http://www.parrillamuno.es","Menú Ruta de la Sidra Gijón 25€<br/><br/>Descanso: Martes<br/><br/><ul><li>No permite la entrada de animales en el establecimiento.<br/></li></ul>","Feijoo, 33-33204","43.532326 -5.653553","Restaurantes y sidrerías, Guia gastronómica, Jornadas, Turismo-Menestra, Ruta de la Sidra, Turismo-Menú sidrería, Ruta de la Sidra, Gijón con Calidad, Turismo"
"http://www.gijon.es/directorios/show/6403-sidreria-el-llabiegu","6403","es","fecha-actualizacion2014-07-07 13:57:16 +0200","http://www.gijon.es/data/images/f0/f3/37219/123x112_v1_llabiegu.jpg","Sidrería El Llabiegu","+ 34 984 39 69 78","descansa el martes.","<div style="text-align: justify;">El Llabiegu es un restaurante sidrería situada en el barrio de la sidra de Gijon, en el Principado de Asturias. Entra a degustar nuestros platos típicos Asturianos.<br/><br/><ul><li>No admite la entrada con animales.<br/></li></ul></div>","Calle Ribagorza, 14. 33208. Gijón.","43.52907 -5.668272","Restaurantes y sidrerías, Guia gastronómica, Jornadas, 2011, Turismo-Menestra, Gijón de Pinchos, Ruta de la Sidra, Ruta de la Sidra, Turismo"
"http://www.gijon.es/directorios/show/6396-restaurante-faro-del-piles","6396","es","fecha-actualizacion2014-06-23 13:15:26 +0200","http://www.gijon.es/data/images/f0/f3/37471/480x360_v1_farodelpiles.jpg","Restaurante Faro del Piles","985 36 04 29","Avda. José García Bernardo, 352","43.542094 -5.644497","Restaurantes y sidrerías, Guia gastronómica, Jornadas, 2011, Turismo-Menestra, Turismo"
"http://www.gijon.es/directorios/show/6370-la-cuadra-de-anton","6370","es","fecha-actualizacion2017-02-07 13:56:08 +0100","http://www.gijon.es/data/images/f0/f3/35799/315x160_v1_lacuadradeanton.jpg","La Cuadra de Antón","+34 985 34 03 10","info@lacuadradeanton.es","http://www.lacuadradeanton.es/","<span style="font-weight: bold;"><br/></span><p>Restaurante de comida casera tradicional asentado en pleno corazón de Gijón.<br/> Desde que abrieron al público en 2004, han perseguido ofrecer al cliente un ambiente familiar, avalado por muchos años de experiencia en el sector de la hostelería y restauración.</p><p>Dog Friendly: Admite mascotas en la parte delantera del restaurante(zona sidrería) y en el comedor con su transportín.</p><h4><span style="font-weight: bold;"></span><span style="font-weight: bold;">Descuento del 10% con la tarjeta turística Gijón Card</span></h4><h4><span style="FONT-WEIGHT: bold"></span></h4>","San Bernardo, 17","43.54334 -5.661985","Restaurantes y sidrerías, Guia gastronómica, Jornadas, 2011, Turismo-Menestra, Ruta de la Sidra, Turismo-Sidra dop brut, Turismo-Menú sidrería, Gijón Card, Gijón card. Tarjeta turística, Gijón de Pinchos, Ruta de la Sidra, Gijón con Calidad, Turismo responsable, Biosphere, Turismo"
"http://www.gijon.es/directorios/show/6356-restaurante-acuario-de-gijon","6356","es","fecha-actualizacion2014-01-22 12:04:51 +0100","http://www.gijon.es/data/images/f0/f3/37467/302x302_v1_acuario.jpg","Restaurante Acuario de Gijón","+ 34 985 18 52 20","http://acuario.gijon.es/","<ul><li>No admite animales.<br/></li></ul>","Playa de Poniente, s/n. 33212. Gijón.","Restaurantes y sidrerías, Guia gastronómica, Jornadas, 2011, Turismo-Menestra, Turismo"
"http://www.gijon.es/directorios/show/6307-restaurante-el-trastero","6307","es","fecha-actualizacion2014-06-23 13:13:55 +0200","http://www.gijon.es/data/images/f0/f3/37153/180x135_v1_trastero.jpg","Restaurante El Trastero","+ 34 984 19 54 36","<ul><li>Permite la entrada de mascotas en el establecimiento solamente en la zona de bar.<br/></li></ul>","Santa Doradía, 19. 33202. Gijón.","43.53816 -5.656862","Restaurantes y sidrerías, Guia gastronómica, Gijón de cócteles, 2011, Vinos y Tapas, Gijón de Pinchos, Turismo"
"http://www.gijon.es/directorios/show/6257-cafeteria-vivaldi","6257","es","fecha-actualizacion2015-07-23 10:43:56 +0200","http://www.gijon.es/data/images/f0/f3/37414/180x180_v1_vivaldis.jpg","Cafetería Vivaldi","+34 985 09 04 93","http://www.cafeteriavivaldi.com/","<div style="text-align: justify;">En 1678 nació en Venecia el Compositor y Violinista Antonio Vivaldi, del cual Igor Stravinski comentó en una ocasión que Vivaldi no había escrito nunca quinientos conciertos, sino «quinientas veces el mismo concierto». No deja de ser cierto en lo que concierne al original e inconfundible tono que el compositor veneciano supo imprimir a su música y que la hace rápidamente reconocible. Autor prolífico, la producción de Vivaldi abarca no sólo el género concertante, sino también abundante música de cámara, vocal y operística. Célebre sobre todo por sus cuatro conciertos para violín y orquesta reunidos bajo el título Las cuatro estaciones, cuya fama ha eclipsado otras de sus obras igualmente valiosas, si no más, Vivaldi es por derecho propio uno de los más grandes compositores del período barroco e impulsor de la llamada Escuela Veneciana. Con el propósito de trasladar estos valores a la hostelería, en 2006 inauguramos Cafetería Vivaldi, para ofrecer nuestro servicio en una zona de reciente creación en Gijón, Montevil (Ver mapa y contacto).<br/></div><br/><div style="text-align: justify;">Un lugar acogedor, diseñado con amplias cristaleras, decorado en madera y tonos cálidos con suave iluminación y terraza cubierta, para que Ud. se sienta cómodo, disfrutando de su tiempo.Ponemos a su disposición nuestra “prolífica” y especializada composición, de la cual puede ver un adelanto en esta web, con gran variedad de pinchos de elaboración propia, platos combinados, extensa selección de chocolates calientes y fríos, amplia colección de reconfortantes infusiones y tés naturales, batidos, combinados de café, las mejores ginebras y vodkas de importación y un amplio etcétera.<br/></div><br/><div style="text-align: justify;">En nuestras partituras se repite siempre, pese a lo que pueda decir Stravinski, la misma nota, la calidad del producto. Porque Usted, no se merece menos.<br/></div><ul><br/><li>No permite la entrada de animales al establecimiento.</li></ul><h4 style="font-weight: bold;">Descuento del 10% en compras superiores a 20€ con la tarjeta turística Gijón Card<br/></h4>","Les Cigarreres, 29. 33211. Gijón.","43.520625 -5.678427","Bares y cafés, Guia gastronómica, Gijón de cócteles, Gijón card. Tarjeta turística, Gijón Card, Gijón con Calidad, Restaurantes y sidrerías, Turismo"
"http://www.gijon.es/directorios/show/6216-restaurante-el-palacio","6216","es","fecha-actualizacion2014-01-22 12:04:47 +0100","http://www.gijon.es/data/images/f0/f3/37206/800x591_v1_palacio.JPG","Restaurante El Palacio","+ 34 985 34 13 68","http://www.elpalaciogijon.com","<div style="text-align: justify;">En un ambiente acogedor hasta en el último detalle, todo aquel que se acerque disfrutará de una completa carta de platos típicos de la zona, que El Palacio le ofrece utilizando siempre productos de la región. Acompañado de una carta de vinos que presenta una cuidada selección, con denominaciones de origen de todo el país.</div><p><br/></p><p>Dispone de un magnífico comedor, en el que a través de sus ventanales podrá contemplar las magníficas vistas que tiene sobre el puerto.</p><ul><li>Admite animales sólo en la parte baja del establecimiento.<br/></li></ul>","Plaza del Marqués, 3. 33201. Gijón.","43.545243 -5.663235","Restaurantes y sidrerías, Pubs, Guia gastronómica, Gijón de cócteles, 2011, Turismo-Sidra dop nueva expresion, Gijón de Pinchos, Turismo"
"http://www.gijon.es/directorios/show/6188-a-caldeira","6188","es","fecha-actualizacion2017-05-15 11:53:05 +0200","http://www.gijon.es/data/images/f0/f3/33178/250x250_v1_Logo250x250.jpg","A Caldeira","+ 34 985 32 30 63","contacto@acaldeira.net","http://www.acaldeira.net/","Restaurante situado en las inmediaciones de la Campa Torres, con bellas vistas a la ciudad de Gijón/Xixón. Lo mejor de las cocinas gallega y asturiana reunidas en un mismo lugar, acogedor y agradable. <br/><br/><ul><li>Abierto todos los días.</li><li>No admite animales.</li><li>Coordenadas GPS: N 43.54788 W 5.71458<br/></li></ul>","Carretera Campa Torres, 1500. 33299. Gijón.","43.548011 -5.714191","Restaurantes y sidrerías, Guia gastronómica, Jornadas, 2011, Turismo-Menestra, Gijón con Calidad, Turismo"
"http://www.gijon.es/directorios/show/3450-real-club-astur-de-regatas","3450","es","fecha-actualizacion2017-07-24 11:35:56 +0200","http://www.gijon.es/data/images/f0/f9/97173/190x110_v1_clubregatas.jpg","Real Club Astur de Regatas","+34 985 34 42 02","985 17 18 36","info@rcar.es","http://www.rcar.es/html/index.asp","Situado en un marco incomparable, frente a la bahía de San Lorenzo, en nuestros salones con vistas al mar podrá disfrutar de la calidad de nuestros platos y servicios que conjugan el toque más tradicional de todos los Club de Regatas con la modernidad de nuestro tiempo.<br/><br/><h3>Persona de contacto:</h3>D. Balbino López<br/><br/><h3>Horarios:</h3>Día de descanso: en invierno los lunes<br/><br/><h3>Chef:</h3>D. José Manuel Gutiérrez<br/><br/><h3>Especialidades:</h3>Brocheta de pixín y langostinos<br/><br/><h3>Capacidad:</h3>360 comensales<br/><br/><h3>Información sobre la capacidad de las salas:</h3><br/><table><thead><tr><th>Capacidad Total</th><th>Número de salones</th><th>Capacidad min./max.</th></tr></thead><tbody><tr><td>350</td><td>2</td><td>60/300</td></tr></tbody></table><br/><h3>Tarjetas admitidas:</h3>VISA, AMERICAN EXPRESS, MASTERCARD","Avda. de la Salle, 2-4 - 33201 Gijón","43.546562 -5.660419","Restaurantes y sidrerías, Banquetes, 2011, Club de Empresas de Turismo de Negocios, Congresos, Turismo"
"http://www.gijon.es/directorios/show/3442-el-caserio-de-roces","3442","es","fecha-actualizacion2014-01-22 12:03:20 +0100","http://www.gijon.es/data/images/f0/f3/37428/319x205_v1_caserioderoces.jpg","El Caserío de Roces","+ 34 985 15 49 73","<div style="text-align: justify;">Dispone de amplios salones con luz natural diseñados para la celebración de todo tipo de banquetes, bodas, comidas de empresa, grupos, reuniones de trabajo, comuniones, etc. Cuenta con 1 salón de 900 mt. cuadrados con capacidad hasta 600 comensales. Posibilidad de dividir el salón por medio de paneles insonoros en dos de 450 mt. cuadrados con capacidad para 300 personas o 4 de 220 mt. cuadrados cada uno con capacidad de hasta 150 personas cada uno. Si se requiere menos capacidad, los salones se dividen por mamparas de estilo clásico. También dispone de un Cenador cubierto, provisto de calefacción para celebración de espichas con capacidad para 30 comensales, preparado para el escanciado de Sidra.<br/></div><br/><h3>Tipo de sidra:<br/></h3><ul><li>Sidra de escanciar</li></ul>","Barrio La Perdiz. 33208. Gijón.","43.51672 -5.675372","Restaurantes y sidrerías, Guia gastronómica, Turismo"
"http://www.gijon.es/directorios/show/3437-la-posada-del-mar","3437","es","fecha-actualizacion2016-01-15 10:55:54 +0100","http://www.gijon.es/data/images/f0/f2/28763/169x116_v1_30090_111111112009141252.jpg","La Posada del Mar","+ 34 985 350 689","http://es-es.facebook.com/laposadadelmardegijon?sk=info","<div style="text-align: justify;">En el corazón de la <span style="font-weight: bold;">bahía de San Lorenzo</span> y con excepcionales vistas al mar, se ubica uno de los clásicos de la restauración en Asturias. La Posada del Mar es conocida desde hace más de 30 años por sus <span style="font-weight: bold;">excelentes platos tradicionales</span> como la fabada asturiana y les fabes con almejes, siendo un referente de la gastronomía del Principado. La oferta en carta y los menús del día se complementan con el servicio de raciones y de platos combinados especiales y una selección muy cuidada de vinos.</div><br/><br/><h3>Especialidades</h3><ul><li>Fabada asturiana.</li><li>Fabes con almejas.</li><li>Platos combinados especiales.</li></ul><h3>Horario</h3>De 09:00 a a 17:00 y de 20:00 h. a cierre.<br/><br/><ul><li>No admite animales.<br/></li></ul>","Paseo del Muro, 2. 33202. Gijón.","43.542061 -5.659451","Restaurantes y sidrerías, Guia gastronómica, 2011, Turismo"
"http://www.gijon.es/directorios/show/3434-sidreria-tropical","3434","es","fecha-actualizacion2014-02-26 14:56:21 +0100","http://www.gijon.es/data/images/f0/f4/41558/333x250_v1_sidreriatropical.jpg","Sidrería Tropical","985 132 768","http://www.sidreriatropical.com/","Avda. Rufo Rendueles, 3 - 33203 Gijón","43.540595 -5.654524","Restaurantes y sidrerías, Turismo"
"http://www.gijon.es/directorios/show/3433-sidreria-restaurante-casa-pardo","3433","es","fecha-actualizacion2014-01-22 12:03:19 +0100","Sidrería Restaurante Casa Pardo","985 363 739","Avenida Pablo Iglesias, 69 - 33204","Restaurantes y sidrerías, Turismo"
"http://www.gijon.es/directorios/show/3432-sidreria-principado","3432","es","fecha-actualizacion2014-01-22 12:03:19 +0100","Sidrería Principado","985 348 655","C/ Matemático Pedrayes, 3 - Matemático Pedrayes, 3-33207","Restaurantes y sidrerías, 2011, Turismo-Sidra dop brut, Guia gastronómica"
"http://www.gijon.es/directorios/show/3431-sidreria-la-volanta","3431","es","fecha-actualizacion2014-01-22 12:03:19 +0100","Sidrería La Volanta","985 348 819","C/ Teodoro Cuesta, 1, Bajo - 33207","Restaurantes y sidrerías"
"http://www.gijon.es/directorios/show/3430-sidreria-kierche","3430","es","fecha-actualizacion2014-01-22 12:03:19 +0100","Sidrería Kierche","985 350 239","C/ San Bernardo 79 - 33201","Restaurantes y sidrerías, Turismo"
"http://www.gijon.es/directorios/show/3429-sidreria-guaniquei","3429","es","fecha-actualizacion2016-01-18 10:30:36 +0100","http://www.gijon.es/data/images/f0/f8/81558/4992x3328_v1__B0A0238.jpg","Sidrería Guaniquei","985 362 154","http://sidreriaguaniquei.multiespaciosweb.com/","Descanso: Lunes y martes mañana","Avda. Hermanos Felgueroso, 3. 33205","Restaurantes y sidrerías, Ruta de la Sidra, Turismo-Menú sidrería, Gijón con Calidad, Guia gastronómica, Turismo"
"http://www.gijon.es/directorios/show/3428-sidreria-casa-fede","3428","es","fecha-actualizacion2014-01-22 12:03:19 +0100","http://www.gijon.es/data/images/f0/f3/37508/180x150_v1_casafede.jpg","Sidrería Casa Fede","+ 34 985 344 007","<ul><li>No permite la entrada de animales en el establecimiento.<br/></li></ul>","C/ Acacia, 5 - 33201","43.545374 -5.662688","Restaurantes y sidrerías, Guia gastronómica, Jornadas, 2011, Turismo-Menestra, Turismo"
"http://www.gijon.es/directorios/show/3427-sidreria-casa-carmen","3427","es","fecha-actualizacion2014-01-22 12:03:19 +0100","Sidrería Casa Carmen","985 334 415","C/ Manso, 26 - 33203","Restaurantes y sidrerías"
"http://www.gijon.es/directorios/show/3426-puente-romano","3426","es","fecha-actualizacion2014-01-22 12:03:19 +0100","Puente Romano","985 134 004","Marqués De Casa Valdés 21, 33202","Restaurantes y sidrerías, Turismo"
"http://www.gijon.es/directorios/show/3425-marisqueria-sidreria-sporting","3425","es","fecha-actualizacion2014-07-23 11:51:56 +0200","Marisquería Sidrería Sporting","985 364 631","Avda. Pablo Iglesias,75- 33204","43.535513 -5.651409","Restaurantes y sidrerías, 2011, Turismo-Sidra dop nueva expresion, Turismo-Sidra dop brut, Turismo"
"http://www.gijon.es/directorios/show/3424-marisqueria-la-chalana","3424","es","fecha-actualizacion2014-01-22 12:03:19 +0100","Marisquería La Chalana","985 164 827","San José  31, 33209","Restaurantes y sidrerías, Turismo"
"http://www.gijon.es/directorios/show/3423-los-pomares","3423","es","fecha-actualizacion2014-01-22 12:03:19 +0100","Los Pomares","985 354 607","Avenida Portugal, 68 - 33207 - Avda Portugal 68 33207 Gijón","43.535295 -5.675639","Restaurantes y sidrerías, 2011"
"http://www.gijon.es/directorios/show/3421-el-texu","3421","es","fecha-actualizacion2014-01-22 12:03:19 +0100","El Texu","672314219","C/ Santa Doradía, 9 - 33202","Restaurantes y sidrerías, Turismo"
"http://www.gijon.es/directorios/show/3396-rio-astur","3396","es","fecha-actualizacion2014-01-22 12:03:18 +0100","http://www.gijon.es/data/images/f0/f3/37226/800x600_v1_rioAsturBaja.JPG","Río Astur","+ 34 985 148 617","<p><span style="font-weight: bold;">Precio mínimo por persona: </span>30 €</p><div class="P modulo100 divL"><div class="H "><div style="text-align: justify;">Es un <span style="font-weight: bold;">ejemplo de voluntad y ganas de agradar</span>. Han convertido una sidrería de barrio casi en <span style="font-weight: bold;">restaurante de postín</span>, con un comedor superior bien decorado y una cocina actual y moderna. La atención en la sala es magnífica y la carta de vinos muy digna. La relación calidad precio es correcta.<br/></div><h3><br/></h3><h3>Tipo de sidra:<br/></h3><ul><li>Sidra de escanciar</li></ul><br/><h3>Especialidades</h3><ul><li>Salteado de verduras y frutos secos al aroma de soja.</li><li>Entrecot a la mostaza con delicia turca y mousse de yogur.</li></ul><h3>Descansa</h3>Domingos noche y lunes.<br/><br/><ul><li>No admite mascotas.<br/></li></ul></div></div>","Río de Oro, 3. 33209. Gijón.","43.532684 -5.662186","Restaurantes y sidrerías, Guia gastronómica, 2011, Gijón de Pinchos, Turismo"
"http://www.gijon.es/directorios/show/3395-sidreria-marisqueria-poniente","3395","es","fecha-actualizacion2015-07-22 14:04:01 +0200","http://www.gijon.es/data/images/f0/f3/35830/500x333_v1_poniente.JPG","Sidrería Marisquería Poniente","+34 985 322 349","marisqueriaponientegijon@hotmail.es","http://www.marisqueriaponiente.com/","De 10.30 a 24.00h. / Cerrado lunes, excepto festivo","<p><span style="FONT-WEIGHT: bold">Precio mínimo por persona:</span> 35 €</p><div class="P modulo100 divL"><div style="text-align: justify;"></div><div class="H "><div style="text-align: justify;">Estamos ante un <span style="FONT-WEIGHT: bold">restaurante consolidado</span>, que a base de garantizar a sus clientes buenos pescados y mariscos se ha ido haciendo un hueco en las guías especializadas. La carta contiene suficiente interés para lograr nuestra satisfacción, especialmente si nos decantamos por el marisco, porque tienen cetárea propia de la que salen las piezas vivitas y coleando.<br/><br/><ul><li>No permite la entrada de animales en el establecimiento.</li></ul><br/><h4><strong>Descuento del 10% con la tarjeta turística Gijón Card</strong><br/></h4><br/></div><h3>Tipo de sidra:<br/></h3><ul><li>Sidra de escanciar</li></ul><br/><h3>Especialidades</h3><ul><li>Chopa a la sidra</li><li>Calamares</li><li>Paletilla de lechal</li></ul><h3>Descansa</h3>lunes<br/><br/></div></div>","Avda. Juan Carlos I, 13. Natahoyo.","43.537525 -5.684516","Restaurantes y sidrerías, Gijón card. Tarjeta turística, Gijón con Calidad, Turismo, Guia gastronómica"
"http://www.gijon.es/directorios/show/3394-restaurante-rubiera","3394","es","fecha-actualizacion2014-08-29 13:36:21 +0200","http://www.gijon.es/data/images/f0/f3/37360/980x731_v1_restaurante-rubiera_2263041.jpg","Restaurante Rubiera","+ 34 984 846 959","<p><span style="font-weight: bold;">Precio mínimo por persona: </span>30 €</p><div class="P moduloprehome"><div class="H "><div style="text-align: justify;">Sidrería de toda la vida en el centro de Gijón. <span style="font-weight: bold;">Lleno a diario en la barra para tomar buena sidra</span>. Tienen posiblemente los <span style="font-weight: bold;">mejores calamares frescos de la ciudad</span>, amén de alguna que otra delicia del mar. El ambiente es bullicioso, como suele ser habitual en este tipo de locales. Merece una visita por su tipismo y por sus productos.<br/></div><br/><h3>Tipo de sidra:<br/></h3><ul><li>Sidra de escanciar<br/></li></ul>Especialidades<ul><li>Calamares frescos.</li><li>Pescados del Cantábrico.</li></ul><h3>Descansa</h3>Miércoles<br/><br/><ul><li>No admite animales.<br/></li></ul></div></div>","Asturias, 7. 33206. Gijón.","43.540051 -5.66474","Restaurantes y sidrerías, Guia gastronómica, Ruta de la Sidra, Ruta de la Sidra, Turismo"
"http://www.gijon.es/directorios/show/3393-sancho","3393","es","fecha-actualizacion2014-01-22 12:03:18 +0100","http://www.gijon.es/data/images/f0/f3/38525/315x160_v1_sancho.jpeg","Sancho","+ 34 985 359 973","<p><span style="font-weight: bold;">Precio mínimo por persona:</span> 35 €</p><p style="text-align: justify;">Es <span style="font-weight: bold;">uno de los locales más peculiares de la ciudad</span>, cuya existencia solo se entiende en Gijón. Es largo y superestrecho, incómodo, con la cocina más pequeña de la ciudad, pero tienen un <span style="font-weight: bold;">arte especial para lograr mollejas</span> de llorar de emoción, pescados sensacionales, carnes sublimes, y todo ello a un precio bastante razonable. Esto explica los llenos diarios que tiene, y que lo han convertido en lugar de culto entre los gijoneses.<br/></p><h3>Especialidades</h3><ul><li>Mollejas.</li><li>Riñones.</li><li>Ventrisca de bonito.</li></ul><h3>Descansa</h3><p>Domingos.</p><ul><li>No admite animales en la zona de restaurante.<br/></li></ul>","Begoña, 18. 33201. Gijón.","43.543091 -5.663173","Restaurantes y sidrerías, Guia gastronómica, Turismo"
"http://www.gijon.es/directorios/show/3392-sidreria-nava","3392","es","fecha-actualizacion2014-02-26 15:23:07 +0100","http://www.gijon.es/data/images/f0/f3/37358/600x370_v1_nava.jpg","Sidrería Nava","+ 34 985 380 447","https://www.facebook.com/pages/Sidreria-Nava/200912353259663","<p><span style="font-weight: bold;">Precio mínimo por persona:</span> 25 €</p><div class="P modulo100 divL"><div class="H "><div style="text-align: justify;">Es una de las sidrerías con más movimiento y ambiente cualquier día a cualquier hora. Les apasiona la sidra, y eso hace que siempre intenten conseguir la calidad máxima. Los <span style="font-weight: bold;">camareros</span> forman parte del show, <span style="font-weight: bold;">conversadores y siempre sonrientes</span>. Las raciones son generosas. Es uno de los favoritos de los foráneos que les gusta el bullicio.<br/></div><h3><br/></h3><h3>Tipo de sidra:<br/></h3><ul><li>Sidra de escanciar</li></ul><h3>Especialidades</h3><ul><li>Marejada (berberechos, chipirones, mejillones, gambón).</li><li>Paletilla de lechal.</li></ul><h3>Descansa</h3>Domingos noche y lunes.</div></div>","Parque de la Serena, 1. 33208. Gijón.","43.530628 -5.665061","Restaurantes y sidrerías, Guia gastronómica, Turismo"
"http://www.gijon.es/directorios/show/3389-los-molcajetes","3389","es","fecha-actualizacion2014-01-22 12:03:18 +0100","http://www.gijon.es/data/images/f0/f3/37357/250x173_v1_molcajetes.JPG","Los Molcajetes","+ 34 984 395 580","www.losmolcajetes.es","<h3>Precio mínimo por persona: 25 €</h3><p style="text-align: justify;">El molcajete es el recipiente en el que los mejicanos sirven sus innumerables salsas, en su origen de piedra volcánica y ahora de plástico, una especie de mortero. Como podéis imaginar, en este restaurante tiene mucho protagonismo, casi el mismo que el mariachi que acompaña casi todas las noches con su música el desfile de comida. El resultado es una <span style="font-weight: bold;">experiencia agradable</span>, con <span style="font-weight: bold;">platos sabrosos </span>y <span style="font-weight: bold;">bien elaborados</span>. Ideal para grupos.<br/></p><h3>Especialidades</h3><ul><li>Tamales.</li><li>Burritos.</li><li>Tacos.</li></ul><h3>Descansa</h3><p>Lunes.<br/></p>","Adolfo Vega, 14.","43.531284 -5.665083","Turismo, Restaurantes y sidrerías, Guia gastronómica"
"http://www.gijon.es/directorios/show/3388-casa-gerardo","3388","es","fecha-actualizacion2014-01-22 12:03:18 +0100","http://www.gijon.es/data/images/f0/f3/37337/416x336_v1_CasaGerardo.jpg","Casa Gerardo","+ 34 985 887 797","info.casagerardo@gmail.com","http://www.restaurantecasagerardo.com/","<p><span style="font-weight: bold;">Precio mínimo por persona: </span>60 €</p><div class="P modulo100 divL"><div class="H "><div style="text-align: justify;">Han cumplido 125 años pero están frescos como una rosa. Es el <span style="font-weight: bold;">restaurante de la región más conocido</span> fuera de nuestras fronteras. Llevan muchos años en la brecha, pero su continuidad está asegurada con la incorporación de la nueva saga de los Morán. En esta casa se puede comer desde la última <span style="font-weight: bold;">innovación culinaria, pura fantasía creativa</span>, hasta los platos más tradicionales de la cocina asturiana.<br/></div><br/><div style="text-align: justify;">Es famosa su fabada y su arroz con leche, imposible de terminar por muy goloso que seas. Cuenta con un comedor privado con vistas a la cocina, una experiencia que no olvidaréis. La atención en sala es magnífica y su carta de vinos generosa y en permanente actualización.<br/></div><br/><h3>Especialidades</h3><ul><li>Salmonete y su hígado.</li><li>Oricios al limón.</li><li>Quisquillas con rosas y pistachos.</li></ul><h3>Descansa</h3>Lunes y noches, de martes a jueves<br/><br/><br/><h4><span style="font-weight: bold;"><a href="http://www.gijon.info/page/5115-gijon-gourmet" title="Ir a http://www.gijon.info/private/178-web/page/5115-gijon-gourmet" rel="external">Gijón Gourmet</a></span></h4><p><br/></p><p></p><p></p></div></div>","Ctra. AS-19 Gijón-Avilés-Prendes (km 9) 33438 Prendes (Carreño)","43.550167 -5.790138","Turismo, Restaurantes y sidrerías, Guia gastronómica"
"http://www.gijon.es/directorios/show/3387-casa-kilo","3387","es","fecha-actualizacion2014-01-22 12:03:18 +0100","http://www.gijon.es/data/images/f0/f3/37418/450x302_v1_casa-kilo-3.jpg","Casa Kilo","+ 34 985 894 806","info@casakilo.com","http://www.casakilo.com/","<p><span style="font-weight: bold;">Precio mínimo por persona:</span> 40 €</p><div class="P modulo100 divL"><div class="H "><div style="text-align: justify;">Aunque mantiene el <span style="font-weight: bold;">espíritu de bar de pueblo</span>, cada vez cobra más protagonismo su impresionante terraza climatizada, igualmente válida en verano que en invierno. Es un <span style="font-weight: bold;">negocio familiar</span>, en el que las mujeres gobiernan la cocina y los hombres atienden complacientes en sala. <span style="font-weight: bold;">Su plato estrella es el besugo,</span> que preparan con unos macarrones sabrosísimos. También merece la pena probar algo de marisco, de indudable procedencia y calidad.<br/></div><br/><h3>Especialidades</h3><ul><li>Pulpo con pisto.</li><li>Besugo con macarrones.</li></ul><h3>Descansa</h3>Lunes noche y martes.<br/><br/><ul><li>No permite la entrada de animales en el establecimiento.<br/></li></ul><br/></div></div>","Cimadevilla, 2. 33314. Quintes - Villaviciosa","43.53146 -5.544678","Restaurantes y sidrerías, Guia gastronómica, Turismo"
"http://www.gijon.es/directorios/show/3386-casa-narciandi","3386","es","fecha-actualizacion2014-01-22 12:03:18 +0100","http://www.gijon.es/data/images/f0/f5/57359/968x648_v1_CasaNarciandi.jpg","Casa Narciandi","+ 34 985 168 248","<a href="http://casanarciandi@telefonica.net" title="Ir a casanarciandi@telefonica.net" rel="external">casanarciandi@telefonica.net</a>","<p style="text-align: justify;">Llenar todos los días un comedor que se encuentra a seis kilómetros de la ciudad tiene mucho mérito. La explicación es bien sencilla: <span style="font-weight: bold;">mucho amor en la cocina y muchas horas para preparar platos</span> del recetario tradicional asturiano. Las chicas de la sala son encantadoras y contribuyen a un ambiente distendido y placentero. Es imprescindible reservar mesa.<br/></p><h3>Especialidades</h3><ul><li>Platos de cuchara.<br/></li><li>Arroz con pitu.</li><li>Fabada.</li><li>Callos.<br/></li></ul><h3>Descansa</h3><p>Lunes.<br/></p>","Ctra. AS 246 (Alto de la Madera) Km.8","43.456303 -5.688754","Restaurantes y sidrerías, Guia gastronómica, Turismo"
"http://www.gijon.es/directorios/show/3385-la-salgar","3385","es","fecha-actualizacion2017-07-24 11:29:45 +0200","http://www.gijon.es/data/images/f0/f9/97172/190x110_v1_Restaurantelasalgar.jpg","La Salgar","+34 985 331 155","lasalgar@yahoo.es","http://www.lasalgar.es","La Salgar es el restaurante urbano de Nacho y Esther Manzano en Gijón. Situado en el Pueblu del Muséu d'Asturies, a cinco minutos del corazón de la ciudad, el edificio está ubicado en el marco de un paisaje verde asturiano. Amplios ventanales con vistas al jardín y dos terrazas para disfrutar de nuestra mejor cocina en un entorno natural y muy de la tierra.<br/><br/>La Salgar es el lugar ideal para la celebración de eventos. El restaurante se sitúa en el verde entorno del Muséu del Pueblu d'Asturies, donde se extienden dos amplias terrazas para dar cabida a entre 80 y 100 comensales.<br/><br/>Cocina de personalidad en la que se combinan la tradición más pura, el género más fresco y una tendencia vanguardista.<br/><br/><h3><br/></h3><h3>Tipo de sidra:<br/></h3><ul><li>Sidra de mesa</li></ul><br/><h3>Especialidades</h3><ul><li>Croquetas de jamón ibérico. </li><li>Cabritu con patatinos.</li></ul><h3>Descansa</h3>Domingo noche y lunes<br/><br/><h4><span style="font-weight: bold;"><a href="http://www.gijon.info/page/5115-gijon-gourmet" title="Ir a http://www.gijon.info/page/5115-gijon-gourmet" rel="external">Gijón Gourmet</a></span><br/></h4><p><br/></p>","Paseo Doctor Fleming, 859 - 33203, Gijón.","43.536992 -5.635195","Restaurantes y sidrerías, Guia gastronómica, Congresos, Gijón con Calidad, Club de Empresas de Turismo de Negocios, Turismo"
"http://www.gijon.es/directorios/show/3384-la-venta-del-jamon","3384","es","fecha-actualizacion2014-01-22 12:03:18 +0100","http://www.gijon.es/data/images/f0/f3/37457/352x230_v1_LA_VENTA_DEL_JAMON_icono.jpg","La Venta del Jamón","+ 34 985 262 802","http://www.laventadeljamon.com/","<p style="text-align: justify;"><span style="font-weight: bold;">Precio mínimo por persona: </span>45 €<br/></p><p style="text-align: justify;">Esta casa es de visita obligada para los que nos visitan, porque <span style="font-weight: bold;">tiene muchos elementos que destilan asturianía</span>. Está en la zona rural, a quince minutos de Gijón, y ofrece una <span style="font-weight: bold;">cocina sustanciosa</span> que se alterna con originales propuestas como pueda ser la carne de Kobe. Su decoración y su original concepción le hará sentir como en casa.<br/></p><div class="P modulo100 divL"><div class="H "><br/><h3>Especialidades</h3><ul><li>Arroz con pulpo y oricios.</li><li>Fabada.</li><li>Carne de Kobe.</li></ul><h3>Descansa</h3>Domingos por la noche.<br/><br/><ul><li>Admite animales según tamaño.<br/></li></ul></div></div>","Ctra. AS-18. Pruvia (Llanera).","43.469616 -5.760613","Restaurantes y sidrerías, Guia gastronómica, Turismo"
"http://www.gijon.es/directorios/show/3379-la-llosa","3379","es","fecha-actualizacion2014-01-22 12:03:18 +0100","http://www.gijon.es/data/images/f0/f3/37354/298x298_v1_lallosa.jpg","La Llosa","+ 34 985 347 007","<p><span style="font-weight: bold;">Precio mínimo por persona: </span>25 €</p><p style="text-align: justify;">Llevan muchos años y se ha convertido en lugar de culto para los que valoran los productos del mar. En esta <span style="font-weight: bold;">sidrería familiar</span>, de <span style="font-weight: bold;">tan solo seis mesas</span>, consiguen mariscos y pescaditos de excelso sabor, que cobran a precios ajustados. Si queréis saber lo que es un <span style="font-weight: bold;">&quot;chigre&quot; de toda la vida</span>, esta es vuestra oportunidad, aunque se han apuntado a la moda del escanciador electrónico, con lo que ha perdido algo de tipismo.</p><ul><li>No admite mascotas.<br/></li></ul><h3>Tipo de sidra:<br/></h3><ul><li>Sidra de escanciar</li></ul><h3>Especialidades</h3><ul><li>Rollo de bonito.</li><li>Navajas.</li><li>Bocartes.</li></ul><h3>Descansa</h3><p>Lunes.<br/><br/></p>","Rodríguez San Pedro, 21. 33206. Gijón.","43.542583 -5.667529","Restaurantes y sidrerías, Guia gastronómica, Turismo"
"http://www.gijon.es/directorios/show/3378-la-casa-pompeyana","3378","es","fecha-actualizacion2014-01-22 12:03:18 +0100","http://www.gijon.es/data/images/f0/f3/35798/160x128_v1_lacasapompeyana.jpg","La Casa Pompeyana","+ 34 984 192 419","info@lacasapompeyana.com","http://www.lacasapompeyana.com/","<p><span style="font-weight: bold;">Precio mínimo por persona:</span> 25 €</p><p style="text-align: justify;">Estamos ante el <span style="font-weight: bold;">mejor representante italiano en la ciudad</span>, que se ha ido consolidando poco a poco pero de forma segura. Su decoración en piedra con frescos pintados en las paredes nos transporta a otra época y nos predispone al disfrute. Es importante ser conscientes de que es <span style="font-weight: bold;">algo más que una pizzería o trattoria</span>, porque practican una cocina italiana muy auténtica, de altos vuelos. Son especialmente <span style="font-weight: bold;">recomendables</span> los <span style="font-weight: bold;">platos con trufa</span>, muy logrados.<br/></p><h3>Especialidades</h3><ul><li>paccheri con trufa.</li><li>Gnocchis caseros.</li></ul><h3>Descansa</h3><p>Martes.</p>","Nava, 5.","43.538502 -5.670877","Restaurantes y sidrerías, Guia gastronómica, 2011, Turismo"
"http://www.gijon.es/directorios/show/3375-la-bodega-fantastica","3375","es","fecha-actualizacion2014-06-20 13:58:54 +0200","http://www.gijon.es/data/images/f0/f3/37433/640x480_v1_bodegafantastica.jpeg","La Bodega Fantástica","+ 34 985 140 220","http://bodegafantastica.blogspot.com/2009/08/la-bodega.html","<p><span style="font-weight: bold;">Precio mínimo por persona:</span> 30 €</p><p style="text-align: justify;"><span style="font-weight: bold;">Original donde los haya</span>, se han especializado en <span style="font-weight: bold;">conservas, caza y setas</span>, aunque bien es verdad que desde que abren también a mediodía bordan algunos guisos. Pero en esta casa no hay que exigir complicaciones, ni buscar una decoración llamativa o unas sillas de diseño. El <span style="font-weight: bold;">servicio</span> es <span style="font-weight: bold;">casero</span>, ya que atienden de forma campechana.<br/></p><h3>Especialidades</h3><ul><li>Cazuela mixta de hongos.</li><li>Civet de liebre con puré de calabaza.</li></ul><h3>Descansa</h3><p>Lunes.</p><ul><li>No permite la entrada de animales al establecimiento.<br/></li></ul>","Caveda, 10. 33205. Gijón.","43.536325 -5.662486","Restaurantes y sidrerías, Guia gastronómica, Turismo"
"http://www.gijon.es/directorios/show/3373-el-sueve","3373","es","fecha-actualizacion2014-01-22 12:03:18 +0100","http://www.gijon.es/data/images/f0/f3/37352/394x296_v1_elsueve.jpg","El Sueve","+ 34 985 145 703","<p><span style="font-weight: bold;">Precio mínimo por persona:</span> 35 €</p><p style="text-align: justify;">Sigue siendo el <span style="font-weight: bold;">feudo de los carnívoros</span>. Son muy exigentes a la hora de comprar carne y la trabajan muy bien, a la vista del público, en la parrilla de carbón. La <span style="font-weight: bold;">decoración</span> es de <span style="font-weight: bold;">asador castellano</span>, con poca iluminación, y la carta de vinos ofrece <span style="font-weight: bold;">vinos de calidad</span> a precio ajustado. Vamos, que comeremos de maravilla y pagaremos un importe asequible. La atención en sala es diligente y profesional.</p><ul><li>No admite animales.<br/></li></ul><h3>Especialidades</h3><ul><li>Churrasco de puntapierna.</li><li>Lomo de venado a la parrilla.</li></ul><h3>Descansa</h3><p>Miércoles noche y domingos.<br/></p>","Domingo García de la Fuente, 12. 33205. Gijón.","43.536383 -5.662369","Restaurantes y sidrerías, Guia gastronómica, Turismo"
"http://www.gijon.es/directorios/show/3371-el-restallu","3371","es","fecha-actualizacion2016-07-28 08:17:56 +0200","http://www.gijon.es/data/images/f0/f3/37350/800x600_v1_elrestayu.jpg","El Restallu","+ 34 985 350 048","http://www.elrestallu.es/","<p><span style="font-weight: bold;">Precio mínimo por persona:</span> 25 €</p><p style="text-align: justify;"></p><p>Uno de los restaurantes de visita obligada en Gijón. El localdispone de dos plantas: la primera, gracias a su decoración íntima y exquisita,es perfecta para la celebración de ocasiones especiales; en la planta bajapodrán disfrutar del ambiente de las típicas sidrerías Asturianas. El productoestrella del Restallu es el menú <b>“arroz con bogavante”</b>. También disponemos deun amplio surtido de mariscos (cetárea de mariscos vivos), carnes y pescadosque harán las delicias del comensal.</p><p></p><ul><li>No admite animales.<br/></li></ul><h3>Tipo de sidra:<br/></h3><ul><li>Sidra de escanciar</li></ul><h3>Especialidades</h3><ul><li>Chipirones afogaos.</li><li>Arroz con bugre.</li></ul><h3>Descansa</h3><p>Domingos noche y lunes.<br/></p>","Decano Prendes Pando, 6. 33207. Gijón.","43.537507 -5.666355","Restaurantes y sidrerías, Guia gastronómica, Gijón con Calidad, Turismo"
"http://www.gijon.es/directorios/show/3364-el-planeta","3364","es","fecha-actualizacion2014-06-20 13:54:32 +0200","http://www.gijon.es/data/images/f0/f3/37345/658x492_v1_elplaneta.jpg","El Planeta","+ 34 985 350 056","<p><span style="font-weight: bold;">Precio mínimo por persona:</span> 30 €</p><p style="text-align: justify;">Su <span style="font-weight: bold;">ubicación</span> es <span style="font-weight: bold;">inmejorable</span>, en la cuesta más famosa de Gijón, donde los jóvenes acuden en masa en cuanto sale un rayo de sol. Es una sidrería de dos plantas, con excelentes vistas en la superior, en la que tomar <span style="font-weight: bold;">parrochas, bocartes</span>, y en general todo aquello que venga del mar. Pero si hay una estación de visita obligada, esa es el verano, porque disfrutaréis mucho tomando la <span style="font-weight: bold;">ventrisca y los calamares de potera</span>, productos de temporada que mantienen un protagonismo indudable.</p><ul><li>No admite animales.<br/></li></ul><h3>Tipo de sidra:<br/></h3><ul><li>Sidra de escanciar</li></ul><h3>Especialidades</h3><ul><li>Pulpo a la gallega.</li><li>Parrillada de pescados y ventrisca de bonito.</li><li>Bacalao.</li></ul><h3>Descansa</h3><p>Lunes (excepto en verano).<br/></p>","Tránsito de las Ballenas, 4. 33201. Gijón.","43.547408 -5.665963","Restaurantes y sidrerías, Guia gastronómica, Turismo"
"http://www.gijon.es/directorios/show/3361-el-llagar-de-begona","3361","es","fecha-actualizacion2014-07-07 13:49:55 +0200","http://www.gijon.es/data/images/f0/f3/37342/640x372_v1_llagarbegona.jpg","El Llagar de Begoña","+ 34 985 319 081","+ 34 985 176 243","http://www.llagarbegona.com/begona/index.html","<p><span style="font-weight: bold;">Precio mínimo por persona: </span>35 €</p><p style="text-align: justify;">Es de esas sidrerías que <span style="font-weight: bold;">les gusta cuidar el &quot;palu&quot; de sidra</span>, algo que se agradece. Ricardo conoce bien nuestro líquido patrio y va cambiando de marca cada mes. Gobierna la entrada un hórreo de importantes dimensiones, que le da tipismo al local. Se puede tomar desde una buena tapa de <span style="font-weight: bold;">jamón cortado a cuchillo</span>, platos de la <span style="font-weight: bold;">cocina tradicional asturiana</span>, o <span style="font-weight: bold;">mariscos diversos</span> recién sacados de la cetárea, que bien merece una ojeada. Como todas las sidrerías, es <span style="font-weight: bold;">un poco bulliciosa</span>.</p><ul><li>No admite mascotas.</li></ul><h3>Tipo de sidra:<br/></h3><ul><li>Sidra de escanciar</li></ul><h3>Especialidades</h3><ul><li>Arroz con salmonetes.</li><li>Rey con fideos.</li></ul><h3>Descansa</h3><p>Lunes.<br/></p>","San Bernardo, 81. 33201.. Gijón.","43.538414 -5.659976","Restaurantes y sidrerías, Guia gastronómica, Turismo, Ruta de la Sidra, Ruta de la Sidra"
"http://www.gijon.es/directorios/show/3360-el-antiguo","3360","es","fecha-actualizacion2014-01-22 12:03:18 +0100","http://www.gijon.es/data/images/f0/f3/37427/600x400_v1_antiguo1.jpg","El Antiguo","+ 34 985 350 255","http://www.restauranteelantiguo.com/","<p><span style="font-weight: bold;">Precio mínimo por persona:</span> 25 €</p><p style="text-align: justify;">Es un local para <span style="font-weight: bold;">picotear de manera informal</span> y disfrutar con platos de raíz asturiana, como la fabada o el pastel de oricios. Es<span style="font-weight: bold;"> ideal para grupos</span>, porque tiene dos comedores muy amplios, que organizan por turnos. Los <span style="font-weight: bold;">precios </span>de esta taberna son muy <span style="font-weight: bold;">asequibles</span>, tanto en la comida como en el vino. De hecho, <span style="font-weight: bold;">ante su enorme éxito</span>, han tenido que abrir <span style="font-weight: bold;">otro local </span>en Cimadevilla llamado <span style="font-weight: bold;">La Barquera</span>, con una terraza cubierta, que practica una política muy similar. Los hermanos Jiménez son trabajadores incansables con un buen número de años de experiencia.</p><ul><li>Admite animales en la zona de terraza.<br/></li></ul><h3>Tipo de sidra:<br/></h3><ul><li>Sidra de barril</li></ul><h3>Especialidades</h3><ul><li>Fabada.</li><li>Pimientos rellenos.</li><li>Chipirones a lo pobre.</li></ul><h3>Descansa</h3><p>Lunes.<br/></p>","Valladolid, 2. Plaza Mayor. 33201. Gijón.","43.544731 -5.66297","Restaurantes y sidrerías, Guia gastronómica, Turismo"
"http://www.gijon.es/directorios/show/3356-chaflan","3356","es","fecha-actualizacion2014-01-22 12:03:17 +0100","http://www.gijon.es/data/images/f0/f3/38485/160x105_v1_chaflan.jpeg","Chaflán","+ 34 985 147 329","<p><span style="font-weight: bold;">Precio mínimo por persona:</span> 30 €</p><p style="text-align: justify;">Es <span style="font-weight: bold;">una de las sidrerías</span> de la ciudad <span style="font-weight: bold;">que más gusta a los gijoneses</span>. Su aspecto es algo anticuado, con el característico serrín por el suelo, pero la calidad de su sidra y sobre todo, la perfecta temperatura de servicio y el elevado nivel de los escanciadores permiten conocer bien y disfrutar de la cultura asturiana. En las mesas se pueden comer <span style="font-weight: bold;">excelentes carnes</span> y <span style="font-weight: bold;">tapeo variado</span>.</p><h3>Tipo de sidra:<br/></h3><ul><li>Sidra de escanciar</li></ul><h3>Especialidades</h3><ul><li>Bocartes a la plancha.</li><li>Espárragos rellenos.</li><li>Chuletón.</li></ul><h3>Descansa</h3><p>Miércoles.<br/></p>","Manuel Llaneza, 63. 33208. Gijón.","43.534878 -5.665984","Restaurantes y sidrerías, Guia gastronómica, Turismo"
"http://www.gijon.es/directorios/show/3355-restaurante-sidreria-merendero-casa-yoli","3355","es","fecha-actualizacion2014-07-24 13:38:54 +0200","http://www.gijon.es/data/images/f0/f3/37341/445x334_v1_casaYoli.JPG","Restaurante Sidrería Merendero Casa Yoli","+ 34 985 368 724","info@casayoli.com","http://www.casayoligijon.es/","<p sizcache="2658" sizset="0"><span style="font-weight: bold;">Menú merendero Ruta de la Sidra Gijón 15€</span></p><p sizcache="2226" sizset="0"><span style="font-weight: bold;">Precio mínimo por persona: </span>20 €</p><p style="text-align: justify;">Esta casa de comidas-merendero se encuentra ubicada en la <span style="font-weight: bold;">zona rural de Gijón</span>, y es uno de los locales más frecuentados por los asturianos en verano. Las tortillas, los chorizos a la sidra y la fabada son sus bazas principales, a lo que hay que añadir que sus <span style="font-weight: bold;">precios son muy económicos</span>. Si quieres probar cocina tradicional típica asturiana, este es un buen ejemplo. <span style="font-weight: bold;">La carta de vinos es corta pero apañada</span>.</p><h3>Tipo de sidra:<br/></h3><ul><li>Sidra de escanciar</li></ul><h3>Especialidades</h3><ul><li>Tortilla. </li><li>Fabada. </li><li>Pollo al ajillo.<br/></li></ul><h3>Descansa</h3><p>Los lunes.</p><ul><li>Admite animales sólo en la zona de merendero.<br/></li></ul>","Carretera de Caldones, 182. Barrio San Antonio, 33394. Deva. Gijón.","43.504142 -5.601635","Guia gastronómica, Para merendar, Merenderos, Ruta de la Sidra, 2011, Turismo-Menú merendero, Ruta de la Sidra, Restaurantes y sidrerías, Turismo"
"http://www.gijon.es/directorios/show/3354-llagar-casa-trabanco","3354","es","fecha-actualizacion2017-07-12 14:04:14 +0200","http://www.gijon.es/data/images/f0/f3/37339/500x375_v1_Trabanco.jpg","Llagar Casa Trabanco","+34 985 136 462","sidreria@casatrabanco.com","http://www.casatrabanco.com","Situado en un entorno privilegiado, entre el mar y la montaña y rodeado de manzanos, Casa Trabanco es una referencia de prestigio en el comer y en la elaboración de sidra natural.<br/><br/>De nuestras espichas, celebradas en el lagar entre toneles, se dice que alcanzan el sobresaliente en los tres puntos fundamentales: sidra, comida y entorno.<br/><br/><div class="P modulo100 divL"><div class="H ">Marco privilegiado para eventos distintos.<br/><br/>Llagar reconocido “<a href="http://www.asturiascongresos.com/es/empresa/llagar-casa-trabanco-responsable/" title="Ir a http://www.asturiascongresos.com/es/empresa/llagar-casa-trabanco-responsable/" rel="external">Gijón Turismo Responsable</a>”<br/><br/><h3>Especialidades</h3><ul><li>Fabada. </li><li>Tacos de bacalao. </li><li>Chuletón de buey.</li></ul><h3>Descansa</h3>Abierto todos los días de la semana.<br/><br/><h4 style="font-weight: bold;">Descuento del 10% en visitas guiadas al llagar + regalo de miel con la tarjeta turística Gijón Card</h4><br/></div></div>","Lavandera, 3255. 33350. Gijón.","43.48048 -5.648059","Restaurantes y sidrerías, Guia gastronómica, Recintos singulares, Gijón card. Tarjeta turística, Gijón Card, Ruta de la Sidra, Ruta de la Sidra, Gijón con Calidad, Turismo responsable, Club de Empresas de Turismo de Negocios, Llagares, Turismo"
"http://www.gijon.es/directorios/show/3351-casa-julio","3351","es","fecha-actualizacion2014-01-22 12:03:17 +0100","http://www.gijon.es/data/images/f0/f3/37416/252x152_v1_casajulio.jpg","Casa Julio","+ 34 985 165 280","<p><span style="font-weight: bold;">Precio mínimo por persona:</span> 30 €</p><div class="P modulo100 divL"><div class="H "><div style="text-align: justify;">Es una sidrería del juvenil barrio de Montevil, en la que <span style="font-weight: bold;">elaboran especialmente bien las carnes</span>, que seleccionan escrupulosamente y que parecen manteca pura. El <span style="font-weight: bold;">local </span>es <span style="font-weight: bold;">grande</span>, con una amplia barra donde se escancia generosa sidra. <span style="font-weight: bold;">Digno menú del día</span>. El servicio es ágil y atento, lo que tiene mérito ante el habitual ajetreo que gobierna el local.<br/><br/><ul><li>No permite la entrada de animales al establecimiento.<br/></li></ul></div><span style="font-weight: bold;">Tipo de sidra:</span><br/><ul><li>Sidra de escanciar.</li></ul><h3 style="font-weight: bold;">Especialidades:</h3><ul><li>Carnes a la piedra.</li><li>Bacalao.</li></ul><h3>Descansa:</h3><h3><span style="font-weight: normal;">Lunes</span><br/></h3><strong></strong></div></div>","Río Eo, 57. 33210. Gijón.","43.523746 -5.673805","Restaurantes y sidrerías, Guia gastronómica, Turismo"
"http://www.gijon.es/directorios/show/3350-casa-del-mar","3350","es","fecha-actualizacion2014-01-22 12:03:17 +0100","http://www.gijon.es/data/images/f0/f3/37336/300x234_v1_casadelmar.jpg","Casa del Mar","+ 34 985 313 055","<p><span style="font-weight: bold;">Precio mínimo por persona:</span> 35 €</p><div class="P modulo100 divL"><div class="H "><div style="text-align: justify;">Es más bien un <span style="font-weight: bold;">bar en el que se puede comer</span> y un ambiente que combina trabajadores con el mono de faena y ejecutivos con corbata. La aventura merece la pena porque podrás devorar <span style="font-weight: bold;">pescado y marisco recién salido de la rula</span>, de una calidad inmejorable, y bien tratado en la plancha.<br/><br/></div><h3>Tipo de sidra:<br/></h3><ul><li>Sidra de escanciar</li></ul><br/><h3>Especialidades</h3><ul><li>Pescados.</li><li>Mariscos.</li></ul><ul><li>No permite la entrada de animales al establecimiento.</li></ul><span style="font-weight: bold;">Descansa</span><br/>Sábados.<br/></div></div>","Avenida del Príncipe de Asturias, s/n. Playa del Arbeyal.","43.54718 -5.698728","Restaurantes y sidrerías, Guia gastronómica, Turismo"
"http://www.gijon.es/directorios/show/3336-restaurante-el-candil","3336","es","fecha-actualizacion2017-06-27 16:46:27 +0200","http://www.gijon.es/data/images/f0/f2/28752/169x113_v1_22933_2722722008102124.jpg","Restaurante El Candil","+34 985 353 038","jlelcandil@elcandil.e.telefonica.net","http://www.elcandilgijon.es/","<p><span style="font-weight: bold;">Precio mínimo por persona: </span>40 €</p><div class="P modulo100 divL"><div style="text-align: justify;"></div><div class="H"><div style="text-align: justify;">Cada maestrillo tiene su librillo, y Camacho se lo tiene bien aprendido. Sabe perfectamente que en Gijón se necesitan <span style="font-weight: bold;">raciones abundantes</span> y <span style="font-weight: bold;">precios ajustados</span>, y eso es lo que ofrece en su pequeño restaurante. Pero el mérito es hacerlo sin escatimar la calidad. Todas las mañanas se dirige a la pescadería en busca de las mejores capturas del Cantábrico, con lo que la <span style="font-weight: bold;">frescura </span>está <span style="font-weight: bold;">garantizada</span>. La <span style="font-weight: bold;">carta de vinos</span>, sin ser muy extensa, sí es muy <span style="font-weight: bold;">atractiva y representativa</span> del panorama nacional.<br/></div><br/><h3>Tipo de sidra:<br/></h3><ul><li>Sidra de mesa.<br/></li></ul><br/><h3>Especialidades</h3><ul><li>Menestra a la riojana. </li><li>Cardo con almendras. </li><li>Pescados al horno.</li></ul><h3>Descansa</h3>Domingos<br/><br/><ul><li>No admite animales<br/></li></ul><h4><span style="font-weight: bold;"><a href="http://www.gijon.info/page/5115-gijon-gourmet" title="Ir a http://www.gijon.info/private/178-web/page/5115-gijon-gourmet" rel="external">Gijón Gourmet</a></span></h4><p><br/></p></div></div>","Numa Guilhou, 1- 33206. Gijón.","43.542522 -5.665139","Restaurantes y sidrerías, Guia gastronómica, Turismo-Sidra dop nueva expresion, Turismo-Sidra dop brut, Gijón con Calidad, Turismo, Gijón Gourmet"
"http://www.gijon.es/directorios/show/3333-sidreria-el-globo","3333","es","fecha-actualizacion2014-01-22 12:03:17 +0100","http://www.gijon.es/data/images/f0/f2/28750/169x253_v1_31066_301130112006163957.jpg","Sidrería El Globo","985 172 247","El Globo - San Bernardo, 13- 33201","Restaurantes y sidrerías, 2011, Turismo-Sidra dop nueva expresion, Turismo"
"http://www.gijon.es/directorios/show/3332-casa-ferino","3332","es","fecha-actualizacion2014-01-22 12:03:17 +0100","http://www.gijon.es/data/images/f0/f2/28749/169x253_v1_40203_301130112006161835.jpg","Casa Ferino","+ 34 985 380 471","ferino@casaferino.com","http://www.casaferino.com","<p><span style="font-weight: bold;">Precio mínimo por persona:</span> 25 €</p><p style="text-align: justify;">En este <span style="font-weight: bold;">establecimiento emblemático de Gijón</span> se escancia siempre <span style="font-weight: bold;">una de las mejores sidras de la ciudad</span>, con brazo estirado y estilo cuidado. Su <span style="font-weight: bold;">carta</span> es muy <span style="font-weight: bold;">amplia</span>, con pescados y mariscos, pero quizá sea en el picoteo donde más destaca por su excelente relación calidad precio. Lleno diario, tanto en la barra como en los acondicionados comedores.</p><h3>Tipo de sidra:<br/></h3><ul><li>Sidra de escanciar</li></ul><h3>Especialidades</h3><ul><li>Bocartes con jamón.</li><li>Cachopo de ternera.</li><li>Almejas en salsa verde.<br/></li></ul><h3>Descansa</h3><p>Domingos.</p><ul><li>No permite la entrada de mascotas en el establecimiento.<br/></li></ul>","Camino Fuente de la Carbonera, s/n (Roces). 33211. Gijón.","43.516221 -5.678258","Restaurantes y sidrerías, Guia gastronómica, Turismo"
"http://www.gijon.es/directorios/show/3313-el-portalon-de-rioja","3313","es","fecha-actualizacion2014-01-22 12:03:17 +0100","http://www.gijon.es/data/images/f0/f3/37150/340x341_v1_ElporlalondeRiojaGijon.jpg","El Portalón de Rioja","+ 34 984 291 206","http://www.miguelprado.com/web/elportalonderioja/index.asp","<p><span style="font-weight: bold;">Precio mínimo por persona: </span>20 €</p><p style="text-align: justify;">Esta vinoteca es <span style="font-weight: bold;">parte ya de la historia del vino en la ciudad</span>. Ha cumplido diez años, ha sido testigo de la evolución de los caldos españoles y de los consumidores, y ha logrado mantener la esencia del negocio a pesar del cambio de propiedad. Su decoración huye de las modas minimalistas y se caracteriza por una <span style="font-weight: bold;">notable presencia de la madera</span> y un original toque rústico. La selección de vinos por copas abarca casi todas las regiones vinícolas.<br/></p><h3 style="text-align: justify;">Tapas típicas</h3><ul><li>Medallones de ternera con boletus.</li><li>Revuelto de matachana y piquillos.</li></ul><h3>Descansa<br/></h3><p>Domingos por la tarde y lunes.<br/></p><div class="P modulo100 divL"><div class="H "><strong><br/></strong></div></div>","Calle Emilio Tuya, 46. 33202. Gijón.","43.538461 -5.648593","Vinos y Tapas, Guia gastronómica, Restaurantes y sidrerías, 2011, Gijón de Pinchos, Turismo"
"http://www.gijon.es/directorios/show/3312-la-casa-redonda","3312","es","fecha-actualizacion2014-01-22 12:03:17 +0100","http://www.gijon.es/data/images/f0/f2/28740/169x253_v1_10662_30113011200617747.jpg","La Casa redonda","985 383 334","Poeta Alfonso Camín, 26","Restaurantes y sidrerías"
"http://www.gijon.es/directorios/show/3310-sidreria-roman","3310","es","fecha-actualizacion2014-05-26 12:20:40 +0200","http://www.gijon.es/data/images/f0/f2/28738/169x114_v1_44818_301130112006174017.jpg","Sidrería Román","+ 34 985 358 813","<p><span style="font-weight: bold;">Precio mínimo por persona:</span> 30 €</p><p style="text-align: justify;">Esta sidrería es un lujo para los turistas, porque os permitirá <span style="font-weight: bold;">probar pescados típicos de nuestras costas</span> a un precio muy razonable. Y además, en un <span style="font-weight: bold;">ambiente muy auténtico</span>, con presencia de varias marcas de sidra y unos camareros muy gijonudos. Cuenta con unas mesas junto a la barra, más informales, y un comedor en la parte de atrás. Trabajan especialmente bien la plancha.<br/></p><h3>Especialidades</h3><ul><li>Almejas a la plancha.</li><li>Pulpo con patatines.</li><li>Solla.</li></ul><h3>Descansa</h3><p>Lunes.</p><ul><li>No permite la entrada de mascotas en el establecimiento.<br/></li></ul>","Marqués de Casa Valdés, 6","43.540459 -5.657744","Restaurantes y sidrerías, Guia gastronómica, Turismo"
"http://www.gijon.es/directorios/show/3309-sidreria-restaurante-merendero-el-rinconin-de-deva","3309","es","fecha-actualizacion2014-08-29 13:03:28 +0200","http://www.gijon.es/data/images/f0/f2/28737/169x127_v1_24360_301130112006173848.jpg","Sidrería Restaurante Merendero El Rinconín de Deva","985 365 677","info@merenderorinconindeva.es","http://www.rinconindedeva.com","Menú merendero Ruta de la Sidra Gijón 15€","Camín de Rionda, 76-Deva","43.512719 -5.607682","Merenderos, Para merendar, Ruta de la Sidra, 2011, Turismo-Menú merendero, Ruta de la Sidra, Restaurantes y sidrerías, Turismo"
"http://www.gijon.es/directorios/show/3307-la-martina","3307","es","fecha-actualizacion2014-01-22 12:03:16 +0100","http://www.gijon.es/data/images/f0/f2/28735/169x116_v1_23577_301130112006171231.jpg","La Martina","985 350 247","Magnus Blikstad, 54","Restaurantes y sidrerías, Turismo"
"http://www.gijon.es/directorios/show/3305-el-cartero","3305","es","fecha-actualizacion2014-01-22 12:03:16 +0100","http://www.gijon.es/data/images/f0/f2/28733/169x253_v1_36879_301130112006163727.jpg","El Cartero","+ 34 985 362 558","<p><span style="FONT-WEIGHT: bold">Precio mínimo por persona:</span> 45 €</p><p style="text-align: justify;">Sigue siendo una de las sidrerías más elegantes de la ciudad, siempre impoluta. Quizás se le echa en falta un poco más de regularidad en la preparación de algunos pescados, aunque de la materia prima no hay duda de su excelencia. Ideal también para picotear unos calamares y unos fritos de pixín entre semana. Buen palu de sidra perfectamente tratada.</p><ul><li>No admite animales.<br/></li></ul><h3>Tipo de sidra:<br/></h3><ul><li>Sidra de escanciar</li></ul><h3>Especialidades</h3><ul><li>Arroz con bugre.</li><li>Pescados al horno.</li></ul><h3>Descansa</h3><p>Domingos noche y lunes.<br/></p>","Cienfuegos, 30. 33205. Gijón.","43.535188 -5.656277","Restaurantes y sidrerías, Guia gastronómica, Turismo"
"http://www.gijon.es/directorios/show/3304-casa-ataulfo","3304","es","fecha-actualizacion2016-01-18 09:51:26 +0100","http://www.gijon.es/data/images/f0/f8/81550/4944x3296_v1__B0A1831.jpg","Casa Ataúlfo","+ 34 985 340 787","<p><span style="font-weight: bold;">Precio mínimo por persona:</span> 45 €</p><div class="P modulo100 divL"><div class="H "><div style="text-align: justify;"><span style="font-weight: bold;">¡Que bonita ha quedado esta sidrería tras la reforma! </span>Si os gustan los productos del mar, aquí encontraréis las piezas más grandes y sabrosas. Estaréis ante un escaparate por el que se pasean <span style="font-weight: bold;">bugres, centollos, percebes, lubinas, besugos</span> y cualquier producto que provenga del mar. Es un local muy placentero, en el que los foráneos disfrutaréis mucho, porque está lleno de autenticidad. Es uno de las <span style="font-weight: bold;">sidrerías favoritas de los gijoneses</span>, y eso ya es mucho decir. No tengáis miedo en preguntar el precio de las cosas, porque casi todo es al peso y así os evitaréis sorpresas en la factura.<br/></div><br/><h3>Tipo de sidra:<br/></h3><ul><li>Sidra de escanciar</li></ul><h3>Especialidades</h3><ul><li>Pastel de centollo.</li><li>Arroz con bugre.</li><li>Pescados del Cantábrico.</li></ul><h3>Descansa</h3>Los lunes.<br/><br/><ul><li>No permite la entrada de mascotas en el establecimiento.<br/></li></ul><br/></div></div>","Cabrales, 29. 33201. Gijón.","43.54015 -5.660105","Restaurantes y sidrerías, Guia gastronómica, Gijón con Calidad, Turismo"
"http://www.gijon.es/directorios/show/3302-cabanaquinta","3302","es","fecha-actualizacion2014-01-22 12:03:16 +0100","http://www.gijon.es/data/images/f0/f2/28730/169x113_v1_26277_301130112006161150.jpg","Cabañaquinta","985 391 434","985 140 175","María Dolores, 26","Restaurantes y sidrerías"
"http://www.gijon.es/directorios/show/3301-xeitosa","3301","es","fecha-actualizacion2014-01-22 12:03:16 +0100","Xeitosa","985 348 054","Decano Prendes Pando, 2","Restaurantes y sidrerías"
"http://www.gijon.es/directorios/show/3300-v-crespo","3300","es","fecha-actualizacion2016-01-18 10:36:57 +0100","http://www.gijon.es/data/images/f0/f8/81562/1600x900_v1_IMG-20150722-WA0005.jpg","V. Crespo","+ 34 985 347 534","+ 34 985 347 488","<p><span style="font-weight: bold;">Precio mínimo por persona: </span>35 €</p><div style="text-align: justify;">El aire marinero impregna el local desde la misma puerta, que se incrementa luego con redes y timones, y por supuesto con una <span style="font-weight: bold;">cocina tradicional marinera</span>, con guisos, pescados y arroces. Es un comedor que hace sentir cómodo al que lo visita, a lo que colabora también la atención de la sala. Es casi un <span style="font-weight: bold;">clásico de Gijón </span>a pesar de que todavía no ha cumplido la mayoría de edad. Buena relación calidad precio.<br/></div><p><br/></p><h3>Especialidades</h3><ul><li>Patatas con langostinos.</li><li>Salpicón de centollo.</li><li>Arroces marineros.</li></ul><ul><li>No admite animales.<br/></li></ul><h3>Descansa</h3><p>Domingos noche y lunes.<br/></p><div class="P modulo100 divL"><div class="H"><br/></div></div>","Periodista Adeflor, 3. 33205. Gijón.","43.537741 -5.662334","Restaurantes y sidrerías, Guia gastronómica, Gijón de cócteles, 2011, Gijón con Calidad, Turismo"
"http://www.gijon.es/directorios/show/3299-pizzeria-gepetto-centro","3299","es","fecha-actualizacion2017-07-24 14:01:42 +0200","http://www.gijon.es/data/images/f0/f9/97209/600x258_v1_gepettocent.jpg","Pizzería Gepetto Centro","+34 985 351 109","+ 34 984 199 561","gepettocentro@grupogavia.com","De 12:30 a 16:00 h y de 20:00 a 24:00 h.<br/><span style="FONT-WEIGHT: bold"></span>","<div style="text-align: justify;">A cien metros de la <span style="FONT-WEIGHT: bold">Plaza Mayor</span>, espectacular local de principios de siglo con una cuidada decoración que recrea distintos <span style="FONT-WEIGHT: bold">ambientes rústicos</span>.<br/><br/>Nuestra cocina al más puro <span style="FONT-WEIGHT: bold">estilo tradicional italiano</span> nos ha hecho merecedores del reconocimiento del público gijonés y foráneo.</div><br/><br/><h3>Persona de contacto:</h3>D. Fernando Castaño<br/><br/><h3>Chef:</h3>Dña. Ángela Rodríguez. <br/><br/><h3>Especialidades:</h3>Pasta casera. <br/><br/><h3>Capacidad:</h3>250 comensales.<br/><br/><h3>Sellos de calidad:</h3>Plan de Calidad Ayto. de Gijón.<br/><br/><h3>Tarjetas admitidas:</h3>Todas las habituales<br/><br/><span style="font-weight: bold;">Día de descanso</span>: No cierra<br/><br/><br/><h4><span style="font-weight: bold;">Descuento del 10% con la tarjeta turística Gijón Card</span></h4>","San Bernardo, 22 - 33201 Gijón.","43.543483 -5.662319","Restaurantes y sidrerías, Congresos, 2011, Gijón Card, Gijón card. Tarjeta turística, Guia gastronómica, Gijón de Pinchos, Gijón con Calidad, Club de Empresas de Turismo de Negocios, Turismo"
"http://www.gijon.es/directorios/show/3298-pizzeria-gepetto-arena","3298","es","fecha-actualizacion2014-09-01 12:37:38 +0200","http://www.gijon.es/data/images/f0/f2/28727/169x113_v1_22549_301130112006173234.jpg","Pizzería Gepetto Arena","+34 985 372 933","+ 34 984 199 561","gepettoarena@grupogavia.com","http://www.grupogavia.com/","De 12:30 a 16:00 h y<span style="FONT-WEIGHT: bold"></span> de 20:00 a 24:00 h.","<div style="text-align: justify;">En el barrio de La Arena, un establecimiento con un <span style="FONT-WEIGHT: bold">prestigio establecido</span> desde hace más de 8 años en el que podrá degustar platos de cocina <span style="FONT-WEIGHT: bold">tradicional italiana</span> en un ambiente acogedor y familiar.</div> <br/><br/><h3>Persona de contacto:</h3>Dña. Carmen Ordieres.<br/><br/><h3>Chef:</h3>Dña. Amparo Crespo.<br/><br/><h3>Especialidades:</h3>Pasta casera.<br/><br/><h3>Capacidad:</h3>150 comensales.<br/><br/><h3>Sellos de calidad:</h3>SICTED.<br/><br/><h3>Tarjetas admitidas:</h3>Todas las habituales.<br/><br/><ul><li>No admite animales.<br/></li></ul><br/><h4><span style="font-weight: bold;">Descuento del 10% con la tarjeta turística Gijón Card</span></h4>","Marqués de Casa Valdés, 91 bajo - 33202 Gijón.","43.538171 -5.651815","Restaurantes y sidrerías, 2011, Gijón Card, Gijón card. Tarjeta turística, Guia gastronómica, Turismo, Turismo, Gijón con Calidad"
"http://www.gijon.es/directorios/show/3297-los-nogales","3297","es","fecha-actualizacion2017-06-26 14:33:26 +0200","http://www.gijon.es/data/images/f0/f2/28726/169x116_v1_4724_301130112006172746.jpg","Los Nogales","985 336 334 / 985 132 525","985 195 232","<a href="http://mailto:losnogales@restaurantelosnogales.es" title="Ir a mailto:losnogales@restaurantelosnogales.es">losnogales@restaurantelosnogales.es</a>","http://www.restaurantelosnogales.es/","<p><span style="font-weight: bold;">Precio mínimo por persona: </span>45 €</p><div class="P modulo100 divL"><div class="H ">Si os gustan los pescados y mariscos merece la pena acercarse hasta esta casa, <span style="font-weight: bold;">ubicada a las afueras de la ciudad</span>, en una colina de <span style="font-weight: bold;">magníficas vistas</span>. Miguel siempre busca una relación calidad precio que no castigue al cliente, y ese es el secreto de su <span style="font-weight: bold;">lleno casi diario</span>. Para estómagos generosos son ideales las parrilladas de pescados y mariscos, enormes, que recordaréis con el paso de los años. La sala <span style="font-weight: bold;">funciona con agilidad</span> y colabora a un conjunto placentero.<br/><br/><h3>Tipo de sidra:<br/></h3><ul><li>Sidra de escancia</li></ul><h3>Especialidades</h3><ul><li>Espárragos rellenos.</li><li>Pixín con almejas.</li><li>Parrillada de mariscos.</li></ul><h3>Descansa</h3>Lunes noche y martes.<br/></div></div>","Barrio La Aldea. Camino de la Matona, 118. Santurio.","Restaurantes y sidrerías, Guia gastronómica, Para merendar, Gijón con Calidad, Turismo, Gijón accesible"
"http://www.gijon.es/directorios/show/3296-las-delicias","3296","es","fecha-actualizacion2017-07-24 11:47:03 +0200","http://www.gijon.es/data/images/f0/f9/97178/190x110_v1_restaurantelasdelicias.jpg","Las Delicias","+ 34 985 36 02 27","gerencia@restaurantelasdelicias.com","http://www.restaurantelasdelicias.com/","Las Delicias se define por las modernas instalaciones y una cocina de autor que no renuncia a la tradición. Por fuera, un estilo sobrio y elegante, típico de la arquitectura tradicional asturiana. Por dentro, una distribución racional del espacio en el que se combinan eficacia e imaginación.<br/><br/>El restaurante La Delicias aporta en cada ocasión un ambiente distinto que van desde propuestas clásicas al más puro minimalismo de inspiración oriental. Atractivos, elegantes, funcionales: interiores con carácter propio.<br/><br/><h3>Especialidades</h3><ul><li>Arroces y pescados</li></ul><br/><h4 style="font-weight: bold;">Descuento del 10% con la tarjeta turística Gijón Card</h4><br/><span style="font-weight: bold;">Cierra domingos noche y lunes</span>.<br/><br/><h3>Servicios:</h3><a title="Hoja de Servicios Las Delicias" href="/multimedia_objects/download?object_id=88334&amp;object_type=document">Descargar Hoja de Servicios</a><br/><br/><ul><li>Contacto: Marta Aguilera<br/></li></ul>","Camino de las Dalias 80, 33203 Somió- Gijón","43.532913 -5.619199","Restaurantes y sidrerías, Banquetes, Guia gastronómica, Gijón de Pinchos, Gijón card. Tarjeta turística, Gijón Card, Gijón con Calidad, Gijón accesible, Club de Empresas de Turismo de Negocios, Turismo"
"http://www.gijon.es/directorios/show/3295-la-tabla","3295","es","fecha-actualizacion2014-01-22 12:03:16 +0100","http://www.gijon.es/data/images/f0/f2/28724/169x113_v1_19499_30113011200617200.jpg","La Tabla","+ 34 985 136 456","985 138 013","www.restaurantelatabla.com","<p><span style="font-weight: bold;">Precio mínimo por persona: </span>45 €</p><div class="P modulo100 divL"><div class="H "><div style="text-align: justify;">Los hermanos Menéndez crecen en <span style="font-weight: bold;">profesionalidad</span> y como empresarios. Han consolidado el bar de sus abuelos como una de las mesas más sólidas del concejo, han invertido en decoración y después en vino, ofreciendo una de las mayores ofertas del país, y no parece que vayan a detenerse ahí. Buscan el <span style="font-weight: bold;">equilibrio entre cantidad y calidad</span>, y apuestan por productos de la tierra, a los que buscan compañeros de viaje para lograr platos redondos. Un lugar <span style="font-weight: bold;">muy placentero</span>, ejemplo de lo que podríamos bautizar como <span style="font-weight: bold;">cocina ecléctica</span>.<br/></div><br/><h3>Tipo de sidra:<br/></h3><ul><li>Sidra de escanciar</li><li>Sidra de mesa<br/></li></ul><br/><h3>Especialidades</h3><ul><li>Canelón ibérico de cigala con ahumado de pría.</li><li>Chopa con guiso de llámpares y sidra.</li></ul><h3>Descansa</h3>Lunes noche y martes.<br/><br/><ul><li>No permite la entrada de animales en el establecimiento.<br/></li></ul></div></div>","Ctra. Gijón - Pola de Siero Km. 11. Fano - Gijón.","43.458652 -5.622253","Restaurantes y sidrerías, Guia gastronómica, Turismo"
"http://www.gijon.es/directorios/show/3294-la-solana","3294","es","fecha-actualizacion2016-01-20 16:00:42 +0100","http://www.gijon.es/data/images/f0/f2/28723/169x113_v1_14307_301130112006171832.jpg","La Solana","+ 34 985 168 186","+ 34 985 168 186","correo@restaurantelasolana.es","<p><span style="font-weight: bold;">Precio mínimo por persona: </span>50 €</p><div class="P moduloprehome"><div class="H "><div style="text-align: justify;">Vive un excelente momento, siendo <span style="font-weight: bold;">uno de los puntales en la restauración gijonesa</span>. Su ubicación, en un maravilloso chalet de dos plantas a las afueras, ayuda a un conjunto placentero. Es como si el tiempo se detuviese, porque reina la calma, un <span style="font-weight: bold;">servicio esmerado y atento</span>, a la vez que <span style="font-weight: bold;">sosegado</span> y <span style="font-weight: bold;">relajante</span>, y una cocina que desarrolla las raíces y en constante crecimiento. Cualquier gourmet que se precie no debe dejar de visitar esta casa.<br/></div><h3><br/></h3><h3>Tipo de sidra:<br/></h3><ul><li>Sidra de mesa</li></ul><br/><h3>Especialidades</h3><ul><li>Lubina asada con emulsión de limón verde y habitas.</li><li>Lomos de Sanmartín con guiso de llámpares y manzana verde.</li></ul><h3>Descansa</h3>Domingos noche y lunes.<br/><br/><ul><li>No admite animales.<br/></li></ul></div></div>","Crta. Centro Asturiano, s/n. 33390. Gijón.","43.49596 -5.680962","Restaurantes y sidrerías, Guia gastronómica, Turismo"
"http://www.gijon.es/directorios/show/3293-la-pondala","3293","es","fecha-actualizacion2014-09-01 12:41:31 +0200","http://www.gijon.es/data/images/f0/f2/28722/169x215_v1_17701_301130112006171546.jpg","La Pondala","+ 34 985 361 160 / 985 369 346","+ 34 985 366 088","lapondala@lapondala.com","http://www.lapondala.com","<p><span style="font-weight: bold;">Precio mínimo por persona:</span> 50 €</p><p style="text-align: justify;">Este restaurante, <span style="font-weight: bold;">clásico entre los clásicos</span>, feudo de las clases pudientes de la región, ha entrado en una fase de <span style="font-weight: bold;">renovación positiva</span>. En los últimos tiempos ha fichado a un <span style="font-weight: bold;">muy buen cocinero</span> y a un <span style="font-weight: bold;">magnífico jefe de sala</span>, que a buen seguro vendrán a aportar aire fresco. <span style="font-weight: bold;">Bordan el roast beef</span> y la <span style="font-weight: bold;">menestra de verduras</span>, que se deben encargar al realizar la reserva. Suele gustar más a los mayores, a aquellos que no quieren que les sorprendan.</p><h4 style=" text-align: justify;"><span style="font-weight: bold;">Descuento del 10% con la tarjeta turística Gijón Card</span><br/></h4><h3>Tipo de sidra:<br/></h3><ul><li>Sidra de escanciar</li></ul><h3>Especialidades</h3><ul><li>Crepes rellenos de centollo.</li><li>Arroz con almejas.</li><li>Roast beef.</li></ul><h3>Descansa</h3><p>Jueves.</p><ul><li>No admite animales.<br/></li></ul>","Avd. de Dionisio Cifuentes, 58. 33394. Somió.","43.53669 -5.622565","Restaurantes y sidrerías, Guia gastronómica, Gijón card. Tarjeta turística, Gijón Card, Turismo, Gijón con Calidad"
"http://www.gijon.es/directorios/show/3291-la-casa-del-parque","3291","es","fecha-actualizacion2014-01-22 12:03:16 +0100","http://www.gijon.es/data/images/f0/f2/28720/169x127_v1_21796_30113011200617613.jpg","La Casa del Parque","+ 34 985 372 497","info@lacasadelparque.es","http://www.lacasadelparque.es","<p><span style="FONT-WEIGHT: bold">Precio mínimo por persona: </span>35 €</p><p style="text-align: justify;">Es una maravilla que todavía existan casas de comidas como esta, pequeña, familiar, en la que con una regularidad envidiable nos preparan <span style="FONT-WEIGHT: bold">guisos tradicionales</span> y <span style="FONT-WEIGHT: bold">platos de cuchara</span> para chuparse los dedos. Aquí no hay creatividad, ni un sumiller entendido, solamente <span style="FONT-WEIGHT: bold">agilidad en el servicio</span> y <span style="FONT-WEIGHT: bold">cocina con raíces</span>. Ideal para acudir el domingo antes de ir al fútbol, porque algún partido del Sporting verán, ¿no?. Excelente relación calidad-precio.</p><ul><li>No admite animales.<br/></li></ul><h3>Especialidades</h3><ul><li>Pote asturiano.</li><li>Menestra.</li><li>Patatas rellenas.</li></ul><h3>Descansa</h3><p>Domingos noches y lunes.<br/></p>","Avd. Torcuato Fernández Miranda, 42. 33203. Gijón.","43.535911 -5.641439","Restaurantes y sidrerías, Guia gastronómica, Turismo"
"http://www.gijon.es/directorios/show/3290-auga-restaurant","3290","es","fecha-actualizacion2017-07-24 11:17:31 +0200","http://www.gijon.es/data/images/f0/f9/97168/190x110_v1_AUGArestaurante.jpg","AUGA Restaurant","+ 34 985 168 186","+ 34 985 349 096","info@restauranteauga.com","http://www.restauranteauga.com/","Gonzalo Pañeda y Antonio Pérez conforman una de las parejas más sólidas del panorama gastronómico actual en Asturias.<br/><br/>Experiencia gastronómica en el entorno del Puerto Deportivo de Gijón basada en una actualización de la cocina tradicional.<br/><br/>Auga Restaurante dispone de salas privadas y un comedor principal que permite múltiples montajes. La terraza acristalada es el espacio ideal para eventos más informales, cócktails y presentaciones.<br/><br/>Contacto: Antonio Pérez<br/><br/><span style="font-weight: bold;">Página web: </span><a href="http://www.restauranteauga.com/" title="Ir a http://www.restauranteauga.com/" rel="external">www.restauranteauga.com</a><span style="font-weight: bold;"></span> <br/><br/><h3>Tipo de sidra:<br/></h3><ul><li>Sidra de mesa<br/></li></ul><br/><h3>Especialidades</h3><ul><li>Crepe de centollo.</li><li>Milhojas de pulpo en crujiente de verduras y pescados a la sal.</li></ul><h3>Descansa</h3>Domingos noche<br/><br/><h4 style="font-weight: bold;"><a href="http://www.gijon.info/page/5115-gijon-gourmet" title="Ir a http://www.gijon.info/page/5115-gijon-gourmet" rel="external">Gijón Gourmet</a></h4>","Claudio Alvargonzález, s/n. Edificio Puerto Deportivo. 33201. Gijón","43.5463 -5.667133","Restaurantes y sidrerías, Guia gastronómica, Congresos, Club de Empresas de Turismo de Negocios, Gijón Gourmet, Turismo"
"http://www.gijon.es/directorios/show/3289-el-perro-que-fuma","3289","es","fecha-actualizacion2015-07-22 13:06:34 +0200","http://www.gijon.es/data/images/f0/f2/28718/169x113_v1_42561_301130112006164615.jpg","El Perro que Fuma","+ 34 984 193 493","+ 34 984 193 493","restaurante@elperroquefuma.com","http://www.elperroquefuma.com","<p><span style="font-weight: bold;">Precio mínimo por persona:</span> 40 €</p><div class="P modulo100 divL"><div class="H "><div style="text-align: justify;">Este local ha experimentado <span style="font-weight: bold;">demasiados cambios en muy poco tiempo</span>, pero lo cierto es que sigue teniendo un excelente <span style="font-weight: bold;">menú ejecutivo</span>, que permite disfrutar de un marco exquisito y elegante en una de las zonas más tranquilas y a la vez más de moda de la ciudad. Cuentan con una <span style="font-weight: bold;">buena bodega de vinos </span>y una atención en sala voluntariosa. El local tiene un <span style="font-weight: bold;">punto romántico</span>, con lo que puedes dar a tu pareja una agradable sorpresa.<br/><br/><ul><li>No admite animales.<br/></li></ul></div><br/><h3>Tipo de sidra:<br/></h3><ul><li>Sidra de escanciar</li></ul><br/><h3>Especialidades</h3><ul><li>Pixín con brocheta de langostinos.</li><li>Solomillo de avestruz con crema de naranja y brocheta de verduras.</li></ul><h3>Descansa</h3>Domingos noche y lunes<br/><br/><h4 style="font-weight: bold;">Descuento del 10% con la tarjeta turística Gijón Card</h4><br/></div></div>","Poeta Ángel González, 18 - Viesques. 33204. Gijón.","43.52887 -5.64135","Restaurantes y sidrerías, Guia gastronómica, Gijón card. Tarjeta turística, Gijón Card, Turismo, Gijón con Calidad"
"http://www.gijon.es/directorios/show/3288-el-jamonar","3288","es","fecha-actualizacion2015-01-21 12:45:52 +0100","http://www.gijon.es/data/images/f0/f2/28717/169x113_v1_35078_301130112006164151.jpg","El Jamonar","+ 34 985 342 844","<p>Precio mínimo por persona: 25 €</p><div class="P modulo100 divL"><div class="H "><div style="text-align: justify;">Su <span style="font-weight: bold;">menú del día</span> es <span style="font-weight: bold;">difícilmente superable</span>, y la mejor demostración es que es complicado encontrar una mesa libre a la hora de la comida. Es de esos sitios que se merecen estar en la guía por su relación calidad precio. Tienen una <span style="font-weight: bold;">excelente cocina</span> para picar algo en plan informal y pagar poco, algo que por desgracia cada vez escasea más.<br/><br/><ul><li>No admite animales.<br/></li></ul></div><span style="font-weight: bold;">Especialidades</span><ul><li>Bacalao con pisto.</li><li>Cachopo de ternera.</li></ul><h3>Descansa</h3>Domingo noche.<br/><br/></div></div>","Begoña, 38. 33201. Gijón.","43.541893 -5.662755","Restaurantes y sidrerías, Guia gastronómica, 2011, Gijón de Pinchos, Turismo"
"http://www.gijon.es/directorios/show/3287-contornos","3287","es","fecha-actualizacion2014-01-22 12:03:16 +0100","http://www.gijon.es/data/images/f0/f2/28716/169x253_v1_33509_301130112006163010.jpg","Contornos","985 357 951","984 199 561","RES.CONTORNOS@terra.es","María Bandujo, 5 - bajo","Restaurantes y sidrerías"
"http://www.gijon.es/directorios/show/3286-ciudadela","3286","es","fecha-actualizacion2017-07-24 13:47:22 +0200","http://www.gijon.es/data/images/f0/f9/97206/190x110_v1_cuevasCiudadela.jpg","Ciudadela","+34 985 347 732","+ 34 984 199 561","ciudadela@grupogavia.com","http://www.restauranteciudadela.com","<div class="P modulo100 divL"><div class="H ">Su situación privilegiada, en pleno centro de Gijón y junto a la playa de San Lorenzo, y su decoración original y acogedora con comedores privados ubicados en cuevas de adobe, son sólo algunos de los atractivos que la Ciudadela les descubrirá.<br/><br/>Cocina basada en la sabiduría gastronómica popular, pero con sutiles guiños encaminados hacia la nueva cocina, todo ello regado con los mejores caldos del país.<br/><br/><h3><br/></h3><h3>Tipo de sidra:<br/></h3><ul><li>Sidra de mesa</li></ul><br/><h3>Especialidades</h3><ul><li>Ensalada de quesos asturianos. </li><li>Lomo de venado con sus purés.</li></ul><h3>Descansa</h3>Domingo.<br/><br style="font-weight: bold;"/><h4><span style="font-weight: bold;">Descuento del 10% con la tarjeta turística Gijón Card</span></h4><h4><span style="font-weight: bold;"><a href="http://www.gijon.info/page/5115-gijon-gourmet" title="Ir a http://www.gijon.info/page/5115-gijon-gourmet" rel="external">Gijón Gourmet</a></span></h4><br/></div></div>","Capua, 7- 33202. Gijón","43.541336 -5.658466","Restaurantes y sidrerías, Guia gastronómica, Congresos, Gijón Card, Gijón card. Tarjeta turística, Gijón de Pinchos, Gijón con Calidad, Club de Empresas de Turismo de Negocios, Turismo"
"http://www.gijon.es/directorios/show/3285-casa-zabala","3285","es","fecha-actualizacion2014-01-22 12:03:16 +0100","http://www.gijon.es/data/images/f0/f2/28715/169x253_v1_11245_301130112006162515.jpg","Casa Zabala","+34 985 34 17 31","casazabala@telecable.es","http://www.casazabala.com","<p class="destacado2"></p><p><span style="FONT-WEIGHT: bold">Precio mínimo por persona:</span> 40 €</p><div class="P moduloBoletin "><div class="H Z"><div style="text-align: justify;">Es un local sin trampa ni cartón, que sigue manteniendo un alto nivel basado en una <span style="FONT-WEIGHT: bold">cocina sencilla</span> y una sobresaliente <span style="FONT-WEIGHT: bold">materia prima</span>. Su <span style="FONT-WEIGHT: bold">especialidad</span>, sin duda, son los <span style="FONT-WEIGHT: bold">pescados a la espalda</span>. Es un<span style="FONT-WEIGHT: bold"> local elegante</span>, ubicando en el casco antiguo, en el que es fácil encontrarse a gusto. Y si visitas Gijón en verano, en Zabala puedes tomar <span style="FONT-WEIGHT: bold">una de las mejores ventriscas de bonito</span> de la ciudad. Excelente bodega y atención en sala.<br/><br/><ul><li>No permite la entrada de animales al establecimiento.<br/></li></ul></div><h3><br/></h3><h3>Tipo de sidra:<br/></h3><ul><li>Sidra de escanciar</li></ul><br/><h3>Especialidades</h3><ul><li>Calamares de potera.</li><li>Pescados a la espalda.</li></ul><h3>Descansa</h3>Domingos noche y lunes<br/><br/><br/></div></div>","Vizconde de Campo Grande, 2, 33201 - Gijón","43.546558 -5.662894","Restaurantes y sidrerías, Turismo, Guia gastronómica"
"http://www.gijon.es/directorios/show/3281-bal-hotel-spa-business-leisure","3281","es","fecha-actualizacion2017-07-21 15:55:30 +0200","http://www.gijon.es/data/images/f0/f9/97127/3459x4097_v1_balhotel1.jpg","Bal Hotel Spa BUSINESS &amp; LEISURE*****","+34 985 34 19 97","+34 985 89 76 78","hotel@balhotel.com","http://www.balhotel.com/","El Bal Hotel Spa es un lujoso establecimiento de 5 estrellas ubicado en un tranquilo entorno rural y pensado para combinar brillantemente los negocios con el ocio.<br/><br/>De nueva construcción, el Bal Hotel Spa se integra en las formas típicas que predominan en la zona.<br/><br/>El Bal Hotel dispone de 45 modernas habitaciones decoradas en estilo clásico.<br/><br/>El Bal Hotel anima a sus clientes a disfrutar durante su estancia de nuestro lujoso y exclusivo SPA donde en sus 450 m<sup>2</sup> podrá encontrar una amplia variedad de tratamientos y actividades.<br/><br/><br/><h3>Número de habitaciones:</h3>45 habitaciones (38 habitaciones dobles, 6 Junior Suite, 1 Suite).<br/><br/><h3>Servicios en habitaciones:</h3><ul><li>Televisión plana 32 pulgadas.</li><li>Televisión satélite.</li><li>Estación de radio y música para la reproducción de MP3 mediante cable USB.</li><li>Conexión Wifi gratuito</li><li>Aire acondicionado y calefacción.</li><li>Albornoces y zapatillas.</li><li>Productos de acogida de Chopard.</li><li>Minibar con estaciones de café Tassimo.</li><li>Room service 24 h.</li><li>Cunas (bajo petición).</li><li>Camas extras (bajo petición).</li></ul><br/><h3>Servicios en hotel:</h3><ul><li>Botones.</li><li>Acceso para discapacitados.</li><li>Salón de ocio privado.</li><li>Servicio de canguro (bajo petición).</li><li>Guardería-ludoteca (bajo petición).</li><li>Punto de conexión a Internet.</li><li>Servicio de secretariado.</li><li>Conexión Wifi.</li><li>Alquiler de coches. </li><li>Caja de seguridad.</li><li>Servicio de conserjería.</li><li>Transfer.</li><li>Estación de recarga de coches eléctricos.</li><li>Solarium.</li><li>Jardín de 1.800 metros cuadrados.</li><li>Tres pistas de pádel.<br/></li><li>Aparcamiento gratuito.</li></ul><h3>Información sobre las salas del Bal Hotel Spa</h3><br/><table><thead><tr><th>Sala<br/></th><th>Banquete</th><th>Cóctel</th><th>Teatro</th><th>Clase</th><th>m<sup>2</sup></th></tr></thead><tbody><tr><td>Salón La Ñora<br/></td><td>180</td><td>250</td><td>190</td><td>150</td><td>256,00</td></tr><tr><td>Salón Playa España<br/></td><td>80</td><td>110</td><td>90</td><td>60</td><td>114,00</td></tr><tr><td>Salón Home Cinema<br/></td><td><br/></td><td><br/></td><td>26</td><td><br/></td><td>24,00</td></tr></tbody></table>","N-632 Km 59,6 - 33314 Quintueles. Villaviciosa","*****, Hotel, Alojamiento, Aire acondicionado / climatizador, Calefaccion, TV satelite, Conexion WiFi, Hilo musical, Minibar, Secador de pelo, Caja de seguridad, Servicio de habitaciones, Cuna, Restaurante, Cafeteria, Parking gratuito, Fitness / Gimnasio, Spa, Lavanderia, Salas de reuniones, Salones de banquetes, Zonas verdes, Congresos, Salas en hoteles, Hoteles con salas, Club de Empresas de Turismo de Negocios, *****, Restaurantes y sidrerías, Hotel, Turismo"
"http://www.gijon.es/directorios/show/3254-parador-de-turismo-molino-viejo","3254","es","fecha-actualizacion2017-07-26 11:27:36 +0200","http://www.gijon.es/data/images/f0/f9/97122/3948x2910_v1_ParadordeGijon.jpg","Parador de Turismo “Molino Viejo”****","+34 985 370 511 / 985 01 00 00","+ 34 985 370 233 / 985 37 05 11","gijon@parador.es","http://www.parador.es/es/parador-de-gijon","<div style="text-align: justify;">El Parador está situado en la <span style="FONT-WEIGHT: bold">zona residencial de Gijón</span>, en pleno parque de Isabel La Católica, junto al estadio de fútbol El Molinón y el recinto de la Feria de Muestras. La solera del edificio y su acogedor entorno confieren al Parador un aspecto de armonía y tranquilidad.<br/><br/>La amplitud del interior y de las habitaciones recrea un <span style="FONT-WEIGHT: bold">ambiente cálido con instalaciones confortables</span> en las que prima la luminosidad convirtiéndose en el lugar ideal para alejarse sin salir de la ciudad ferial y centro de negocios. Desde sus ventanales se intuye la presencia del mar.<br/><br/>Alojamiento reconocido “<a href="http://www.asturiascongresos.com/es/empresa/parador-de-gijon-responsable/" title="Ir a http://www.asturiascongresos.com/es/empresa/parador-de-gijon-responsable/" rel="external">Gijón Turismo Responsable</a>”<br/><br/><h4 style="font-weight: bold;">Descuento del 10% con la tarjeta turística Gijón Card</h4></div><br/><h3>Número de habitaciones:</h3>40 habitaciones.<br/><br/><h3>Servicios en habitaciones:</h3><ul><li>Teléfono. </li><li>Baño completo.</li><li>Caja fuerte</li><li>Televisión + Canal plus</li><li>Minibar									</li></ul><h3>Servicios en hotel:</h3><ul><li>Cambio de moneda. </li><li>Ascensor. </li><li>Certificado de gestión medioambiental.</li><li>Acceso gratuito a Internet Wifi en zonas comunes									</li><li>										Aire acondicionado 									</li><li>										Antena parabólica									</li><li>										Bar									</li><li>										Calefacción									</li><li>										Distancia a aeropuerto: <strong>45 km.</strong>									</li><li>										Distancia a estación ferrocarril: <strong>2 km.</strong>									</li><li>										Distancia a puerto: <strong>3 km.</strong>									</li><li>										Facilidades accesibilidad (Consulte en el Parador)									</li><li>										Hilo musical									</li><li>										Jardín									</li><li>										No se admiten animales									</li><li>										Parking (Sin vigilancia, plazas limitadas)									</li><li>										Restaurante									</li><li>										Salones de conferencias y reuniones									</li><li>										Tarjetas de crédito</li><li><b>Tarifa especial en los Campos Municipales de Golf de Gijón</b>: La Llorea y el Tragamón, reservando desde el hotel.</li></ul><h3>Otros sellos de Calidad:</h3>Certificación de gestión medioambiental ISO:14001.<br/><br/><h4></h4><h3>Información sobre las salas del Parador Nacional Molino Viejo</h3><br/><table><thead><tr><th>Sala</th><th>Banquete</th><th>Cóctel</th><th>Teatro</th><th>Clase</th><th>m<sup>2</sup></th><th>Altura</th></tr></thead><tbody><tr><td>Salón Parque<br/></td><td>35</td><td>55</td><td>55</td><td>30</td><td>94</td><td>2,96</td></tr><tr><td>Salón Chimenea<br/></td><td>12</td><td>20</td><td>12</td><td>6</td><td>31</td><td>3,84</td></tr><tr><td>Salón Principal<br/></td><td>100</td><td>150</td><td>150</td><td>70</td><td>150</td><td>3,84</td></tr><tr><td>Salón Porche<br/></td><td>60</td><td>70</td><td>70</td><td>50</td><td>94</td><td>2,96</td></tr></tbody></table><br/><h3>Equipamiento:</h3>Televisión, vídeo y pantalla.","Avenida Torcuato Fdz. Miranda 15 - 33203. Gijón.","43.535841 -5.64002","Hotel, Aire acondicionado / climatizador, Calefaccion, TV satelite, Conexion WiFi, Minibar, Secador de pelo, Caja de seguridad, Servicio de habitaciones, Cuna, Restaurante, Cafeteria, Parking gratuito, Lavanderia, Salas de reuniones, Zonas verdes, Alojamiento, ****, Restaurantes y sidrerías, ****, Gijón card. Tarjeta turística, Gijón Card, Turismo, Gijón con Calidad, Guia gastronómica, Club de Empresas de Turismo de Negocios, Turismo responsable, Hotel, Turismo, Hoteles con salas, Congresos"
"http://www.gijon.es/directorios/show/1922-restaurante-las-penas","1922","es","fecha-actualizacion2015-06-15 09:30:00 +0200","http://www.gijon.es/data/images/f0/f7/75551/320x213_v1_MerenderoLasPenas.JPG","Restaurante Las Peñas","985 338 299","<a href="http://mailto:info@restaurantelaspenias.com" title="Ir a mailto:info@restaurantelaspenias.com">info@restaurantelaspenias.com</a>","http://www.restaurantelaspenias.com/","Camino de los arrieros, 72","43.499527 -5.621344","Turismo, Merenderos, Para merendar, Restaurantes y sidrerías, 2011, Turismo"
"http://www.gijon.es/directorios/show/1916-llagar-de-castiello","1916","es","fecha-actualizacion2017-07-12 14:06:43 +0200","http://www.gijon.es/data/images/f0/f9/92355/5184x3456_v1_MontajeespichatradicionalLlagardeCastiello.jpg","Llagar de Castiello","+34 985 368 338","985 368 338","indema@wanadoo.es","http://www.llagarcastiello.com","El <strong>Llagar de Castiello </strong>es uno de esos espacios asturianosúnicos donde la tradición cultural, la buena sidra y la gastronomía osenvuelven. Sus amplios salones rodeados de<strong> tonelesde madera</strong> y sus agradables y amplios <strong>jardines</strong> con vistas a Laboral Ciudad de laCultura harán que disfrutéis de una jornada inolvidable en unentorno idílico.<br/><br/><br/><h3>Persona de contacto:</h3>Dña. Paula Ruiz Serrano <br/><br/><h3>Horarios:</h3>Bajo petición<br/><br/><h3>Especialidades:</h3>Especialidad en cordero a la estaca. <br/><br/><h3>Capacidad:</h3>1.000 comensales<br/><br/><h3>Información sobre la capacidad de las salas:</h3><br/><table><thead><tr><th>Capacidad Total</th><th>Número de salones</th><th>Capacidad min./max.</th></tr></thead><tbody><tr><td>1.000</td><td>3</td><td>30/1.000</td></tr></tbody></table>","Camín de San Miguel, 807– Castiello de Bernueces. 33394","43.510468 -5.636279","Turismo, Para merendar, Merenderos, Recintos singulares, Restaurantes y sidrerías, Club de Empresas de Turismo de Negocios, Llagares, Turismo"
"http://www.gijon.es/directorios/show/1914-sidreria-merendero-el-chabolu","1914","es","fecha-actualizacion2015-06-15 08:31:05 +0200","http://www.gijon.es/data/images/f0/f7/75535/500x333_v1_MerenderoElChabolu.JPG","Sidrería Merendero El Chabolu","985 373 340","info@elchavoludeva.com","http://www.elchaboludeva.com","Menú merendero Ruta de la Sidra Gijón 15€","Camino de la Barrea, 196 - Deva","43.504196 -5.601346","Turismo, Merenderos, Para merendar, 2011, Ruta de la Sidra, Turismo-Menú merendero, Ruta de la Sidra, Restaurantes y sidrerías, Turismo"
"http://www.gijon.es/directorios/show/1911-casa-suncia","1911","es","fecha-actualizacion2015-06-12 15:03:31 +0200","http://www.gijon.es/data/images/f0/f3/37423/640x480_v1_casa-suncia.jpeg","Casa Suncia","+ 34 985 366 169","casasuncia@hotmail.com","Restaurante - merendero situado en las afueras de Gijón, concretamente en Cabueñes.<br/><br/><ul><li>No permite la entrada de animales en el establecimiento.<br/></li></ul>","Camino de Cabueñes, 971 - Somió. 33203. Gijón.","43.529435 -5.611924","Turismo, Para merendar, Merenderos, Restaurantes y sidrerías, Guia gastronómica, Jornadas, 2011, Turismo-Menestra, Turismo"
"http://www.gijon.es/directorios/show/357-taberna-cafe-gijon","357","es","fecha-actualizacion2016-01-15 10:41:46 +0100","http://www.gijon.es/data/images/f0/f8/81507/800x500_v1_tabernacafeGijon.jpg","Taberna Café Gijón","985 346 796","info@tabenacafegijon.com","www.tabernacafegijon.com","<p>Todoslos días: de 10:00 h a cierre.  Horario cocina de: De lunes a jueves: de13:00 a 16:00 y 20:30 a 23:30 h. Viernes y sábado: de 13:00 a 16:00h. y de 20.30 a24:00 h. Domingo: de 13:00 a 16:00 y de 20:30 a 23:30 h. Miércoles:descanso.</p>","<p>El Café Gijón se encuentra situado junto a la playa de Poniente, frente al Puerto Deportivo, y evoca el recuerdo de la tertulia de los cafés de antaño.</p><p>Especialidad en pinchos, desayunos, tapas variadas, amplia carta de cafés especiales (carajillos, mini-irlandés, vienés,...), coctelería variada (mojitos, caipiriña...).<br/>Sala de exposición permanente, donde cada quince días la obra de un artista cuelga de nuestras paredes.</p><p>Terraza de verano.</p>","C/Rodríguez San Pedro, 33 (también entrada por C/ Marqués de San Esteban, 40)","43.542097 -5.668741","Sala de Exposiciones, Gijón, Turismo, Bares y cafés, Gijón con Calidad, Restaurantes y sidrerías, Guia gastronómica, Cultura y Ocio, Turismo"
